#DEBUG: Format Typ    -> comma
#DEBUG: Time Period   -> 2017-04-13 00:00:00-05:00 2017-04-19 00:00:00-05:00
#DEBUG: Time Zone     -> America/Chicago
#DEBUG: Data Contact   -> daryl herzmann akrherz@iastate.edu 515-294-5978
#DEBUG: Entries Found -> -1
station,valid,tmpf, dwpf, relh, drct, sknt, p01i, alti, mslp, vsby, gust, skyc1, skyc2, skyc3, skyc4, skyl1, skyl2, skyl3, skyl4, presentwx, metar
AMW,2017-04-13 00:00,M,M,M,130.00,5.00,M,30.12,M,10.00,M,OVC,M,M,M,7000.00,M,M,M,M,KAMW 130500Z AUTO 13005KT 10SM OVC070 A3012 RMK  LTG DSNT N AND NE! MADISHF
AMW,2017-04-13 00:05,M,M,M,140.00,4.00,M,30.12,M,10.00,M,OVC,M,M,M,7000.00,M,M,M,M,KAMW 130505Z AUTO 14004KT 10SM OVC070 A3012 RMK  LTG DSNT NE! MADISHF
AMW,2017-04-13 00:10,M,M,M,140.00,3.00,M,30.12,M,10.00,M,OVC,M,M,M,7000.00,M,M,M,M,KAMW 130510Z AUTO 14003KT 10SM OVC070 A3012 RMK  LTG DSNT NE! MADISHF
AMW,2017-04-13 00:15,M,M,M,150.00,4.00,M,30.12,M,10.00,M,OVC,M,M,M,7000.00,M,M,M,M,KAMW 130515Z AUTO 15004KT 10SM OVC070 A3012 RMK MADISHF
AMW,2017-04-13 00:16,57.90,52.00,80.67,150.00,5.00,0.00,30.12,M,10.00,M,OVC,M,M,M,7000.00,M,M,M,M,KAMW 130516Z AUTO 15005KT 10SM OVC070 14/11 A3012 RMK AO2 RAE0459 P0000 T01440111
AMW,2017-04-13 00:20,M,M,M,160.00,6.00,M,30.12,M,10.00,M,BKN,OVC,M,M,7000.00,8500.00,M,M,M,KAMW 130520Z AUTO 16006KT 10SM BKN070 OVC085 A3012 RMK MADISHF
AMW,2017-04-13 00:25,M,M,M,150.00,7.00,M,30.11,M,10.00,M,BKN,OVC,M,M,7000.00,8500.00,M,M,M,KAMW 130525Z AUTO 15007KT 10SM BKN070 OVC085 A3011 RMK MADISHF
AMW,2017-04-13 00:30,M,M,M,140.00,7.00,M,30.10,M,10.00,M,BKN,BKN,M,M,7000.00,8500.00,M,M,M,KAMW 130530Z AUTO 14007KT 10SM BKN070 BKN085 A3010 RMK MADISHF
AMW,2017-04-13 00:35,M,M,M,150.00,5.00,M,30.11,M,10.00,M,BKN,BKN,M,M,6500.00,8500.00,M,M,M,KAMW 130535Z AUTO 15005KT 10SM BKN065 BKN085 A3011 RMK MADISHF
AMW,2017-04-13 00:40,M,M,M,150.00,5.00,M,30.11,M,10.00,M,BKN,OVC,M,M,6000.00,7999.00,M,M,-RA,KAMW 130540Z AUTO 15005KT 10SM -RA BKN060 OVC079 A3011 RMK  LTG DSNT N AND NW! MADISHF
AMW,2017-04-13 00:45,M,M,M,150.00,5.00,M,30.11,M,10.00,M,BKN,OVC,M,M,6500.00,8500.00,M,M,-RA,KAMW 130545Z AUTO 15005KT 10SM -RA BKN065 OVC085 A3011 RMK  LTG DSNT NW-NE! MADISHF
AMW,2017-04-13 00:50,M,M,M,160.00,5.00,M,30.11,M,10.00,M,BKN,OVC,M,M,6000.00,7500.00,M,M,M,KAMW 130550Z AUTO 16005KT 10SM BKN060 OVC075 A3011 RMK  LTG DSNT NW-NE! MADISHF
AMW,2017-04-13 00:53,59.00,51.10,75.02,170.00,6.00,0.00,30.10,1018.90,10.00,M,BKN,BKN,M,M,6000.00,7500.00,M,M,M,KAMW 130553Z AUTO 17006KT 10SM BKN060 BKN075 15/11 A3010 RMK AO2 LTG DSNT N AND NE RAE0459B37E46 SLP189 P0000 60000 T01500106 10183 20128 402000028 56013
AMW,2017-04-13 00:55,M,M,M,170.00,6.00,M,30.11,M,10.00,M,BKN,BKN,OVC,M,6000.00,7500.00,9000.00,M,M,KAMW 130555Z AUTO 17006KT 10SM BKN060 BKN075 OVC090 A3011 RMK  LTG DSNT NE! MADISHF
AMW,2017-04-13 01:00,M,M,M,180.00,4.00,M,30.11,M,10.00,M,BKN,BKN,OVC,M,6000.00,7500.00,9000.00,M,M,KAMW 130600Z AUTO 18004KT 10SM BKN060 BKN075 OVC090 A3011 RMK  LTG DSNT NE! MADISHF
AMW,2017-04-13 01:05,60.10,50.00,69.24,0.00,0.00,0.00,30.11,M,10.00,M,BKN,OVC,M,M,6000.00,7500.00,M,M,VCTS,KAMW 130605Z AUTO 00000KT 10SM VCTS BKN060 OVC075 16/10 A3011 RMK AO2 LTG DSNT NE T01560100
AMW,2017-04-13 01:10,M,M,M,290.00,3.00,M,30.12,M,10.00,M,OVC,M,M,M,6000.00,M,M,M,M,KAMW 130610Z AUTO 29003KT 10SM OVC060 A3012 RMK  LTG DSNT NE! MADISHF
AMW,2017-04-13 01:15,M,M,M,340.00,8.00,M,30.12,M,10.00,M,OVC,M,M,M,5500.00,M,M,M,M,KAMW 130615Z AUTO 34008KT 10SM OVC055 A3012 RMK  LTG DSNT NE! MADISHF
AMW,2017-04-13 01:20,57.00,53.10,86.77,340.00,10.00,0.00,30.12,M,10.00,M,OVC,M,M,M,5500.00,M,M,M,M,KAMW 130620Z AUTO 34010KT 10SM OVC055 14/12 A3012 RMK AO2 LTG DSNT NE T01390117
AMW,2017-04-13 01:25,M,M,M,360.00,8.00,M,30.12,M,10.00,M,OVC,M,M,M,5500.00,M,M,M,M,KAMW 130625Z AUTO 36008KT 10SM OVC055 A3012 RMK  LTG DSNT NE AND E! MADISHF
AMW,2017-04-13 01:30,M,M,M,350.00,9.00,M,30.13,M,10.00,M,OVC,M,M,M,5000.00,M,M,M,-RA,KAMW 130630Z AUTO 35009KT 10SM -RA OVC050 A3013 RMK  LTG DSNT NE AND E! MADISHF
AMW,2017-04-13 01:34,57.90,52.00,80.67,340.00,14.00,0.00,30.14,M,10.00,M,OVC,M,M,M,5000.00,M,M,M,-TSRA,KAMW 130634Z AUTO 34014KT 10SM -TSRA OVC050 14/11 A3014 RMK AO2 LTG DSNT E RAB26 TSB34 PRESRR P0000 T01440111
AMW,2017-04-13 01:35,M,M,M,M,M,M,30.14,M,10.00,M,OVC,M,M,M,5000.00,M,M,M,-RA,KAMW 130635Z AUTO /////KT 10SM -RA OVC050 A3014 RMK  LTG DSNT E! MADISHF
AMW,2017-04-13 01:40,M,M,M,M,M,M,30.14,M,10.00,M,OVC,M,M,M,5000.00,M,M,M,-RA,KAMW 130640Z AUTO /////KT 10SM -RA OVC050 A3014 RMK  LTG DSNT E! MADISHF
AMW,2017-04-13 01:45,M,M,M,30.00,5.00,M,30.13,M,10.00,M,OVC,M,M,M,5000.00,M,M,M,-RA,KAMW 130645Z AUTO 03005KT 10SM -RA OVC050 A3013 RMK MADISHF
AMW,2017-04-13 01:50,M,M,M,40.00,6.00,M,30.13,M,10.00,M,OVC,M,M,M,5000.00,M,M,M,-RA,KAMW 130650Z AUTO 04006KT 10SM -RA OVC050 A3013 RMK MADISHF
AMW,2017-04-13 01:53,55.90,53.10,90.29,70.00,3.00,0.00,30.13,1019.90,10.00,M,OVC,M,M,M,5000.00,M,M,M,-RA,KAMW 130653Z AUTO 07003KT 10SM -RA OVC050 13/12 A3013 RMK AO2 RAB26 TSB34E49 SLP199 P0000 T01330117
AMW,2017-04-13 01:55,M,M,M,50.00,4.00,M,30.13,M,10.00,M,OVC,M,M,M,5000.00,M,M,M,-RA,KAMW 130655Z AUTO 05004KT 10SM -RA OVC050 A3013 RMK  LTG DSNT NE! MADISHF
AMW,2017-04-13 02:00,M,M,M,30.00,6.00,M,30.14,M,10.00,M,OVC,M,M,M,5000.00,M,M,M,M,KAMW 130700Z AUTO 03006KT 10SM OVC050 A3014 RMK  LTG DSNT NE! MADISHF
AMW,2017-04-13 02:05,M,M,M,50.00,5.00,M,30.13,M,10.00,M,OVC,M,M,M,5000.00,M,M,M,M,KAMW 130705Z AUTO 05005KT 10SM OVC050 A3013 RMK  LTG DSNT NE AND E! MADISHF
AMW,2017-04-13 02:10,M,M,M,30.00,5.00,M,30.13,M,10.00,M,OVC,M,M,M,5000.00,M,M,M,M,KAMW 130710Z AUTO 03005KT 10SM OVC050 A3013 RMK  LTG DSNT E! MADISHF
AMW,2017-04-13 02:15,M,M,M,50.00,6.00,M,30.13,M,10.00,M,OVC,M,M,M,5000.00,M,M,M,M,KAMW 130715Z AUTO 05006KT 10SM OVC050 A3013 RMK  LTG DSNT E! MADISHF
AMW,2017-04-13 02:20,M,M,M,0.00,0.00,M,30.13,M,10.00,M,BKN,BKN,OVC,M,5000.00,6000.00,7500.00,M,M,KAMW 130720Z AUTO 00000KT 10SM BKN050 BKN060 OVC075 A3013 RMK MADISHF
AMW,2017-04-13 02:25,M,M,M,0.00,0.00,M,30.13,M,10.00,M,BKN,OVC,M,M,5000.00,6000.00,M,M,M,KAMW 130725Z AUTO 00000KT 10SM BKN050 OVC060 A3013 RMK MADISHF
AMW,2017-04-13 02:30,M,M,M,40.00,3.00,M,30.13,M,10.00,M,BKN,OVC,M,M,5000.00,6000.00,M,M,M,KAMW 130730Z AUTO 04003KT 10SM BKN050 OVC060 A3013 RMK MADISHF
AMW,2017-04-13 02:35,M,M,M,0.00,0.00,M,30.13,M,10.00,M,BKN,OVC,M,M,5000.00,6000.00,M,M,M,KAMW 130735Z AUTO 00000KT 10SM BKN050 OVC060 A3013 RMK MADISHF
AMW,2017-04-13 02:40,M,M,M,0.00,0.00,M,30.13,M,10.00,M,BKN,OVC,M,M,5000.00,6000.00,M,M,M,KAMW 130740Z AUTO 00000KT 10SM BKN050 OVC060 A3013 RMK MADISHF
AMW,2017-04-13 02:45,M,M,M,0.00,0.00,M,30.13,M,10.00,M,BKN,OVC,M,M,5000.00,6000.00,M,M,M,KAMW 130745Z AUTO 00000KT 10SM BKN050 OVC060 A3013 RMK MADISHF
AMW,2017-04-13 02:50,M,M,M,0.00,0.00,M,30.13,M,10.00,M,BKN,OVC,M,M,5000.00,6500.00,M,M,M,KAMW 130750Z AUTO 00000KT 10SM BKN050 OVC065 A3013 RMK MADISHF
AMW,2017-04-13 02:53,55.00,53.10,93.29,0.00,0.00,0.00,30.13,1019.80,10.00,M,BKN,OVC,M,M,5000.00,6500.00,M,M,M,KAMW 130753Z AUTO 00000KT 10SM BKN050 OVC065 13/12 A3013 RMK AO2 RAE00 SLP198 P0000 T01280117
AMW,2017-04-13 02:55,M,M,M,0.00,0.00,M,30.13,M,10.00,M,BKN,OVC,M,M,5000.00,6500.00,M,M,M,KAMW 130755Z AUTO 00000KT 10SM BKN050 OVC065 A3013 RMK MADISHF
AMW,2017-04-13 03:00,M,M,M,0.00,0.00,M,30.13,M,10.00,M,BKN,OVC,M,M,5000.00,7000.00,M,M,M,KAMW 130800Z AUTO 00000KT 10SM BKN050 OVC070 A3013 RMK MADISHF
AMW,2017-04-13 03:05,M,M,M,70.00,3.00,M,30.13,M,10.00,M,BKN,OVC,M,M,5500.00,7000.00,M,M,M,KAMW 130805Z AUTO 07003KT 10SM BKN055 OVC070 A3013 RMK MADISHF
AMW,2017-04-13 03:10,M,M,M,50.00,4.00,M,30.14,M,10.00,M,SCT,OVC,M,M,5000.00,6000.00,M,M,M,KAMW 130810Z AUTO 05004KT 10SM SCT050 OVC060 A3014 RMK MADISHF
AMW,2017-04-13 03:15,M,M,M,40.00,4.00,M,30.14,M,10.00,M,BKN,OVC,M,M,5500.00,7000.00,M,M,M,KAMW 130815Z AUTO 04004KT 10SM BKN055 OVC070 A3014 RMK MADISHF
AMW,2017-04-13 03:20,M,M,M,30.00,5.00,M,30.14,M,10.00,M,BKN,OVC,M,M,5500.00,7000.00,M,M,M,KAMW 130820Z AUTO 03005KT 10SM BKN055 OVC070 A3014 RMK MADISHF
AMW,2017-04-13 03:25,M,M,M,40.00,4.00,M,30.14,M,10.00,M,BKN,OVC,M,M,6000.00,7500.00,M,M,M,KAMW 130825Z AUTO 04004KT 10SM BKN060 OVC075 A3014 RMK MADISHF
AMW,2017-04-13 03:30,M,M,M,50.00,4.00,M,30.14,M,10.00,M,BKN,OVC,M,M,5500.00,7000.00,M,M,M,KAMW 130830Z AUTO 05004KT 10SM BKN055 OVC070 A3014 RMK MADISHF
AMW,2017-04-13 03:35,M,M,M,50.00,4.00,M,30.14,M,10.00,M,OVC,M,M,M,6000.00,M,M,M,M,KAMW 130835Z AUTO 05004KT 10SM OVC060 A3014 RMK MADISHF
AMW,2017-04-13 03:40,M,M,M,50.00,4.00,M,30.14,M,10.00,M,BKN,OVC,M,M,6000.00,7000.00,M,M,M,KAMW 130840Z AUTO 05004KT 10SM BKN060 OVC070 A3014 RMK MADISHF
AMW,2017-04-13 03:45,M,M,M,60.00,5.00,M,30.14,M,10.00,M,BKN,OVC,M,M,6000.00,7000.00,M,M,M,KAMW 130845Z AUTO 06005KT 10SM BKN060 OVC070 A3014 RMK MADISHF
AMW,2017-04-13 03:50,M,M,M,60.00,6.00,M,30.14,M,10.00,M,BKN,OVC,M,M,6000.00,7000.00,M,M,M,KAMW 130850Z AUTO 06006KT 10SM BKN060 OVC070 A3014 RMK MADISHF
AMW,2017-04-13 03:53,54.00,53.10,96.76,70.00,5.00,0.00,30.14,1020.30,10.00,M,OVC,M,M,M,6000.00,M,M,M,M,KAMW 130853Z AUTO 07005KT 10SM OVC060 12/12 A3014 RMK AO2 SLP203 60000 T01220117 51012
AMW,2017-04-13 03:55,M,M,M,70.00,6.00,M,30.14,M,10.00,M,OVC,M,M,M,6000.00,M,M,M,M,KAMW 130855Z AUTO 07006KT 10SM OVC060 A3014 RMK MADISHF
AMW,2017-04-13 04:00,M,M,M,70.00,6.00,M,30.14,M,10.00,M,BKN,OVC,M,M,6000.00,7500.00,M,M,M,KAMW 130900Z AUTO 07006KT 10SM BKN060 OVC075 A3014 RMK MADISHF
AMW,2017-04-13 04:05,M,M,M,70.00,6.00,M,30.14,M,10.00,M,BKN,OVC,M,M,6000.00,7000.00,M,M,M,KAMW 130905Z AUTO 07006KT 10SM BKN060 OVC070 A3014 RMK MADISHF
AMW,2017-04-13 04:10,M,M,M,80.00,6.00,M,30.14,M,10.00,M,BKN,OVC,M,M,6000.00,7500.00,M,M,M,KAMW 130910Z AUTO 08006KT 10SM BKN060 OVC075 A3014 RMK MADISHF
AMW,2017-04-13 04:15,M,M,M,80.00,7.00,M,30.14,M,10.00,M,OVC,M,M,M,6000.00,M,M,M,M,KAMW 130915Z AUTO 08007KT 10SM OVC060 A3014 RMK MADISHF
AMW,2017-04-13 04:20,M,M,M,80.00,7.00,M,30.14,M,10.00,M,FEW,BKN,OVC,M,5000.00,6000.00,7500.00,M,M,KAMW 130920Z AUTO 08007KT 10SM FEW050 BKN060 OVC075 A3014 RMK MADISHF
AMW,2017-04-13 04:25,M,M,M,80.00,6.00,M,30.14,M,10.00,M,FEW,BKN,OVC,M,5000.00,6000.00,7000.00,M,M,KAMW 130925Z AUTO 08006KT 10SM FEW050 BKN060 OVC070 A3014 RMK MADISHF
AMW,2017-04-13 04:30,M,M,M,100.00,6.00,M,30.15,M,10.00,M,SCT,OVC,M,M,4800.00,6000.00,M,M,M,KAMW 130930Z AUTO 10006KT 10SM SCT048 OVC060 A3015 RMK MADISHF
AMW,2017-04-13 04:35,M,M,M,90.00,7.00,M,30.14,M,10.00,M,BKN,OVC,M,M,4800.00,6000.00,M,M,M,KAMW 130935Z AUTO 09007KT 10SM BKN048 OVC060 A3014 RMK MADISHF
AMW,2017-04-13 04:40,M,M,M,80.00,8.00,M,30.14,M,10.00,M,BKN,OVC,M,M,4700.00,6000.00,M,M,M,KAMW 130940Z AUTO 08008KT 10SM BKN047 OVC060 A3014 RMK MADISHF
AMW,2017-04-13 04:45,M,M,M,90.00,7.00,M,30.14,M,10.00,M,SCT,OVC,M,M,4700.00,6000.00,M,M,M,KAMW 130945Z AUTO 09007KT 10SM SCT047 OVC060 A3014 RMK MADISHF
AMW,2017-04-13 04:50,M,M,M,90.00,6.00,M,30.15,M,10.00,M,SCT,OVC,M,M,4700.00,6000.00,M,M,M,KAMW 130950Z AUTO 09006KT 10SM SCT047 OVC060 A3015 RMK MADISHF
AMW,2017-04-13 04:53,53.10,52.00,96.03,90.00,6.00,0.00,30.15,1020.50,10.00,M,BKN,OVC,M,M,4700.00,6000.00,M,M,M,KAMW 130953Z AUTO 09006KT 10SM BKN047 OVC060 12/11 A3015 RMK AO2 SLP205 T01170111
AMW,2017-04-13 04:55,M,M,M,90.00,5.00,M,30.15,M,10.00,M,BKN,OVC,M,M,4700.00,6000.00,M,M,M,KAMW 130955Z AUTO 09005KT 10SM BKN047 OVC060 A3015 RMK MADISHF
AMW,2017-04-13 05:00,M,M,M,90.00,8.00,M,30.15,M,10.00,M,BKN,OVC,M,M,4700.00,6000.00,M,M,M,KAMW 131000Z AUTO 09008KT 10SM BKN047 OVC060 A3015 RMK MADISHF
AMW,2017-04-13 05:05,M,M,M,80.00,6.00,M,30.15,M,10.00,M,BKN,BKN,M,M,4700.00,6000.00,M,M,M,KAMW 131005Z AUTO 08006KT 10SM BKN047 BKN060 A3015 RMK MADISHF
AMW,2017-04-13 05:10,M,M,M,80.00,8.00,M,30.15,M,10.00,M,SCT,BKN,M,M,4700.00,6000.00,M,M,M,KAMW 131010Z AUTO 08008KT 10SM SCT047 BKN060 A3015 RMK MADISHF
AMW,2017-04-13 05:15,M,M,M,80.00,7.00,M,30.15,M,10.00,M,SCT,BKN,M,M,4700.00,6000.00,M,M,M,KAMW 131015Z AUTO 08007KT 10SM SCT047 BKN060 A3015 RMK MADISHF
AMW,2017-04-13 05:20,M,M,M,70.00,3.00,M,30.15,M,10.00,M,SCT,M,M,M,4700.00,M,M,M,M,KAMW 131020Z AUTO 07003KT 10SM SCT047 A3015 RMK MADISHF
AMW,2017-04-13 05:25,M,M,M,70.00,5.00,M,30.15,M,9.00,M,FEW,SCT,M,M,4700.00,6000.00,M,M,M,KAMW 131025Z AUTO 07005KT 9SM FEW047 SCT060 A3015 RMK MADISHF
AMW,2017-04-13 05:30,M,M,M,80.00,6.00,M,30.15,M,9.00,M,FEW,BKN,M,M,4700.00,6000.00,M,M,M,KAMW 131030Z AUTO 08006KT 9SM FEW047 BKN060 A3015 RMK MADISHF
AMW,2017-04-13 05:35,M,M,M,80.00,5.00,M,30.15,M,9.00,M,FEW,BKN,M,M,4700.00,6000.00,M,M,M,KAMW 131035Z AUTO 08005KT 9SM FEW047 BKN060 A3015 RMK MADISHF
AMW,2017-04-13 05:40,M,M,M,80.00,5.00,M,30.15,M,9.00,M,SCT,BKN,M,M,4700.00,6000.00,M,M,M,KAMW 131040Z AUTO 08005KT 9SM SCT047 BKN060 A3015 RMK MADISHF
AMW,2017-04-13 05:45,M,M,M,90.00,6.00,M,30.15,M,9.00,M,FEW,BKN,M,M,4700.00,6000.00,M,M,M,KAMW 131045Z AUTO 09006KT 9SM FEW047 BKN060 A3015 RMK MADISHF
AMW,2017-04-13 05:50,M,M,M,90.00,6.00,M,30.16,M,9.00,M,SCT,BKN,M,M,4700.00,6000.00,M,M,M,KAMW 131050Z AUTO 09006KT 9SM SCT047 BKN060 A3016 RMK MADISHF
AMW,2017-04-13 05:53,52.00,51.10,96.73,90.00,6.00,0.00,30.16,1020.90,9.00,M,SCT,BKN,M,M,4700.00,6000.00,M,M,M,KAMW 131053Z AUTO 09006KT 9SM SCT047 BKN060 11/11 A3016 RMK AO2 SLP209 T01110106
AMW,2017-04-13 05:55,M,M,M,80.00,6.00,M,30.16,M,9.00,M,BKN,BKN,M,M,4700.00,6000.00,M,M,M,KAMW 131055Z AUTO 08006KT 9SM BKN047 BKN060 A3016 RMK MADISHF
AMW,2017-04-13 06:00,M,M,M,80.00,6.00,M,30.15,M,9.00,M,SCT,BKN,BKN,M,4600.00,6000.00,7000.00,M,M,KAMW 131100Z AUTO 08006KT 9SM SCT046 BKN060 BKN070 A3015 RMK MADISHF
AMW,2017-04-13 06:05,M,M,M,70.00,6.00,M,30.16,M,8.00,M,SCT,BKN,BKN,M,4600.00,6000.00,7000.00,M,M,KAMW 131105Z AUTO 07006KT 8SM SCT046 BKN060 BKN070 A3016 RMK MADISHF
AMW,2017-04-13 06:10,M,M,M,70.00,6.00,M,30.16,M,8.00,M,BKN,BKN,BKN,M,4600.00,7000.00,9500.00,M,M,KAMW 131110Z AUTO 07006KT 8SM BKN046 BKN070 BKN095 A3016 RMK MADISHF
AMW,2017-04-13 06:15,M,M,M,60.00,5.00,M,30.16,M,8.00,M,BKN,BKN,OVC,M,4800.00,7000.00,9500.00,M,M,KAMW 131115Z AUTO 06005KT 8SM BKN048 BKN070 OVC095 A3016 RMK MADISHF
AMW,2017-04-13 06:20,M,M,M,60.00,5.00,M,30.16,M,8.00,M,BKN,BKN,OVC,M,4800.00,7000.00,9500.00,M,M,KAMW 131120Z AUTO 06005KT 8SM BKN048 BKN070 OVC095 A3016 RMK MADISHF
AMW,2017-04-13 06:25,M,M,M,80.00,6.00,M,30.16,M,8.00,M,BKN,BKN,OVC,M,4800.00,7000.00,10000.00,M,M,KAMW 131125Z AUTO 08006KT 8SM BKN048 BKN070 OVC100 A3016 RMK MADISHF
AMW,2017-04-13 06:30,M,M,M,80.00,6.00,M,30.16,M,8.00,M,SCT,BKN,M,M,4800.00,10000.00,M,M,M,KAMW 131130Z AUTO 08006KT 8SM SCT048 BKN100 A3016 RMK MADISHF
AMW,2017-04-13 06:35,M,M,M,80.00,9.00,M,30.15,M,8.00,M,SCT,BKN,M,M,4800.00,10000.00,M,M,M,KAMW 131135Z AUTO 08009KT 8SM SCT048 BKN100 A3015 RMK MADISHF
AMW,2017-04-13 06:40,M,M,M,90.00,9.00,M,30.16,M,8.00,M,FEW,SCT,M,M,4800.00,10000.00,M,M,M,KAMW 131140Z AUTO 09009KT 8SM FEW048 SCT100 A3016 RMK MADISHF
AMW,2017-04-13 06:45,M,M,M,90.00,8.00,M,30.16,M,7.00,M,FEW,SCT,M,M,4800.00,10000.00,M,M,M,KAMW 131145Z AUTO 09008KT 7SM FEW048 SCT100 A3016 RMK MADISHF
AMW,2017-04-13 06:50,M,M,M,100.00,9.00,M,30.16,M,7.00,M,FEW,M,M,M,10000.00,M,M,M,M,KAMW 131150Z AUTO 10009KT 7SM FEW100 A3016 RMK MADISHF
AMW,2017-04-13 06:53,51.10,51.10,100.00,90.00,8.00,0.00,30.16,1020.90,7.00,M,FEW,M,M,M,10000.00,M,M,M,M,KAMW 131153Z AUTO 09008KT 7SM FEW100 11/11 A3016 RMK AO2 SLP209 60000 T01060106 10156 20106 51005
AMW,2017-04-13 06:55,M,M,M,90.00,8.00,M,30.16,M,7.00,M,CLR,M,M,M,M,M,M,M,M,KAMW 131155Z AUTO 09008KT 7SM CLR A3016 RMK MADISHF
AMW,2017-04-13 07:00,M,M,M,90.00,5.00,M,30.16,M,6.00,M,FEW,M,M,M,10000.00,M,M,M,BR,KAMW 131200Z AUTO 09005KT 6SM BR FEW100 A3016 RMK MADISHF
AMW,2017-04-13 07:05,M,M,M,110.00,5.00,M,30.17,M,6.00,M,FEW,M,M,M,10000.00,M,M,M,BR,KAMW 131205Z AUTO 11005KT 6SM BR FEW100 A3017 RMK MADISHF
AMW,2017-04-13 07:10,M,M,M,110.00,5.00,M,30.17,M,6.00,M,FEW,M,M,M,10000.00,M,M,M,BR,KAMW 131210Z AUTO 11005KT 6SM BR FEW100 A3017 RMK MADISHF
AMW,2017-04-13 07:15,M,M,M,90.00,7.00,M,30.17,M,6.00,M,FEW,M,M,M,10000.00,M,M,M,BR,KAMW 131215Z AUTO 09007KT 6SM BR FEW100 A3017 RMK MADISHF
AMW,2017-04-13 07:20,M,M,M,100.00,6.00,M,30.17,M,6.00,M,FEW,M,M,M,10000.00,M,M,M,BR,KAMW 131220Z AUTO 10006KT 6SM BR FEW100 A3017 RMK MADISHF
AMW,2017-04-13 07:25,M,M,M,100.00,5.00,M,30.18,M,6.00,M,FEW,M,M,M,10000.00,M,M,M,BR,KAMW 131225Z AUTO 10005KT 6SM BR FEW100 A3018 RMK MADISHF
AMW,2017-04-13 07:30,M,M,M,100.00,5.00,M,30.18,M,6.00,M,FEW,M,M,M,5500.00,M,M,M,BR,KAMW 131230Z AUTO 10005KT 6SM BR FEW055 A3018 RMK MADISHF
AMW,2017-04-13 07:35,M,M,M,100.00,6.00,M,30.18,M,6.00,M,BKN,M,M,M,5500.00,M,M,M,BR,KAMW 131235Z AUTO 10006KT 6SM BR BKN055 A3018 RMK MADISHF
AMW,2017-04-13 07:40,M,M,M,100.00,7.00,M,30.17,M,7.00,M,BKN,M,M,M,5500.00,M,M,M,M,KAMW 131240Z AUTO 10007KT 7SM BKN055 A3017 RMK MADISHF
AMW,2017-04-13 07:45,M,M,M,100.00,7.00,M,30.18,M,7.00,M,BKN,M,M,M,5000.00,M,M,M,M,KAMW 131245Z AUTO 10007KT 7SM BKN050 A3018 RMK MADISHF
AMW,2017-04-13 07:50,M,M,M,110.00,7.00,M,30.18,M,7.00,M,OVC,M,M,M,5000.00,M,M,M,M,KAMW 131250Z AUTO 11007KT 7SM OVC050 A3018 RMK MADISHF
AMW,2017-04-13 07:53,52.00,51.10,96.73,120.00,5.00,0.00,30.18,1021.60,7.00,M,OVC,M,M,M,5000.00,M,M,M,M,KAMW 131253Z AUTO 12005KT 7SM OVC050 11/11 A3018 RMK AO2 SLP216 T01110106
AMW,2017-04-13 07:55,M,M,M,110.00,7.00,M,30.18,M,7.00,M,OVC,M,M,M,5000.00,M,M,M,M,KAMW 131255Z AUTO 11007KT 7SM OVC050 A3018 RMK MADISHF
AMW,2017-04-13 08:00,M,M,M,100.00,7.00,M,30.18,M,7.00,M,OVC,M,M,M,5500.00,M,M,M,M,KAMW 131300Z AUTO 10007KT 7SM OVC055 A3018 RMK MADISHF
AMW,2017-04-13 08:05,M,M,M,110.00,6.00,M,30.18,M,7.00,M,OVC,M,M,M,5500.00,M,M,M,M,KAMW 131305Z AUTO 11006KT 7SM OVC055 A3018 RMK MADISHF
AMW,2017-04-13 08:10,M,M,M,110.00,6.00,M,30.18,M,7.00,M,OVC,M,M,M,6000.00,M,M,M,M,KAMW 131310Z AUTO 11006KT 7SM OVC060 A3018 RMK MADISHF
AMW,2017-04-13 08:15,M,M,M,100.00,8.00,M,30.18,M,7.00,M,FEW,OVC,M,M,5000.00,6500.00,M,M,M,KAMW 131315Z AUTO 10008KT 7SM FEW050 OVC065 A3018 RMK MADISHF
AMW,2017-04-13 08:20,M,M,M,100.00,7.00,M,30.18,M,7.00,M,OVC,M,M,M,6000.00,M,M,M,M,KAMW 131320Z AUTO 10007KT 7SM OVC060 A3018 RMK MADISHF
AMW,2017-04-13 08:25,M,M,M,90.00,6.00,M,30.18,M,7.00,M,OVC,M,M,M,6000.00,M,M,M,M,KAMW 131325Z AUTO 09006KT 7SM OVC060 A3018 RMK MADISHF
AMW,2017-04-13 08:30,M,M,M,90.00,7.00,M,30.18,M,7.00,M,OVC,M,M,M,6000.00,M,M,M,M,KAMW 131330Z AUTO 09007KT 7SM OVC060 A3018 RMK MADISHF
AMW,2017-04-13 08:35,M,M,M,90.00,6.00,M,30.18,M,7.00,M,OVC,M,M,M,6000.00,M,M,M,M,KAMW 131335Z AUTO 09006KT 7SM OVC060 A3018 RMK MADISHF
AMW,2017-04-13 08:40,M,M,M,90.00,8.00,M,30.18,M,7.00,M,OVC,M,M,M,6000.00,M,M,M,M,KAMW 131340Z AUTO 09008KT 7SM OVC060 A3018 RMK MADISHF
AMW,2017-04-13 08:45,M,M,M,90.00,8.00,M,30.17,M,7.00,M,OVC,M,M,M,6000.00,M,M,M,M,KAMW 131345Z AUTO 09008KT 7SM OVC060 A3017 RMK MADISHF
AMW,2017-04-13 08:50,M,M,M,80.00,7.00,M,30.17,M,7.00,M,OVC,M,M,M,6000.00,M,M,M,M,KAMW 131350Z AUTO 08007KT 7SM OVC060 A3017 RMK MADISHF
AMW,2017-04-13 08:53,53.10,51.10,92.89,90.00,8.00,0.00,30.17,1021.50,7.00,M,OVC,M,M,M,6000.00,M,M,M,M,KAMW 131353Z AUTO 09008KT 7SM OVC060 12/11 A3017 RMK AO2 SLP215 T01170106
AMW,2017-04-13 08:55,M,M,M,80.00,9.00,M,30.17,M,7.00,M,OVC,M,M,M,6000.00,M,M,M,M,KAMW 131355Z AUTO 08009KT 7SM OVC060 A3017 RMK MADISHF
AMW,2017-04-13 09:00,M,M,M,100.00,7.00,M,30.18,M,7.00,M,OVC,M,M,M,6000.00,M,M,M,M,KAMW 131400Z AUTO 10007KT 7SM OVC060 A3018 RMK MADISHF
AMW,2017-04-13 09:05,M,M,M,110.00,5.00,M,30.18,M,7.00,M,OVC,M,M,M,6000.00,M,M,M,M,KAMW 131405Z AUTO 11005KT 7SM OVC060 A3018 RMK MADISHF
AMW,2017-04-13 09:10,M,M,M,90.00,7.00,M,30.18,M,8.00,M,BKN,OVC,M,M,6000.00,7999.00,M,M,M,KAMW 131410Z AUTO 09007KT 8SM BKN060 OVC079 A3018 RMK MADISHF
AMW,2017-04-13 09:15,M,M,M,80.00,8.00,M,30.18,M,7.00,M,BKN,BKN,M,M,6000.00,7999.00,M,M,M,KAMW 131415Z AUTO 08008KT 7SM BKN060 BKN079 A3018 RMK MADISHF
AMW,2017-04-13 09:20,M,M,M,70.00,9.00,M,30.18,M,8.00,M,SCT,SCT,M,M,6000.00,7999.00,M,M,M,KAMW 131420Z AUTO 07009KT 8SM SCT060 SCT079 A3018 RMK MADISHF
AMW,2017-04-13 09:25,M,M,M,90.00,6.00,M,30.18,M,8.00,M,FEW,SCT,M,M,6000.00,7999.00,M,M,M,KAMW 131425Z AUTO 09006KT 8SM FEW060 SCT079 A3018 RMK MADISHF
AMW,2017-04-13 09:30,M,M,M,90.00,6.00,M,30.18,M,8.00,M,FEW,FEW,M,M,6000.00,7999.00,M,M,M,KAMW 131430Z AUTO 09006KT 8SM FEW060 FEW079 A3018 RMK MADISHF
AMW,2017-04-13 09:35,M,M,M,60.00,7.00,M,30.19,M,9.00,M,FEW,M,M,M,7999.00,M,M,M,M,KAMW 131435Z AUTO 06007KT 9SM FEW079 A3019 RMK MADISHF
AMW,2017-04-13 09:40,M,M,M,60.00,7.00,M,30.18,M,9.00,M,CLR,M,M,M,M,M,M,M,M,KAMW 131440Z AUTO 06007KT 9SM CLR A3018 RMK MADISHF
AMW,2017-04-13 09:45,M,M,M,60.00,8.00,M,30.19,M,9.00,M,CLR,M,M,M,M,M,M,M,M,KAMW 131445Z AUTO 06008KT 9SM CLR A3019 RMK MADISHF
AMW,2017-04-13 09:50,M,M,M,60.00,7.00,M,30.19,M,9.00,M,CLR,M,M,M,M,M,M,M,M,KAMW 131450Z AUTO 06007KT 9SM CLR A3019 RMK MADISHF
AMW,2017-04-13 09:53,57.00,51.10,80.60,60.00,8.00,0.00,30.19,1021.80,9.00,M,CLR,M,M,M,M,M,M,M,M,KAMW 131453Z AUTO 06008KT 9SM CLR 14/11 A3019 RMK AO2 SLP218 T01390106 51009
AMW,2017-04-13 09:55,M,M,M,60.00,6.00,M,30.18,M,9.00,M,FEW,M,M,M,4600.00,M,M,M,M,KAMW 131455Z AUTO 06006KT 9SM FEW046 A3018 RMK MADISHF
AMW,2017-04-13 10:00,M,M,M,60.00,6.00,M,30.18,M,9.00,M,FEW,M,M,M,4600.00,M,M,M,M,KAMW 131500Z AUTO 06006KT 9SM FEW046 A3018 RMK MADISHF
AMW,2017-04-13 10:05,M,M,M,50.00,7.00,M,30.18,M,9.00,M,FEW,M,M,M,4600.00,M,M,M,M,KAMW 131505Z AUTO 05007KT 9SM FEW046 A3018 RMK MADISHF
AMW,2017-04-13 10:10,M,M,M,70.00,9.00,M,30.18,M,9.00,M,FEW,M,M,M,4600.00,M,M,M,M,KAMW 131510Z AUTO 07009KT 9SM FEW046 A3018 RMK MADISHF
AMW,2017-04-13 10:15,M,M,M,30.00,9.00,M,30.19,M,10.00,M,FEW,FEW,M,M,4600.00,6500.00,M,M,M,KAMW 131515Z AUTO 03009KT 10SM FEW046 FEW065 A3019 RMK MADISHF
AMW,2017-04-13 10:20,M,M,M,60.00,9.00,M,30.18,M,10.00,M,SCT,M,M,M,6500.00,M,M,M,M,KAMW 131520Z AUTO 06009KT 10SM SCT065 A3018 RMK MADISHF
AMW,2017-04-13 10:25,M,M,M,80.00,8.00,M,30.18,M,10.00,M,BKN,M,M,M,6500.00,M,M,M,M,KAMW 131525Z AUTO 08008KT 10SM BKN065 A3018 RMK MADISHF
AMW,2017-04-13 10:30,M,M,M,80.00,8.00,M,30.19,M,10.00,M,BKN,M,M,M,6500.00,M,M,M,M,KAMW 131530Z AUTO 08008KT 10SM BKN065 A3019 RMK MADISHF
AMW,2017-04-13 10:35,M,M,M,60.00,8.00,M,30.18,M,10.00,M,BKN,M,M,M,6500.00,M,M,M,M,KAMW 131535Z AUTO 06008KT 10SM BKN065 A3018 RMK MADISHF
AMW,2017-04-13 10:40,M,M,M,50.00,10.00,M,30.18,M,10.00,M,BKN,M,M,M,6500.00,M,M,M,M,KAMW 131540Z AUTO 05010KT 10SM BKN065 A3018 RMK MADISHF
AMW,2017-04-13 10:45,M,M,M,40.00,10.00,M,30.18,M,10.00,M,BKN,M,M,M,6500.00,M,M,M,M,KAMW 131545Z AUTO 04010KT 10SM BKN065 A3018 RMK MADISHF
AMW,2017-04-13 10:50,M,M,M,60.00,7.00,M,30.19,M,10.00,M,SCT,M,M,M,6500.00,M,M,M,M,KAMW 131550Z AUTO 06007KT 10SM SCT065 A3019 RMK MADISHF
AMW,2017-04-13 10:53,60.10,53.10,77.65,40.00,10.00,0.00,30.19,1022.00,10.00,M,SCT,M,M,M,6000.00,M,M,M,M,KAMW 131553Z AUTO 04010KT 10SM SCT060 16/12 A3019 RMK AO2 SLP220 T01560117
AMW,2017-04-13 10:55,M,M,M,70.00,8.00,M,30.19,M,10.00,M,SCT,M,M,M,6000.00,M,M,M,M,KAMW 131555Z AUTO 07008KT 10SM SCT060 A3019 RMK MADISHF
AMW,2017-04-13 11:00,M,M,M,50.00,9.00,M,30.19,M,10.00,M,SCT,M,M,M,6500.00,M,M,M,M,KAMW 131600Z AUTO 05009KT 10SM SCT065 A3019 RMK MADISHF
AMW,2017-04-13 11:05,M,M,M,50.00,10.00,M,30.19,M,10.00,M,SCT,M,M,M,6500.00,M,M,M,M,KAMW 131605Z AUTO 05010KT 10SM SCT065 A3019 RMK MADISHF
AMW,2017-04-13 11:10,M,M,M,40.00,11.00,M,30.19,M,10.00,M,SCT,M,M,M,7000.00,M,M,M,M,KAMW 131610Z AUTO 04011KT 10SM SCT070 A3019 RMK MADISHF
AMW,2017-04-13 11:15,M,M,M,40.00,9.00,M,30.19,M,M,M,M,M,M,M,M,M,M,M,M,KAMW 131615Z AUTO 04009KT A3019 RMK MADISHF
AMW,2017-04-13 11:20,M,M,M,50.00,10.00,M,30.19,M,M,M,M,M,M,M,M,M,M,M,M,KAMW 131620Z AUTO 05010KT A3019 RMK MADISHF
AMW,2017-04-13 11:25,M,M,M,50.00,8.00,M,30.19,M,M,M,M,M,M,M,M,M,M,M,M,KAMW 131625Z AUTO 05008KT A3019 RMK MADISHF
AMW,2017-04-13 11:30,M,M,M,50.00,8.00,M,30.19,M,M,M,M,M,M,M,M,M,M,M,M,KAMW 131630Z AUTO 05008KT A3019 RMK MADISHF
AMW,2017-04-13 11:35,M,M,M,40.00,10.00,M,30.19,M,M,M,M,M,M,M,M,M,M,M,M,KAMW 131635Z AUTO 04010KT A3019 RMK MADISHF
AMW,2017-04-13 11:40,M,M,M,60.00,8.00,M,30.19,M,M,M,M,M,M,M,M,M,M,M,M,KAMW 131640Z AUTO 06008KT A3019 RMK MADISHF
AMW,2017-04-13 11:45,M,M,M,60.00,9.00,M,30.19,M,M,M,M,M,M,M,M,M,M,M,M,KAMW 131645Z AUTO 06009KT A3019 RMK MADISHF
AMW,2017-04-13 11:50,M,M,M,70.00,8.00,M,30.18,M,M,M,M,M,M,M,M,M,M,M,M,KAMW 131650Z AUTO 07008KT A3018 RMK MADISHF
AMW,2017-04-13 11:53,63.00,55.00,75.11,80.00,10.00,0.00,30.18,1021.70,M,M,M,M,M,M,M,M,M,M,M,KAMW 131653Z AUTO 08010KT 17/13 A3018 RMK AO2 SLP217 T01720128 PWINO $
AMW,2017-04-13 11:55,M,M,M,80.00,8.00,M,30.18,M,M,M,M,M,M,M,M,M,M,M,M,KAMW 131655Z AUTO 08008KT A3018 RMK MADISHF
AMW,2017-04-13 12:00,M,M,M,70.00,9.00,M,30.18,M,M,M,M,M,M,M,M,M,M,M,M,KAMW 131700Z AUTO 07009KT A3018 RMK MADISHF
AMW,2017-04-13 12:05,M,M,M,M,M,M,30.19,M,M,M,M,M,M,M,M,M,M,M,M,KAMW 131705Z AUTO /////KT A3019 RMK MADISHF
AMW,2017-04-13 12:10,M,M,M,M,M,M,30.18,M,M,M,M,M,M,M,M,M,M,M,M,KAMW 131710Z AUTO /////KT A3018 RMK MADISHF
AMW,2017-04-13 12:15,M,M,M,M,M,M,30.18,M,M,M,FEW,BKN,BKN,M,4900.00,7000.00,9000.00,M,M,KAMW 131715Z AUTO /////KT FEW049 BKN070 BKN090 A3018 RMK MADISHF
AMW,2017-04-13 12:20,M,M,M,M,M,M,30.18,M,M,M,FEW,SCT,BKN,M,4900.00,7000.00,9000.00,M,M,KAMW 131720Z AUTO /////KT FEW049 SCT070 BKN090 A3018 RMK MADISHF
AMW,2017-04-13 12:25,M,M,M,M,M,M,30.18,M,M,M,SCT,SCT,BKN,M,4900.00,7000.00,8500.00,M,M,KAMW 131725Z AUTO /////KT SCT049 SCT070 BKN085 A3018 RMK MADISHF
AMW,2017-04-13 12:30,M,M,M,M,M,M,30.18,M,M,M,SCT,SCT,SCT,M,4900.00,7000.00,8500.00,M,M,KAMW 131730Z AUTO /////KT SCT049 SCT070 SCT085 A3018 RMK MADISHF
AMW,2017-04-13 12:35,M,M,M,M,M,M,30.18,M,M,M,SCT,BKN,M,M,4900.00,7000.00,M,M,M,KAMW 131735Z AUTO /////KT SCT049 BKN070 A3018 RMK MADISHF
AMW,2017-04-13 12:40,M,M,M,M,M,M,30.17,M,M,M,BKN,M,M,M,4900.00,M,M,M,M,KAMW 131740Z AUTO /////KT BKN049 A3017 RMK MADISHF
AMW,2017-04-13 12:45,M,M,M,M,M,M,30.17,M,M,M,BKN,M,M,M,4900.00,M,M,M,M,KAMW 131745Z AUTO /////KT BKN049 A3017 RMK MADISHF
AMW,2017-04-13 12:50,M,M,M,M,M,M,30.17,M,M,M,BKN,BKN,M,M,4900.00,7999.00,M,M,M,KAMW 131750Z AUTO /////KT BKN049 BKN079 A3017 RMK MADISHF
AMW,2017-04-13 12:53,66.00,55.00,67.64,M,M,0.00,30.17,1021.20,M,M,BKN,BKN,M,M,4900.00,8000.00,M,M,M,KAMW 131753Z AUTO BKN049 BKN080 19/13 A3017 RMK AO2 SLP212 T01890128 10189 20106 58004 $
AMW,2017-04-13 12:55,M,M,M,M,M,M,30.17,M,M,M,BKN,BKN,M,M,4900.00,7999.00,M,M,M,KAMW 131755Z AUTO /////KT BKN049 BKN079 A3017 RMK MADISHF
AMW,2017-04-13 13:00,M,M,M,50.00,11.00,M,30.17,M,M,M,BKN,BKN,M,M,4900.00,7999.00,M,M,M,KAMW 131800Z AUTO 05011KT BKN049 BKN079 A3017 RMK MADISHF
AMW,2017-04-13 13:05,M,M,M,50.00,9.00,M,30.17,M,M,M,BKN,M,M,M,4900.00,M,M,M,M,KAMW 131805Z AUTO 05009KT BKN049 A3017 RMK MADISHF
AMW,2017-04-13 13:10,M,M,M,40.00,9.00,M,30.17,M,M,M,BKN,M,M,M,5000.00,M,M,M,M,KAMW 131810Z AUTO 04009KT BKN050 A3017 RMK MADISHF
AMW,2017-04-13 13:15,M,M,M,70.00,10.00,M,30.17,M,M,M,BKN,M,M,M,5000.00,M,M,M,M,KAMW 131815Z AUTO 07010KT BKN050 A3017 RMK MADISHF
AMW,2017-04-13 13:20,M,M,M,60.00,10.00,M,30.16,M,10.00,M,BKN,M,M,M,5000.00,M,M,M,M,KAMW 131820Z AUTO 06010KT 10SM BKN050 A3016 RMK MADISHF
AMW,2017-04-13 13:25,M,M,M,100.00,9.00,M,30.16,M,10.00,M,BKN,M,M,M,4900.00,M,M,M,M,KAMW 131825Z AUTO 10009KT 10SM BKN049 A3016 RMK MADISHF
AMW,2017-04-13 13:30,M,M,M,60.00,10.00,M,30.16,M,10.00,M,BKN,BKN,M,M,4900.00,7999.00,M,M,M,KAMW 131830Z AUTO 06010KT 10SM BKN049 BKN079 A3016 RMK MADISHF
AMW,2017-04-13 13:35,M,M,M,90.00,9.00,M,30.16,M,10.00,M,SCT,BKN,M,M,4900.00,7999.00,M,M,M,KAMW 131835Z AUTO 09009KT 10SM SCT049 BKN079 A3016 RMK MADISHF
AMW,2017-04-13 13:40,M,M,M,100.00,9.00,M,30.16,M,10.00,M,SCT,BKN,M,M,4900.00,7999.00,M,M,M,KAMW 131840Z AUTO 10009KT 10SM SCT049 BKN079 A3016 RMK MADISHF
AMW,2017-04-13 13:45,M,M,M,110.00,7.00,M,30.16,M,10.00,M,FEW,SCT,M,M,4900.00,7999.00,M,M,M,KAMW 131845Z AUTO 11007KT 10SM FEW049 SCT079 A3016 RMK MADISHF
AMW,2017-04-13 13:50,M,M,M,80.00,9.00,M,30.15,M,10.00,M,FEW,SCT,M,M,6500.00,7999.00,M,M,M,KAMW 131850Z AUTO 08009KT 10SM FEW065 SCT079 A3015 RMK MADISHF
AMW,2017-04-13 13:53,68.00,55.00,63.12,60.00,10.00,0.00,30.16,1020.70,10.00,15.00,FEW,BKN,M,M,6500.00,8000.00,M,M,M,KAMW 131853Z AUTO 06010G15KT 10SM FEW065 BKN080 20/13 A3016 RMK AO2 SLP207 T02000128
AMW,2017-04-13 13:55,M,M,M,60.00,9.00,M,30.16,M,10.00,M,SCT,BKN,M,M,6500.00,7999.00,M,M,M,KAMW 131855Z AUTO 06009KT 10SM SCT065 BKN079 A3016 RMK MADISHF
AMW,2017-04-13 14:00,M,M,M,70.00,9.00,M,30.15,M,10.00,M,SCT,BKN,M,M,6500.00,7999.00,M,M,M,KAMW 131900Z AUTO 07009KT 10SM SCT065 BKN079 A3015 RMK MADISHF
AMW,2017-04-13 14:05,M,M,M,70.00,12.00,M,30.15,M,10.00,M,SCT,BKN,M,M,6500.00,7999.00,M,M,M,KAMW 131905Z AUTO 07012KT 10SM SCT065 BKN079 A3015 RMK MADISHF
AMW,2017-04-13 14:10,M,M,M,80.00,10.00,M,30.15,M,10.00,15.00,BKN,BKN,M,M,6500.00,8500.00,M,M,M,KAMW 131910Z AUTO 08010G15KT 10SM BKN065 BKN085 A3015 RMK MADISHF
AMW,2017-04-13 14:15,M,M,M,60.00,8.00,M,30.15,M,10.00,M,BKN,BKN,M,M,6500.00,8500.00,M,M,M,KAMW 131915Z AUTO 06008KT 10SM BKN065 BKN085 A3015 RMK MADISHF
AMW,2017-04-13 14:20,M,M,M,60.00,11.00,M,30.15,M,10.00,M,BKN,M,M,M,6500.00,M,M,M,M,KAMW 131920Z AUTO 06011KT 10SM BKN065 A3015 RMK MADISHF
AMW,2017-04-13 14:25,M,M,M,100.00,8.00,M,30.14,M,10.00,M,SCT,M,M,M,6500.00,M,M,M,M,KAMW 131925Z AUTO 10008KT 10SM SCT065 A3014 RMK WND 06V14  MADISHF
AMW,2017-04-13 14:30,M,M,M,80.00,5.00,M,30.14,M,10.00,M,SCT,M,M,M,6500.00,M,M,M,M,KAMW 131930Z AUTO 08005KT 10SM SCT065 A3014 RMK MADISHF
AMW,2017-04-13 14:35,M,M,M,60.00,13.00,M,30.14,M,10.00,M,BKN,M,M,M,6500.00,M,M,M,M,KAMW 131935Z AUTO 06013KT 10SM BKN065 A3014 RMK MADISHF
AMW,2017-04-13 14:40,M,M,M,80.00,10.00,M,30.14,M,10.00,M,SCT,M,M,M,6500.00,M,M,M,M,KAMW 131940Z AUTO 08010KT 10SM SCT065 A3014 RMK MADISHF
AMW,2017-04-13 14:45,M,M,M,60.00,11.00,M,30.14,M,10.00,M,FEW,M,M,M,6500.00,M,M,M,M,KAMW 131945Z AUTO 06011KT 10SM FEW065 A3014 RMK MADISHF
AMW,2017-04-13 14:50,M,M,M,70.00,9.00,M,30.14,M,10.00,M,FEW,M,M,M,6500.00,M,M,M,M,KAMW 131950Z AUTO 07009KT 10SM FEW065 A3014 RMK MADISHF
AMW,2017-04-13 14:53,71.10,55.00,56.77,70.00,7.00,0.00,30.13,1019.90,10.00,M,FEW,M,M,M,6500.00,M,M,M,M,KAMW 131953Z AUTO 07007KT 040V120 10SM FEW065 22/13 A3013 RMK AO2 SLP199 T02170128
AMW,2017-04-13 14:55,M,M,M,80.00,10.00,M,30.13,M,10.00,M,FEW,SCT,M,M,6500.00,7999.00,M,M,M,KAMW 131955Z AUTO 08010KT 10SM FEW065 SCT079 A3013 RMK WND 03V12  MADISHF
AMW,2017-04-13 15:00,M,M,M,70.00,9.00,M,30.13,M,10.00,M,FEW,SCT,M,M,6500.00,7999.00,M,M,M,KAMW 132000Z AUTO 07009KT 10SM FEW065 SCT079 A3013 RMK MADISHF
AMW,2017-04-13 15:05,M,M,M,100.00,8.00,M,30.13,M,10.00,M,FEW,M,M,M,7500.00,M,M,M,M,KAMW 132005Z AUTO 10008KT 10SM FEW075 A3013 RMK MADISHF
AMW,2017-04-13 15:10,M,M,M,110.00,8.00,M,30.13,M,10.00,M,FEW,SCT,M,M,4600.00,7500.00,M,M,M,KAMW 132010Z AUTO 11008KT 10SM FEW046 SCT075 A3013 RMK MADISHF
AMW,2017-04-13 15:15,M,M,M,90.00,10.00,M,30.13,M,10.00,M,FEW,BKN,M,M,4600.00,7500.00,M,M,M,KAMW 132015Z AUTO 09010KT 10SM FEW046 BKN075 A3013 RMK MADISHF
AMW,2017-04-13 15:20,M,M,M,150.00,7.00,M,30.13,M,10.00,M,SCT,BKN,M,M,4800.00,7500.00,M,M,M,KAMW 132020Z AUTO 15007KT 10SM SCT048 BKN075 A3013 RMK MADISHF
AMW,2017-04-13 15:25,M,M,M,80.00,9.00,M,30.13,M,10.00,M,BKN,BKN,M,M,4800.00,7500.00,M,M,M,KAMW 132025Z AUTO 08009KT 10SM BKN048 BKN075 A3013 RMK MADISHF
AMW,2017-04-13 15:30,M,M,M,80.00,9.00,M,30.13,M,10.00,M,BKN,BKN,M,M,4800.00,7000.00,M,M,M,KAMW 132030Z AUTO 08009KT 10SM BKN048 BKN070 A3013 RMK MADISHF
AMW,2017-04-13 15:35,M,M,M,90.00,9.00,M,30.12,M,10.00,M,BKN,OVC,M,M,4800.00,7000.00,M,M,M,KAMW 132035Z AUTO 09009KT 10SM BKN048 OVC070 A3012 RMK MADISHF
AMW,2017-04-13 15:40,M,M,M,80.00,10.00,M,30.12,M,10.00,M,BKN,OVC,M,M,4800.00,7500.00,M,M,M,KAMW 132040Z AUTO 08010KT 10SM BKN048 OVC075 A3012 RMK MADISHF
AMW,2017-04-13 15:45,M,M,M,90.00,10.00,M,30.12,M,10.00,M,BKN,BKN,OVC,M,4800.00,7000.00,7999.00,M,M,KAMW 132045Z AUTO 09010KT 10SM BKN048 BKN070 OVC079 A3012 RMK MADISHF
AMW,2017-04-13 15:50,M,M,M,90.00,9.00,M,30.11,M,10.00,M,BKN,OVC,M,M,4800.00,7500.00,M,M,M,KAMW 132050Z AUTO 09009KT 10SM BKN048 OVC075 A3011 RMK MADISHF
AMW,2017-04-13 15:53,73.00,55.00,53.23,80.00,10.00,0.00,30.11,1019.20,10.00,M,BKN,OVC,M,M,4800.00,7000.00,M,M,M,KAMW 132053Z AUTO 08010KT 050V110 10SM BKN048 OVC070 23/13 A3011 RMK AO2 SLP192 T02280128 58019
AMW,2017-04-13 15:55,M,M,M,120.00,7.00,M,30.11,M,10.00,M,SCT,OVC,M,M,4800.00,7000.00,M,M,M,KAMW 132055Z AUTO 12007KT 10SM SCT048 OVC070 A3011 RMK MADISHF
AMW,2017-04-13 16:00,M,M,M,90.00,12.00,M,30.11,M,10.00,M,SCT,BKN,M,M,4800.00,7000.00,M,M,M,KAMW 132100Z AUTO 09012KT 10SM SCT048 BKN070 A3011 RMK MADISHF
AMW,2017-04-13 16:05,M,M,M,90.00,8.00,M,30.11,M,10.00,M,FEW,BKN,M,M,5000.00,7500.00,M,M,M,KAMW 132105Z AUTO 09008KT 10SM FEW050 BKN075 A3011 RMK MADISHF
AMW,2017-04-13 16:10,M,M,M,70.00,11.00,M,30.11,M,10.00,17.00,BKN,BKN,M,M,7000.00,9000.00,M,M,M,KAMW 132110Z AUTO 07011G17KT 10SM BKN070 BKN090 A3011 RMK MADISHF
AMW,2017-04-13 16:15,M,M,M,90.00,10.00,M,30.11,M,10.00,M,FEW,BKN,BKN,M,5000.00,7000.00,9000.00,M,M,KAMW 132115Z AUTO 09010KT 10SM FEW050 BKN070 BKN090 A3011 RMK MADISHF
AMW,2017-04-13 16:20,M,M,M,100.00,10.00,M,30.11,M,10.00,M,SCT,BKN,BKN,M,5000.00,7000.00,9000.00,M,M,KAMW 132120Z AUTO 10010KT 10SM SCT050 BKN070 BKN090 A3011 RMK MADISHF
AMW,2017-04-13 16:25,M,M,M,80.00,9.00,M,30.11,M,10.00,M,BKN,BKN,BKN,M,4800.00,7000.00,9000.00,M,M,KAMW 132125Z AUTO 08009KT 10SM BKN048 BKN070 BKN090 A3011 RMK MADISHF
AMW,2017-04-13 16:30,M,M,M,110.00,9.00,M,30.10,M,10.00,M,BKN,BKN,BKN,M,4800.00,7000.00,9000.00,M,M,KAMW 132130Z AUTO 11009KT 10SM BKN048 BKN070 BKN090 A3010 RMK MADISHF
AMW,2017-04-13 16:35,M,M,M,100.00,8.00,M,30.10,M,10.00,M,BKN,BKN,OVC,M,4800.00,5500.00,8500.00,M,M,KAMW 132135Z AUTO 10008KT 10SM BKN048 BKN055 OVC085 A3010 RMK MADISHF
AMW,2017-04-13 16:40,M,M,M,90.00,10.00,M,30.10,M,10.00,M,BKN,BKN,OVC,M,4800.00,5500.00,7500.00,M,M,KAMW 132140Z AUTO 09010KT 10SM BKN048 BKN055 OVC075 A3010 RMK MADISHF
AMW,2017-04-13 16:45,M,M,M,70.00,10.00,M,30.10,M,10.00,M,BKN,OVC,M,M,4800.00,5500.00,M,M,M,KAMW 132145Z AUTO 07010KT 10SM BKN048 OVC055 A3010 RMK MADISHF
AMW,2017-04-13 16:50,M,M,M,100.00,10.00,M,30.10,M,10.00,M,BKN,BKN,OVC,M,4800.00,5500.00,8500.00,M,M,KAMW 132150Z AUTO 10010KT 10SM BKN048 BKN055 OVC085 A3010 RMK MADISHF
AMW,2017-04-13 16:53,73.00,55.00,53.23,90.00,10.00,0.00,30.10,1018.70,10.00,17.00,BKN,BKN,BKN,M,4800.00,5500.00,8500.00,M,M,KAMW 132153Z AUTO 09010G17KT 10SM BKN048 BKN055 BKN085 23/13 A3010 RMK AO2 SLP187 T02280128
AMW,2017-04-13 16:55,M,M,M,70.00,12.00,M,30.10,M,10.00,M,SCT,SCT,BKN,M,4800.00,5500.00,8500.00,M,M,KAMW 132155Z AUTO 07012KT 10SM SCT048 SCT055 BKN085 A3010 RMK MADISHF
AMW,2017-04-13 17:00,M,M,M,70.00,13.00,M,30.10,M,10.00,M,SCT,SCT,BKN,M,4800.00,5500.00,8500.00,M,M,KAMW 132200Z AUTO 07013KT 10SM SCT048 SCT055 BKN085 A3010 RMK MADISHF
AMW,2017-04-13 17:05,M,M,M,70.00,12.00,M,30.10,M,10.00,M,SCT,SCT,M,M,4800.00,8500.00,M,M,M,KAMW 132205Z AUTO 07012KT 10SM SCT048 SCT085 A3010 RMK MADISHF
AMW,2017-04-13 17:10,M,M,M,70.00,11.00,M,30.10,M,10.00,M,SCT,BKN,M,M,4800.00,8500.00,M,M,M,KAMW 132210Z AUTO 07011KT 10SM SCT048 BKN085 A3010 RMK MADISHF
AMW,2017-04-13 17:15,M,M,M,90.00,10.00,M,30.10,M,10.00,15.00,BKN,BKN,M,M,4800.00,8500.00,M,M,M,KAMW 132215Z AUTO 09010G15KT 10SM BKN048 BKN085 A3010 RMK MADISHF
AMW,2017-04-13 17:20,M,M,M,80.00,13.00,M,30.10,M,10.00,M,BKN,BKN,M,M,4800.00,6000.00,M,M,M,KAMW 132220Z AUTO 08013KT 10SM BKN048 BKN060 A3010 RMK MADISHF
AMW,2017-04-13 17:25,M,M,M,80.00,8.00,M,30.10,M,10.00,M,SCT,BKN,BKN,M,4700.00,6500.00,7999.00,M,M,KAMW 132225Z AUTO 08008KT 10SM SCT047 BKN065 BKN079 A3010 RMK MADISHF
AMW,2017-04-13 17:30,M,M,M,70.00,9.00,M,30.10,M,10.00,M,SCT,BKN,M,M,4700.00,7999.00,M,M,M,KAMW 132230Z AUTO 07009KT 10SM SCT047 BKN079 A3010 RMK MADISHF
AMW,2017-04-13 17:35,M,M,M,80.00,11.00,M,30.10,M,10.00,M,SCT,BKN,BKN,M,4700.00,7000.00,7999.00,M,M,KAMW 132235Z AUTO 08011KT 10SM SCT047 BKN070 BKN079 A3010 RMK MADISHF
AMW,2017-04-13 17:40,M,M,M,80.00,13.00,M,30.10,M,10.00,M,FEW,BKN,BKN,M,4700.00,6000.00,7500.00,M,M,KAMW 132240Z AUTO 08013KT 10SM FEW047 BKN060 BKN075 A3010 RMK MADISHF
AMW,2017-04-13 17:45,M,M,M,70.00,11.00,M,30.10,M,10.00,M,SCT,BKN,M,M,6000.00,7500.00,M,M,M,KAMW 132245Z AUTO 07011KT 10SM SCT060 BKN075 A3010 RMK MADISHF
AMW,2017-04-13 17:50,M,M,M,70.00,11.00,M,30.10,M,10.00,M,SCT,SCT,M,M,7000.00,7999.00,M,M,M,KAMW 132250Z AUTO 07011KT 10SM SCT070 SCT079 A3010 RMK MADISHF
AMW,2017-04-13 17:53,70.00,55.90,60.89,70.00,11.00,0.00,30.10,1018.80,10.00,M,FEW,SCT,M,M,6000.00,8000.00,M,M,M,KAMW 132253Z AUTO 07011KT 10SM FEW060 SCT080 21/13 A3010 RMK AO2 SLP188 T02110133
AMW,2017-04-13 17:55,M,M,M,70.00,10.00,M,30.10,M,10.00,M,SCT,M,M,M,7000.00,M,M,M,M,KAMW 132255Z AUTO 07010KT 10SM SCT070 A3010 RMK MADISHF
AMW,2017-04-13 18:00,M,M,M,70.00,10.00,M,30.10,M,10.00,M,SCT,M,M,M,7000.00,M,M,M,M,KAMW 132300Z AUTO 07010KT 10SM SCT070 A3010 RMK MADISHF
AMW,2017-04-13 18:05,M,M,M,70.00,10.00,M,30.10,M,10.00,M,FEW,FEW,M,M,7000.00,8500.00,M,M,M,KAMW 132305Z AUTO 07010KT 10SM FEW070 FEW085 A3010 RMK MADISHF
AMW,2017-04-13 18:10,M,M,M,80.00,11.00,M,30.10,M,10.00,16.00,FEW,M,M,M,8500.00,M,M,M,M,KAMW 132310Z AUTO 08011G16KT 10SM FEW085 A3010 RMK MADISHF
AMW,2017-04-13 18:15,M,M,M,70.00,13.00,M,30.10,M,10.00,M,FEW,M,M,M,8500.00,M,M,M,M,KAMW 132315Z AUTO 07013KT 10SM FEW085 A3010 RMK MADISHF
AMW,2017-04-13 18:20,M,M,M,80.00,11.00,M,30.10,M,10.00,M,SCT,M,M,M,9000.00,M,M,M,M,KAMW 132320Z AUTO 08011KT 10SM SCT090 A3010 RMK MADISHF
AMW,2017-04-13 18:25,M,M,M,80.00,12.00,M,30.10,M,10.00,M,SCT,M,M,M,9000.00,M,M,M,M,KAMW 132325Z AUTO 08012KT 10SM SCT090 A3010 RMK MADISHF
AMW,2017-04-13 18:30,M,M,M,80.00,13.00,M,30.09,M,10.00,M,BKN,M,M,M,9000.00,M,M,M,M,KAMW 132330Z AUTO 08013KT 10SM BKN090 A3009 RMK MADISHF
AMW,2017-04-13 18:35,M,M,M,80.00,10.00,M,30.09,M,10.00,M,BKN,M,M,M,9000.00,M,M,M,M,KAMW 132335Z AUTO 08010KT 10SM BKN090 A3009 RMK MADISHF
AMW,2017-04-13 18:40,M,M,M,80.00,12.00,M,30.09,M,10.00,M,BKN,M,M,M,9000.00,M,M,M,M,KAMW 132340Z AUTO 08012KT 10SM BKN090 A3009 RMK MADISHF
AMW,2017-04-13 18:45,M,M,M,70.00,12.00,M,30.10,M,10.00,M,SCT,M,M,M,9000.00,M,M,M,M,KAMW 132345Z AUTO 07012KT 10SM SCT090 A3010 RMK MADISHF
AMW,2017-04-13 18:50,M,M,M,80.00,10.00,M,30.10,M,10.00,M,SCT,M,M,M,9000.00,M,M,M,M,KAMW 132350Z AUTO 08010KT 10SM SCT090 A3010 RMK MADISHF
AMW,2017-04-13 18:53,66.90,55.90,67.74,80.00,14.00,0.00,30.10,1018.80,10.00,17.00,FEW,SCT,M,M,5000.00,9000.00,M,M,M,KAMW 132353Z AUTO 08014G17KT 10SM FEW050 SCT090 19/13 A3010 RMK AO2 SLP188 T01940133 10233 20183 56006
AMW,2017-04-13 18:55,M,M,M,80.00,13.00,M,30.09,M,10.00,M,FEW,SCT,M,M,5000.00,9000.00,M,M,M,KAMW 132355Z AUTO 08013KT 10SM FEW050 SCT090 A3009 RMK MADISHF
AMW,2017-04-13 19:00,M,M,M,70.00,13.00,M,30.10,M,10.00,M,FEW,FEW,M,M,5000.00,9000.00,M,M,M,KAMW 140000Z AUTO 07013KT 10SM FEW050 FEW090 A3010 RMK MADISHF
AMW,2017-04-13 19:05,M,M,M,80.00,14.00,M,30.10,M,10.00,M,FEW,M,M,M,5000.00,M,M,M,M,KAMW 140005Z AUTO 08014KT 10SM FEW050 A3010 RMK MADISHF
AMW,2017-04-13 19:10,M,M,M,70.00,12.00,M,30.10,M,10.00,M,FEW,M,M,M,5000.00,M,M,M,M,KAMW 140010Z AUTO 07012KT 10SM FEW050 A3010 RMK MADISHF
AMW,2017-04-13 19:15,M,M,M,70.00,11.00,M,30.10,M,10.00,M,FEW,M,M,M,5000.00,M,M,M,M,KAMW 140015Z AUTO 07011KT 10SM FEW050 A3010 RMK MADISHF
AMW,2017-04-13 19:20,M,M,M,70.00,10.00,M,30.10,M,10.00,M,FEW,M,M,M,5000.00,M,M,M,M,KAMW 140020Z AUTO 07010KT 10SM FEW050 A3010 RMK MADISHF
AMW,2017-04-13 19:25,M,M,M,60.00,9.00,M,30.10,M,10.00,M,FEW,M,M,M,5000.00,M,M,M,M,KAMW 140025Z AUTO 06009KT 10SM FEW050 A3010 RMK MADISHF
AMW,2017-04-13 19:30,M,M,M,80.00,11.00,M,30.10,M,10.00,M,CLR,M,M,M,M,M,M,M,M,KAMW 140030Z AUTO 08011KT 10SM CLR A3010 RMK MADISHF
AMW,2017-04-13 19:35,M,M,M,70.00,8.00,M,30.10,M,10.00,M,CLR,M,M,M,M,M,M,M,M,KAMW 140035Z AUTO 07008KT 10SM CLR A3010 RMK MADISHF
AMW,2017-04-13 19:40,M,M,M,70.00,10.00,M,30.10,M,10.00,16.00,CLR,M,M,M,M,M,M,M,M,KAMW 140040Z AUTO 07010G16KT 10SM CLR A3010 RMK MADISHF
AMW,2017-04-13 19:45,M,M,M,70.00,13.00,M,30.09,M,10.00,M,CLR,M,M,M,M,M,M,M,M,KAMW 140045Z AUTO 07013KT 10SM CLR A3009 RMK MADISHF
AMW,2017-04-13 19:50,M,M,M,80.00,10.00,M,30.09,M,10.00,M,CLR,M,M,M,M,M,M,M,M,KAMW 140050Z AUTO 08010KT 10SM CLR A3009 RMK MADISHF
AMW,2017-04-13 19:53,64.00,55.90,74.93,70.00,12.00,0.00,30.10,1018.80,10.00,M,CLR,M,M,M,M,M,M,M,M,KAMW 140053Z AUTO 07012KT 10SM CLR 18/13 A3010 RMK AO2 SLP188 T01780133
AMW,2017-04-13 19:55,M,M,M,80.00,12.00,M,30.10,M,10.00,M,CLR,M,M,M,M,M,M,M,M,KAMW 140055Z AUTO 08012KT 10SM CLR A3010 RMK MADISHF
AMW,2017-04-13 20:00,M,M,M,80.00,12.00,M,30.10,M,10.00,M,CLR,M,M,M,M,M,M,M,M,KAMW 140100Z AUTO 08012KT 10SM CLR A3010 RMK MADISHF
AMW,2017-04-13 20:05,M,M,M,70.00,12.00,M,30.10,M,10.00,M,CLR,M,M,M,M,M,M,M,M,KAMW 140105Z AUTO 07012KT 10SM CLR A3010 RMK MADISHF
AMW,2017-04-13 20:10,M,M,M,80.00,9.00,M,30.10,M,10.00,M,CLR,M,M,M,M,M,M,M,M,KAMW 140110Z AUTO 08009KT 10SM CLR A3010 RMK MADISHF
AMW,2017-04-13 20:15,M,M,M,80.00,12.00,M,30.10,M,10.00,M,CLR,M,M,M,M,M,M,M,M,KAMW 140115Z AUTO 08012KT 10SM CLR A3010 RMK MADISHF
AMW,2017-04-13 20:20,M,M,M,80.00,12.00,M,30.10,M,10.00,18.00,CLR,M,M,M,M,M,M,M,M,KAMW 140120Z AUTO 08012G18KT 10SM CLR A3010 RMK MADISHF
AMW,2017-04-13 20:25,M,M,M,80.00,13.00,M,30.11,M,10.00,M,FEW,M,M,M,5500.00,M,M,M,M,KAMW 140125Z AUTO 08013KT 10SM FEW055 A3011 RMK MADISHF
AMW,2017-04-13 20:30,M,M,M,80.00,13.00,M,30.11,M,10.00,M,FEW,SCT,M,M,4900.00,6000.00,M,M,M,KAMW 140130Z AUTO 08013KT 10SM FEW049 SCT060 A3011 RMK MADISHF
AMW,2017-04-13 20:35,M,M,M,90.00,13.00,M,30.11,M,10.00,M,FEW,BKN,M,M,4900.00,6000.00,M,M,M,KAMW 140135Z AUTO 09013KT 10SM FEW049 BKN060 A3011 RMK MADISHF
AMW,2017-04-13 20:40,M,M,M,90.00,11.00,M,30.12,M,10.00,M,SCT,BKN,M,M,4900.00,7000.00,M,M,M,KAMW 140140Z AUTO 09011KT 10SM SCT049 BKN070 A3012 RMK MADISHF
AMW,2017-04-13 20:45,M,M,M,90.00,11.00,M,30.12,M,10.00,M,FEW,BKN,M,M,4900.00,6500.00,M,M,M,KAMW 140145Z AUTO 09011KT 10SM FEW049 BKN065 A3012 RMK MADISHF
AMW,2017-04-13 20:50,M,M,M,80.00,10.00,M,30.12,M,10.00,M,FEW,SCT,BKN,M,4700.00,5500.00,7000.00,M,M,KAMW 140150Z AUTO 08010KT 10SM FEW047 SCT055 BKN070 A3012 RMK MADISHF
AMW,2017-04-13 20:53,62.10,55.00,77.53,80.00,13.00,0.00,30.12,1019.70,10.00,M,FEW,FEW,BKN,M,4700.00,5500.00,7000.00,M,M,KAMW 140153Z AUTO 08013KT 10SM FEW047 FEW055 BKN070 17/13 A3012 RMK AO2 SLP197 T01670128
AMW,2017-04-13 20:55,M,M,M,90.00,10.00,M,30.13,M,10.00,M,FEW,FEW,BKN,M,4700.00,5500.00,7000.00,M,M,KAMW 140155Z AUTO 09010KT 10SM FEW047 FEW055 BKN070 A3013 RMK MADISHF
AMW,2017-04-13 21:00,M,M,M,90.00,11.00,M,30.13,M,10.00,M,FEW,BKN,BKN,M,5000.00,7500.00,10000.00,M,M,KAMW 140200Z AUTO 09011KT 10SM FEW050 BKN075 BKN100 A3013 RMK MADISHF
AMW,2017-04-13 21:05,M,M,M,90.00,10.00,M,30.13,M,10.00,M,FEW,BKN,M,M,7000.00,10000.00,M,M,M,KAMW 140205Z AUTO 09010KT 10SM FEW070 BKN100 A3013 RMK MADISHF
AMW,2017-04-13 21:10,M,M,M,90.00,12.00,M,30.13,M,10.00,M,FEW,SCT,M,M,7500.00,10000.00,M,M,M,KAMW 140210Z AUTO 09012KT 10SM FEW075 SCT100 A3013 RMK MADISHF
AMW,2017-04-13 21:15,M,M,M,90.00,11.00,M,30.13,M,10.00,M,FEW,SCT,M,M,7500.00,10000.00,M,M,M,KAMW 140215Z AUTO 09011KT 10SM FEW075 SCT100 A3013 RMK MADISHF
AMW,2017-04-13 21:20,M,M,M,90.00,10.00,M,30.13,M,10.00,M,FEW,SCT,M,M,7000.00,10000.00,M,M,M,KAMW 140220Z AUTO 09010KT 10SM FEW070 SCT100 A3013 RMK MADISHF
AMW,2017-04-13 21:25,M,M,M,100.00,10.00,M,30.13,M,10.00,M,BKN,M,M,M,9500.00,M,M,M,M,KAMW 140225Z AUTO 10010KT 10SM BKN095 A3013 RMK MADISHF
AMW,2017-04-13 21:30,M,M,M,100.00,10.00,M,30.12,M,10.00,M,SCT,M,M,M,9500.00,M,M,M,M,KAMW 140230Z AUTO 10010KT 10SM SCT095 A3012 RMK MADISHF
AMW,2017-04-13 21:35,M,M,M,100.00,12.00,M,30.12,M,10.00,M,FEW,M,M,M,9500.00,M,M,M,M,KAMW 140235Z AUTO 10012KT 10SM FEW095 A3012 RMK MADISHF
AMW,2017-04-13 21:40,M,M,M,90.00,11.00,M,30.12,M,10.00,M,FEW,M,M,M,9500.00,M,M,M,M,KAMW 140240Z AUTO 09011KT 10SM FEW095 A3012 RMK MADISHF
AMW,2017-04-13 21:45,M,M,M,90.00,12.00,M,30.12,M,9.00,M,FEW,M,M,M,9500.00,M,M,M,M,KAMW 140245Z AUTO 09012KT 9SM FEW095 A3012 RMK MADISHF
AMW,2017-04-13 21:50,M,M,M,100.00,11.00,M,30.12,M,9.00,M,FEW,M,M,M,9500.00,M,M,M,M,KAMW 140250Z AUTO 10011KT 9SM FEW095 A3012 RMK MADISHF
AMW,2017-04-13 21:53,60.10,54.00,80.25,100.00,11.00,0.00,30.12,1019.70,9.00,M,CLR,M,M,M,M,M,M,M,M,KAMW 140253Z AUTO 10011KT 9SM CLR 16/12 A3012 RMK AO2 SLP197 T01560122 50009
AMW,2017-04-13 21:55,M,M,M,100.00,11.00,M,30.12,M,9.00,M,CLR,M,M,M,M,M,M,M,M,KAMW 140255Z AUTO 10011KT 9SM CLR A3012 RMK MADISHF
AMW,2017-04-13 22:00,M,M,M,100.00,11.00,M,30.12,M,10.00,M,CLR,M,M,M,M,M,M,M,M,KAMW 140300Z AUTO 10011KT 10SM CLR A3012 RMK MADISHF
AMW,2017-04-13 22:05,M,M,M,100.00,10.00,M,30.13,M,9.00,M,CLR,M,M,M,M,M,M,M,M,KAMW 140305Z AUTO 10010KT 9SM CLR A3013 RMK MADISHF
AMW,2017-04-13 22:10,M,M,M,100.00,11.00,M,30.13,M,9.00,M,CLR,M,M,M,M,M,M,M,M,KAMW 140310Z AUTO 10011KT 9SM CLR A3013 RMK MADISHF
AMW,2017-04-13 22:15,M,M,M,100.00,11.00,M,30.12,M,9.00,M,CLR,M,M,M,M,M,M,M,M,KAMW 140315Z AUTO 10011KT 9SM CLR A3012 RMK MADISHF
AMW,2017-04-13 22:20,M,M,M,100.00,10.00,M,30.12,M,9.00,M,CLR,M,M,M,M,M,M,M,M,KAMW 140320Z AUTO 10010KT 9SM CLR A3012 RMK MADISHF
AMW,2017-04-13 22:25,M,M,M,100.00,8.00,M,30.12,M,9.00,M,CLR,M,M,M,M,M,M,M,M,KAMW 140325Z AUTO 10008KT 9SM CLR A3012 RMK MADISHF
AMW,2017-04-13 22:30,M,M,M,100.00,9.00,M,30.12,M,9.00,M,CLR,M,M,M,M,M,M,M,M,KAMW 140330Z AUTO 10009KT 9SM CLR A3012 RMK MADISHF
AMW,2017-04-13 22:35,M,M,M,110.00,9.00,M,30.12,M,9.00,M,CLR,M,M,M,M,M,M,M,M,KAMW 140335Z AUTO 11009KT 9SM CLR A3012 RMK MADISHF
AMW,2017-04-13 22:40,M,M,M,100.00,11.00,M,30.12,M,9.00,M,CLR,M,M,M,M,M,M,M,M,KAMW 140340Z AUTO 10011KT 9SM CLR A3012 RMK MADISHF
AMW,2017-04-13 22:45,M,M,M,100.00,9.00,M,30.12,M,8.00,M,CLR,M,M,M,M,M,M,M,M,KAMW 140345Z AUTO 10009KT 8SM CLR A3012 RMK MADISHF
AMW,2017-04-13 22:50,M,M,M,110.00,9.00,M,30.12,M,8.00,M,CLR,M,M,M,M,M,M,M,M,KAMW 140350Z AUTO 11009KT 8SM CLR A3012 RMK MADISHF
AMW,2017-04-13 22:53,59.00,53.10,80.75,100.00,9.00,0.00,30.13,1019.80,8.00,17.00,CLR,M,M,M,M,M,M,M,M,KAMW 140353Z AUTO 10009G17KT 8SM CLR 15/12 A3013 RMK AO2 SLP198 T01500117
AMW,2017-04-13 22:55,M,M,M,110.00,8.00,M,30.13,M,8.00,M,CLR,M,M,M,M,M,M,M,M,KAMW 140355Z AUTO 11008KT 8SM CLR A3013 RMK MADISHF
AMW,2017-04-13 23:00,M,M,M,100.00,10.00,M,30.13,M,8.00,15.00,FEW,M,M,M,4700.00,M,M,M,M,KAMW 140400Z AUTO 10010G15KT 8SM FEW047 A3013 RMK MADISHF
AMW,2017-04-13 23:05,M,M,M,110.00,11.00,M,30.12,M,7.00,17.00,FEW,M,M,M,4900.00,M,M,M,M,KAMW 140405Z AUTO 11011G17KT 7SM FEW049 A3012 RMK MADISHF
AMW,2017-04-13 23:10,M,M,M,110.00,10.00,M,30.12,M,7.00,M,FEW,SCT,M,M,4900.00,6000.00,M,M,M,KAMW 140410Z AUTO 11010KT 7SM FEW049 SCT060 A3012 RMK MADISHF
AMW,2017-04-13 23:15,M,M,M,100.00,10.00,M,30.12,M,7.00,M,FEW,SCT,M,M,5000.00,6000.00,M,M,M,KAMW 140415Z AUTO 10010KT 7SM FEW050 SCT060 A3012 RMK MADISHF
AMW,2017-04-13 23:20,M,M,M,110.00,10.00,M,30.12,M,7.00,M,FEW,SCT,M,M,4800.00,6000.00,M,M,M,KAMW 140420Z AUTO 11010KT 7SM FEW048 SCT060 A3012 RMK MADISHF
AMW,2017-04-13 23:25,M,M,M,110.00,10.00,M,30.12,M,7.00,M,FEW,SCT,M,M,4800.00,6000.00,M,M,M,KAMW 140425Z AUTO 11010KT 7SM FEW048 SCT060 A3012 RMK MADISHF
AMW,2017-04-13 23:30,M,M,M,110.00,11.00,M,30.12,M,7.00,M,FEW,M,M,M,6000.00,M,M,M,M,KAMW 140430Z AUTO 11011KT 7SM FEW060 A3012 RMK MADISHF
AMW,2017-04-13 23:35,M,M,M,110.00,9.00,M,30.12,M,7.00,M,FEW,M,M,M,6000.00,M,M,M,M,KAMW 140435Z AUTO 11009KT 7SM FEW060 A3012 RMK MADISHF
AMW,2017-04-13 23:40,M,M,M,100.00,11.00,M,30.12,M,7.00,M,CLR,M,M,M,M,M,M,M,M,KAMW 140440Z AUTO 10011KT 7SM CLR A3012 RMK MADISHF
AMW,2017-04-13 23:45,M,M,M,100.00,10.00,M,30.12,M,7.00,M,CLR,M,M,M,M,M,M,M,M,KAMW 140445Z AUTO 10010KT 7SM CLR A3012 RMK MADISHF
AMW,2017-04-13 23:50,M,M,M,100.00,9.00,M,30.11,M,7.00,M,CLR,M,M,M,M,M,M,M,M,KAMW 140450Z AUTO 10009KT 7SM CLR A3011 RMK MADISHF
AMW,2017-04-13 23:53,57.00,52.00,83.33,100.00,9.00,0.00,30.11,1019.40,7.00,M,CLR,M,M,M,M,M,M,M,M,KAMW 140453Z AUTO 10009KT 7SM CLR 14/11 A3011 RMK AO2 SLP194 T01390111
AMW,2017-04-13 23:55,M,M,M,100.00,9.00,M,30.12,M,7.00,M,CLR,M,M,M,M,M,M,M,M,KAMW 140455Z AUTO 10009KT 7SM CLR A3012 RMK MADISHF
AMW,2017-04-14 00:00,M,M,M,110.00,9.00,M,30.12,M,7.00,M,CLR,M,M,M,M,M,M,M,M,KAMW 140500Z AUTO 11009KT 7SM CLR A3012 RMK MADISHF
AMW,2017-04-14 00:05,M,M,M,100.00,9.00,M,30.12,M,7.00,M,CLR,M,M,M,M,M,M,M,M,KAMW 140505Z AUTO 10009KT 7SM CLR A3012 RMK MADISHF
AMW,2017-04-14 00:10,M,M,M,100.00,8.00,M,30.12,M,7.00,M,CLR,M,M,M,M,M,M,M,M,KAMW 140510Z AUTO 10008KT 7SM CLR A3012 RMK MADISHF
AMW,2017-04-14 00:15,M,M,M,100.00,9.00,M,30.11,M,7.00,M,CLR,M,M,M,M,M,M,M,M,KAMW 140515Z AUTO 10009KT 7SM CLR A3011 RMK MADISHF
AMW,2017-04-14 00:20,M,M,M,100.00,11.00,M,30.11,M,7.00,M,CLR,M,M,M,M,M,M,M,M,KAMW 140520Z AUTO 10011KT 7SM CLR A3011 RMK MADISHF
AMW,2017-04-14 00:25,M,M,M,100.00,10.00,M,30.11,M,7.00,M,CLR,M,M,M,M,M,M,M,M,KAMW 140525Z AUTO 10010KT 7SM CLR A3011 RMK MADISHF
AMW,2017-04-14 00:30,M,M,M,100.00,9.00,M,30.11,M,6.00,M,CLR,M,M,M,M,M,M,M,BR,KAMW 140530Z AUTO 10009KT 6SM BR CLR A3011 RMK MADISHF
AMW,2017-04-14 00:35,M,M,M,100.00,10.00,M,30.11,M,6.00,M,CLR,M,M,M,M,M,M,M,BR,KAMW 140535Z AUTO 10010KT 6SM BR CLR A3011 RMK MADISHF
AMW,2017-04-14 00:40,M,M,M,100.00,9.00,M,30.11,M,6.00,M,CLR,M,M,M,M,M,M,M,BR,KAMW 140540Z AUTO 10009KT 6SM BR CLR A3011 RMK MADISHF
AMW,2017-04-14 00:45,M,M,M,100.00,10.00,M,30.11,M,6.00,M,CLR,M,M,M,M,M,M,M,BR,KAMW 140545Z AUTO 10010KT 6SM BR CLR A3011 RMK MADISHF
AMW,2017-04-14 00:50,M,M,M,100.00,9.00,M,30.12,M,6.00,M,CLR,M,M,M,M,M,M,M,BR,KAMW 140550Z AUTO 10009KT 6SM BR CLR A3012 RMK MADISHF
AMW,2017-04-14 00:53,55.90,52.00,86.71,110.00,8.00,0.00,30.12,1019.40,6.00,M,CLR,M,M,M,M,M,M,M,BR,KAMW 140553Z AUTO 11008KT 6SM BR CLR 13/11 A3012 RMK AO2 SLP194 T01330111 10194 20133 402330106 57002
AMW,2017-04-14 00:55,M,M,M,110.00,9.00,M,30.12,M,6.00,M,CLR,M,M,M,M,M,M,M,BR,KAMW 140555Z AUTO 11009KT 6SM BR CLR A3012 RMK MADISHF
AMW,2017-04-14 01:00,M,M,M,100.00,9.00,M,30.12,M,6.00,M,CLR,M,M,M,M,M,M,M,BR,KAMW 140600Z AUTO 10009KT 6SM BR CLR A3012 RMK MADISHF
AMW,2017-04-14 01:05,M,M,M,100.00,10.00,M,30.12,M,6.00,M,CLR,M,M,M,M,M,M,M,BR,KAMW 140605Z AUTO 10010KT 6SM BR CLR A3012 RMK MADISHF
AMW,2017-04-14 01:10,M,M,M,100.00,9.00,M,30.12,M,6.00,M,SCT,M,M,M,5000.00,M,M,M,BR,KAMW 140610Z AUTO 10009KT 6SM BR SCT050 A3012 RMK MADISHF
AMW,2017-04-14 01:15,M,M,M,100.00,10.00,M,30.12,M,6.00,M,BKN,M,M,M,5500.00,M,M,M,BR,KAMW 140615Z AUTO 10010KT 6SM BR BKN055 A3012 RMK MADISHF
AMW,2017-04-14 01:20,M,M,M,110.00,12.00,M,30.12,M,6.00,M,BKN,M,M,M,5500.00,M,M,M,BR,KAMW 140620Z AUTO 11012KT 6SM BR BKN055 A3012 RMK MADISHF
AMW,2017-04-14 01:25,M,M,M,110.00,11.00,M,30.12,M,6.00,M,BKN,M,M,M,6000.00,M,M,M,BR,KAMW 140625Z AUTO 11011KT 6SM BR BKN060 A3012 RMK MADISHF
AMW,2017-04-14 01:30,M,M,M,110.00,10.00,M,30.12,M,6.00,M,BKN,M,M,M,6000.00,M,M,M,BR,KAMW 140630Z AUTO 11010KT 6SM BR BKN060 A3012 RMK MADISHF
AMW,2017-04-14 01:35,M,M,M,110.00,10.00,M,30.12,M,6.00,M,OVC,M,M,M,6000.00,M,M,M,BR,KAMW 140635Z AUTO 11010KT 6SM BR OVC060 A3012 RMK MADISHF
AMW,2017-04-14 01:40,M,M,M,100.00,11.00,M,30.12,M,6.00,M,OVC,M,M,M,6000.00,M,M,M,BR,KAMW 140640Z AUTO 10011KT 6SM BR OVC060 A3012 RMK MADISHF
AMW,2017-04-14 01:45,M,M,M,110.00,10.00,M,30.12,M,6.00,M,OVC,M,M,M,6000.00,M,M,M,BR,KAMW 140645Z AUTO 11010KT 6SM BR OVC060 A3012 RMK MADISHF
AMW,2017-04-14 01:50,M,M,M,100.00,9.00,M,30.12,M,6.00,M,OVC,M,M,M,6000.00,M,M,M,BR,KAMW 140650Z AUTO 10009KT 6SM BR OVC060 A3012 RMK MADISHF
AMW,2017-04-14 01:53,55.90,52.00,86.71,100.00,11.00,0.00,30.12,1019.40,6.00,M,OVC,M,M,M,6000.00,M,M,M,BR,KAMW 140653Z AUTO 10011KT 6SM BR OVC060 13/11 A3012 RMK AO2 SLP194 T01330111
AMW,2017-04-14 01:55,M,M,M,110.00,9.00,M,30.12,M,6.00,M,OVC,M,M,M,6000.00,M,M,M,BR,KAMW 140655Z AUTO 11009KT 6SM BR OVC060 A3012 RMK MADISHF
AMW,2017-04-14 02:00,M,M,M,100.00,8.00,M,30.12,M,5.00,M,OVC,M,M,M,6000.00,M,M,M,BR,KAMW 140700Z AUTO 10008KT 5SM BR OVC060 A3012 RMK MADISHF
AMW,2017-04-14 02:05,M,M,M,110.00,9.00,M,30.12,M,5.00,M,OVC,M,M,M,6500.00,M,M,M,BR,KAMW 140705Z AUTO 11009KT 5SM BR OVC065 A3012 RMK MADISHF
AMW,2017-04-14 02:10,M,M,M,110.00,8.00,M,30.12,M,5.00,M,OVC,M,M,M,6500.00,M,M,M,BR,KAMW 140710Z AUTO 11008KT 5SM BR OVC065 A3012 RMK MADISHF
AMW,2017-04-14 02:15,M,M,M,110.00,10.00,M,30.12,M,5.00,M,OVC,M,M,M,6500.00,M,M,M,BR,KAMW 140715Z AUTO 11010KT 5SM BR OVC065 A3012 RMK MADISHF
AMW,2017-04-14 02:20,M,M,M,110.00,11.00,M,30.12,M,5.00,M,OVC,M,M,M,6500.00,M,M,M,BR,KAMW 140720Z AUTO 11011KT 5SM BR OVC065 A3012 RMK MADISHF
AMW,2017-04-14 02:25,M,M,M,110.00,12.00,M,30.11,M,5.00,M,SCT,OVC,M,M,5500.00,7000.00,M,M,BR,KAMW 140725Z AUTO 11012KT 5SM BR SCT055 OVC070 A3011 RMK MADISHF
AMW,2017-04-14 02:30,M,M,M,110.00,10.00,M,30.11,M,5.00,M,OVC,M,M,M,6500.00,M,M,M,BR,KAMW 140730Z AUTO 11010KT 5SM BR OVC065 A3011 RMK MADISHF
AMW,2017-04-14 02:35,M,M,M,110.00,12.00,M,30.11,M,5.00,M,OVC,M,M,M,6500.00,M,M,M,BR,KAMW 140735Z AUTO 11012KT 5SM BR OVC065 A3011 RMK MADISHF
AMW,2017-04-14 02:40,M,M,M,110.00,11.00,M,30.11,M,5.00,M,OVC,M,M,M,6500.00,M,M,M,BR,KAMW 140740Z AUTO 11011KT 5SM BR OVC065 A3011 RMK MADISHF
AMW,2017-04-14 02:45,M,M,M,110.00,9.00,M,30.11,M,5.00,M,OVC,M,M,M,6500.00,M,M,M,BR,KAMW 140745Z AUTO 11009KT 5SM BR OVC065 A3011 RMK MADISHF
AMW,2017-04-14 02:50,M,M,M,110.00,10.00,M,30.11,M,5.00,M,OVC,M,M,M,6500.00,M,M,M,BR,KAMW 140750Z AUTO 11010KT 5SM BR OVC065 A3011 RMK MADISHF
AMW,2017-04-14 02:53,55.00,52.00,89.59,110.00,11.00,0.00,30.11,1019.00,5.00,M,OVC,M,M,M,6500.00,M,M,M,BR,KAMW 140753Z AUTO 11011KT 5SM BR OVC065 13/11 A3011 RMK AO2 SLP190 T01280111
AMW,2017-04-14 02:55,M,M,M,110.00,10.00,M,30.11,M,5.00,M,OVC,M,M,M,6500.00,M,M,M,BR,KAMW 140755Z AUTO 11010KT 5SM BR OVC065 A3011 RMK MADISHF
AMW,2017-04-14 03:00,M,M,M,110.00,9.00,M,30.11,M,5.00,M,OVC,M,M,M,6500.00,M,M,M,BR,KAMW 140800Z AUTO 11009KT 5SM BR OVC065 A3011 RMK MADISHF
AMW,2017-04-14 03:05,M,M,M,110.00,10.00,M,30.11,M,5.00,M,OVC,M,M,M,6500.00,M,M,M,BR,KAMW 140805Z AUTO 11010KT 5SM BR OVC065 A3011 RMK MADISHF
AMW,2017-04-14 03:10,M,M,M,110.00,8.00,M,30.11,M,5.00,M,BKN,OVC,M,M,6000.00,7999.00,M,M,BR,KAMW 140810Z AUTO 11008KT 5SM BR BKN060 OVC079 A3011 RMK MADISHF
AMW,2017-04-14 03:15,M,M,M,110.00,10.00,M,30.10,M,5.00,M,SCT,OVC,M,M,6500.00,7999.00,M,M,BR,KAMW 140815Z AUTO 11010KT 5SM BR SCT065 OVC079 A3010 RMK MADISHF
AMW,2017-04-14 03:20,M,M,M,110.00,8.00,M,30.10,M,5.00,M,SCT,OVC,M,M,6000.00,7999.00,M,M,BR,KAMW 140820Z AUTO 11008KT 5SM BR SCT060 OVC079 A3010 RMK MADISHF
AMW,2017-04-14 03:25,M,M,M,100.00,8.00,M,30.10,M,5.00,M,FEW,OVC,M,M,6000.00,7999.00,M,M,BR,KAMW 140825Z AUTO 10008KT 5SM BR FEW060 OVC079 A3010 RMK MADISHF
AMW,2017-04-14 03:30,M,M,M,100.00,8.00,M,30.10,M,5.00,M,FEW,OVC,M,M,6000.00,7999.00,M,M,BR,KAMW 140830Z AUTO 10008KT 5SM BR FEW060 OVC079 A3010 RMK MADISHF
AMW,2017-04-14 03:35,M,M,M,100.00,8.00,M,30.09,M,5.00,M,OVC,M,M,M,7999.00,M,M,M,BR,KAMW 140835Z AUTO 10008KT 5SM BR OVC079 A3009 RMK MADISHF
AMW,2017-04-14 03:40,M,M,M,110.00,9.00,M,30.09,M,5.00,M,OVC,M,M,M,7999.00,M,M,M,BR,KAMW 140840Z AUTO 11009KT 5SM BR OVC079 A3009 RMK MADISHF
AMW,2017-04-14 03:45,M,M,M,100.00,8.00,M,30.09,M,5.00,M,OVC,M,M,M,7999.00,M,M,M,BR,KAMW 140845Z AUTO 10008KT 5SM BR OVC079 A3009 RMK MADISHF
AMW,2017-04-14 03:50,M,M,M,100.00,7.00,M,30.09,M,5.00,M,BKN,M,M,M,7999.00,M,M,M,BR,KAMW 140850Z AUTO 10007KT 5SM BR BKN079 A3009 RMK MADISHF
AMW,2017-04-14 03:53,54.00,52.00,92.92,100.00,9.00,0.00,30.09,1018.50,5.00,M,BKN,M,M,M,8000.00,M,M,M,BR,KAMW 140853Z AUTO 10009KT 5SM BR BKN080 12/11 A3009 RMK AO2 SLP185 T01220111 58007
AMW,2017-04-14 03:55,M,M,M,100.00,7.00,M,30.09,M,5.00,M,BKN,M,M,M,7999.00,M,M,M,BR,KAMW 140855Z AUTO 10007KT 5SM BR BKN079 A3009 RMK MADISHF
AMW,2017-04-14 04:00,M,M,M,110.00,7.00,M,30.09,M,5.00,M,SCT,M,M,M,7999.00,M,M,M,BR,KAMW 140900Z AUTO 11007KT 5SM BR SCT079 A3009 RMK MADISHF
AMW,2017-04-14 04:05,M,M,M,110.00,6.00,M,30.09,M,5.00,M,SCT,M,M,M,7500.00,M,M,M,BR,KAMW 140905Z AUTO 11006KT 5SM BR SCT075 A3009 RMK MADISHF
AMW,2017-04-14 04:10,M,M,M,110.00,7.00,M,30.09,M,5.00,M,FEW,M,M,M,7500.00,M,M,M,BR,KAMW 140910Z AUTO 11007KT 5SM BR FEW075 A3009 RMK MADISHF
AMW,2017-04-14 04:15,M,M,M,110.00,7.00,M,30.09,M,4.00,M,FEW,SCT,M,M,6500.00,7500.00,M,M,BR,KAMW 140915Z AUTO 11007KT 4SM BR FEW065 SCT075 A3009 RMK MADISHF
AMW,2017-04-14 04:20,M,M,M,100.00,6.00,M,30.09,M,4.00,M,SCT,M,M,M,6500.00,M,M,M,BR,KAMW 140920Z AUTO 10006KT 4SM BR SCT065 A3009 RMK MADISHF
AMW,2017-04-14 04:25,M,M,M,110.00,6.00,M,30.09,M,5.00,M,SCT,M,M,M,6500.00,M,M,M,BR,KAMW 140925Z AUTO 11006KT 5SM BR SCT065 A3009 RMK MADISHF
AMW,2017-04-14 04:30,M,M,M,110.00,7.00,M,30.09,M,5.00,M,BKN,M,M,M,6500.00,M,M,M,BR,KAMW 140930Z AUTO 11007KT 5SM BR BKN065 A3009 RMK MADISHF
AMW,2017-04-14 04:35,M,M,M,110.00,7.00,M,30.09,M,5.00,M,BKN,M,M,M,6500.00,M,M,M,BR,KAMW 140935Z AUTO 11007KT 5SM BR BKN065 A3009 RMK MADISHF
AMW,2017-04-14 04:40,M,M,M,110.00,6.00,M,30.09,M,4.00,M,SCT,M,M,M,6500.00,M,M,M,BR,KAMW 140940Z AUTO 11006KT 4SM BR SCT065 A3009 RMK MADISHF
AMW,2017-04-14 04:45,M,M,M,110.00,7.00,M,30.09,M,4.00,M,FEW,M,M,M,6500.00,M,M,M,BR,KAMW 140945Z AUTO 11007KT 4SM BR FEW065 A3009 RMK MADISHF
AMW,2017-04-14 04:50,M,M,M,110.00,6.00,M,30.09,M,4.00,M,FEW,SCT,M,M,5500.00,7000.00,M,M,BR,KAMW 140950Z AUTO 11006KT 4SM BR FEW055 SCT070 A3009 RMK MADISHF
AMW,2017-04-14 04:53,52.00,51.10,96.73,110.00,6.00,0.00,30.09,1018.30,4.00,M,FEW,SCT,M,M,5500.00,7000.00,M,M,BR,KAMW 140953Z AUTO 11006KT 4SM BR FEW055 SCT070 11/11 A3009 RMK AO2 SLP183 T01110106
AMW,2017-04-14 04:55,M,M,M,110.00,7.00,M,30.09,M,4.00,M,FEW,FEW,M,M,5500.00,7000.00,M,M,BR,KAMW 140955Z AUTO 11007KT 4SM BR FEW055 FEW070 A3009 RMK MADISHF
AMW,2017-04-14 05:00,M,M,M,110.00,7.00,M,30.09,M,4.00,M,FEW,M,M,M,5500.00,M,M,M,BR,KAMW 141000Z AUTO 11007KT 4SM BR FEW055 A3009 RMK MADISHF
AMW,2017-04-14 05:05,M,M,M,110.00,8.00,M,30.08,M,4.00,M,SCT,M,M,M,5500.00,M,M,M,BR,KAMW 141005Z AUTO 11008KT 4SM BR SCT055 A3008 RMK MADISHF
AMW,2017-04-14 05:10,M,M,M,110.00,8.00,M,30.08,M,4.00,M,BKN,M,M,M,5500.00,M,M,M,BR,KAMW 141010Z AUTO 11008KT 4SM BR BKN055 A3008 RMK MADISHF
AMW,2017-04-14 05:15,M,M,M,110.00,7.00,M,30.08,M,4.00,M,BKN,M,M,M,5500.00,M,M,M,BR,KAMW 141015Z AUTO 11007KT 4SM BR BKN055 A3008 RMK MADISHF
AMW,2017-04-14 05:20,M,M,M,110.00,7.00,M,30.08,M,4.00,M,BKN,M,M,M,5500.00,M,M,M,BR,KAMW 141020Z AUTO 11007KT 4SM BR BKN055 A3008 RMK MADISHF
AMW,2017-04-14 05:25,M,M,M,110.00,7.00,M,30.08,M,4.00,M,BKN,M,M,M,5500.00,M,M,M,BR,KAMW 141025Z AUTO 11007KT 4SM BR BKN055 A3008 RMK MADISHF
AMW,2017-04-14 05:30,M,M,M,110.00,7.00,M,30.08,M,4.00,M,BKN,M,M,M,5500.00,M,M,M,BR,KAMW 141030Z AUTO 11007KT 4SM BR BKN055 A3008 RMK MADISHF
AMW,2017-04-14 05:35,M,M,M,110.00,8.00,M,30.08,M,4.00,M,SCT,M,M,M,5500.00,M,M,M,BR,KAMW 141035Z AUTO 11008KT 4SM BR SCT055 A3008 RMK MADISHF
AMW,2017-04-14 05:40,M,M,M,110.00,7.00,M,30.08,M,4.00,M,SCT,M,M,M,5500.00,M,M,M,BR,KAMW 141040Z AUTO 11007KT 4SM BR SCT055 A3008 RMK MADISHF
AMW,2017-04-14 05:45,M,M,M,110.00,7.00,M,30.08,M,4.00,M,FEW,M,M,M,5500.00,M,M,M,BR,KAMW 141045Z AUTO 11007KT 4SM BR FEW055 A3008 RMK MADISHF
AMW,2017-04-14 05:50,M,M,M,110.00,8.00,M,30.08,M,4.00,M,FEW,M,M,M,5500.00,M,M,M,BR,KAMW 141050Z AUTO 11008KT 4SM BR FEW055 A3008 RMK MADISHF
AMW,2017-04-14 05:53,52.00,51.10,96.73,110.00,8.00,0.00,30.08,1018.00,4.00,M,FEW,M,M,M,5000.00,M,M,M,BR,KAMW 141053Z AUTO 11008KT 4SM BR FEW050 11/11 A3008 RMK AO2 SLP180 T01110106
AMW,2017-04-14 05:55,M,M,M,110.00,8.00,M,30.08,M,4.00,M,CLR,M,M,M,M,M,M,M,BR,KAMW 141055Z AUTO 11008KT 4SM BR CLR A3008 RMK MADISHF
AMW,2017-04-14 06:00,M,M,M,110.00,7.00,M,30.08,M,4.00,M,CLR,M,M,M,M,M,M,M,BR,KAMW 141100Z AUTO 11007KT 4SM BR CLR A3008 RMK MADISHF
AMW,2017-04-14 06:05,M,M,M,110.00,8.00,M,30.07,M,4.00,M,CLR,M,M,M,M,M,M,M,BR,KAMW 141105Z AUTO 11008KT 4SM BR CLR A3007 RMK MADISHF
AMW,2017-04-14 06:10,M,M,M,110.00,8.00,M,30.07,M,4.00,M,CLR,M,M,M,M,M,M,M,BR,KAMW 141110Z AUTO 11008KT 4SM BR CLR A3007 RMK MADISHF
AMW,2017-04-14 06:15,M,M,M,110.00,7.00,M,30.07,M,4.00,M,CLR,M,M,M,M,M,M,M,BR,KAMW 141115Z AUTO 11007KT 4SM BR CLR A3007 RMK MADISHF
AMW,2017-04-14 06:20,M,M,M,110.00,7.00,M,30.07,M,4.00,M,CLR,M,M,M,M,M,M,M,BR,KAMW 141120Z AUTO 11007KT 4SM BR CLR A3007 RMK MADISHF
AMW,2017-04-14 06:25,M,M,M,110.00,7.00,M,30.07,M,4.00,M,CLR,M,M,M,M,M,M,M,BR,KAMW 141125Z AUTO 11007KT 4SM BR CLR A3007 RMK MADISHF
AMW,2017-04-14 06:30,M,M,M,110.00,6.00,M,30.07,M,4.00,M,CLR,M,M,M,M,M,M,M,BR,KAMW 141130Z AUTO 11006KT 4SM BR CLR A3007 RMK MADISHF
AMW,2017-04-14 06:35,M,M,M,110.00,6.00,M,30.07,M,4.00,M,CLR,M,M,M,M,M,M,M,BR,KAMW 141135Z AUTO 11006KT 4SM BR CLR A3007 RMK MADISHF
AMW,2017-04-14 06:40,M,M,M,110.00,7.00,M,30.07,M,4.00,M,CLR,M,M,M,M,M,M,M,BR,KAMW 141140Z AUTO 11007KT 4SM BR CLR A3007 RMK MADISHF
AMW,2017-04-14 06:45,M,M,M,110.00,5.00,M,30.07,M,4.00,M,CLR,M,M,M,M,M,M,M,BR,KAMW 141145Z AUTO 11005KT 4SM BR CLR A3007 RMK MADISHF
AMW,2017-04-14 06:50,M,M,M,110.00,5.00,M,30.07,M,4.00,M,CLR,M,M,M,M,M,M,M,BR,KAMW 141150Z AUTO 11005KT 4SM BR CLR A3007 RMK MADISHF
AMW,2017-04-14 06:53,52.00,51.10,96.73,110.00,6.00,0.00,30.07,1018.00,4.00,M,CLR,M,M,M,M,M,M,M,BR,KAMW 141153Z AUTO 11006KT 4SM BR CLR 11/11 A3007 RMK AO2 SLP180 T01110106 10133 20111 56007
AMW,2017-04-14 06:55,M,M,M,110.00,7.00,M,30.07,M,4.00,M,CLR,M,M,M,M,M,M,M,BR,KAMW 141155Z AUTO 11007KT 4SM BR CLR A3007 RMK MADISHF
AMW,2017-04-14 07:00,M,M,M,110.00,6.00,M,30.07,M,3.00,M,CLR,M,M,M,M,M,M,M,BR,KAMW 141200Z AUTO 11006KT 3SM BR CLR A3007 RMK MADISHF
AMW,2017-04-14 07:05,M,M,M,110.00,7.00,M,30.07,M,3.00,M,CLR,M,M,M,M,M,M,M,BR,KAMW 141205Z AUTO 11007KT 3SM BR CLR A3007 RMK MADISHF
AMW,2017-04-14 07:10,M,M,M,110.00,7.00,M,30.07,M,3.00,M,CLR,M,M,M,M,M,M,M,BR,KAMW 141210Z AUTO 11007KT 3SM BR CLR A3007 RMK MADISHF
AMW,2017-04-14 07:15,M,M,M,110.00,8.00,M,30.07,M,3.00,M,FEW,M,M,M,6000.00,M,M,M,BR,KAMW 141215Z AUTO 11008KT 3SM BR FEW060 A3007 RMK MADISHF
AMW,2017-04-14 07:20,M,M,M,110.00,7.00,M,30.07,M,3.00,M,FEW,M,M,M,6000.00,M,M,M,BR,KAMW 141220Z AUTO 11007KT 3SM BR FEW060 A3007 RMK MADISHF
AMW,2017-04-14 07:25,M,M,M,110.00,7.00,M,30.07,M,3.00,M,CLR,M,M,M,M,M,M,M,BR,KAMW 141225Z AUTO 11007KT 3SM BR CLR A3007 RMK MADISHF
AMW,2017-04-14 07:30,M,M,M,110.00,8.00,M,30.07,M,3.00,M,FEW,M,M,M,6000.00,M,M,M,BR,KAMW 141230Z AUTO 11008KT 3SM BR FEW060 A3007 RMK MADISHF
AMW,2017-04-14 07:35,M,M,M,100.00,7.00,M,30.07,M,3.00,M,SCT,M,M,M,6000.00,M,M,M,BR,KAMW 141235Z AUTO 10007KT 3SM BR SCT060 A3007 RMK MADISHF
AMW,2017-04-14 07:40,M,M,M,110.00,6.00,M,30.07,M,3.00,M,FEW,M,M,M,6000.00,M,M,M,BR,KAMW 141240Z AUTO 11006KT 3SM BR FEW060 A3007 RMK MADISHF
AMW,2017-04-14 07:45,M,M,M,100.00,6.00,M,30.07,M,3.00,M,FEW,M,M,M,6000.00,M,M,M,BR,KAMW 141245Z AUTO 10006KT 3SM BR FEW060 A3007 RMK MADISHF
AMW,2017-04-14 07:50,M,M,M,110.00,7.00,M,30.07,M,3.00,M,FEW,M,M,M,6000.00,M,M,M,BR,KAMW 141250Z AUTO 11007KT 3SM BR FEW060 A3007 RMK MADISHF
AMW,2017-04-14 07:53,53.10,51.10,92.89,110.00,5.00,0.00,30.07,1017.90,3.00,M,FEW,M,M,M,6000.00,M,M,M,BR,KAMW 141253Z AUTO 11005KT 3SM BR FEW060 12/11 A3007 RMK AO2 SLP179 T01170106
AMW,2017-04-14 07:55,M,M,M,110.00,8.00,M,30.07,M,3.00,M,FEW,M,M,M,6000.00,M,M,M,BR,KAMW 141255Z AUTO 11008KT 3SM BR FEW060 A3007 RMK MADISHF
AMW,2017-04-14 08:00,M,M,M,130.00,9.00,M,30.08,M,3.00,M,FEW,M,M,M,6000.00,M,M,M,BR,KAMW 141300Z AUTO 13009KT 3SM BR FEW060 A3008 RMK MADISHF
AMW,2017-04-14 08:05,M,M,M,150.00,8.00,M,30.08,M,3.00,M,FEW,FEW,M,M,1200.00,6000.00,M,M,BR,KAMW 141305Z AUTO 15008KT 3SM BR FEW012 FEW060 A3008 RMK WND 12V20  MADISHF
AMW,2017-04-14 08:10,M,M,M,160.00,8.00,M,30.09,M,3.00,M,FEW,FEW,M,M,1200.00,6000.00,M,M,BR,KAMW 141310Z AUTO 16008KT 3SM BR FEW012 FEW060 A3009 RMK MADISHF
AMW,2017-04-14 08:15,M,M,M,140.00,7.00,M,30.08,M,3.00,M,FEW,M,M,M,6000.00,M,M,M,BR,KAMW 141315Z AUTO 14007KT 3SM BR FEW060 A3008 RMK MADISHF
AMW,2017-04-14 08:20,M,M,M,120.00,10.00,M,30.08,M,3.00,M,SCT,M,M,M,6000.00,M,M,M,BR,KAMW 141320Z AUTO 12010KT 3SM BR SCT060 A3008 RMK MADISHF
AMW,2017-04-14 08:25,M,M,M,130.00,6.00,M,30.08,M,3.00,M,FEW,M,M,M,6000.00,M,M,M,BR,KAMW 141325Z AUTO 13006KT 3SM BR FEW060 A3008 RMK MADISHF
AMW,2017-04-14 08:30,M,M,M,150.00,5.00,M,30.09,M,3.00,M,FEW,M,M,M,6000.00,M,M,M,BR,KAMW 141330Z AUTO 15005KT 3SM BR FEW060 A3009 RMK MADISHF
AMW,2017-04-14 08:35,M,M,M,140.00,7.00,M,30.08,M,3.00,M,FEW,M,M,M,6000.00,M,M,M,BR,KAMW 141335Z AUTO 14007KT 3SM BR FEW060 A3008 RMK MADISHF
AMW,2017-04-14 08:40,M,M,M,140.00,9.00,M,30.08,M,3.00,M,FEW,SCT,M,M,6000.00,10000.00,M,M,BR,KAMW 141340Z AUTO 14009KT 3SM BR FEW060 SCT100 A3008 RMK MADISHF
AMW,2017-04-14 08:45,M,M,M,130.00,9.00,M,30.08,M,3.50,M,FEW,SCT,M,M,6000.00,10000.00,M,M,BR,KAMW 141345Z AUTO 13009KT 3SM BR FEW060 SCT100 A3008 RMK MADISHF
AMW,2017-04-14 08:50,M,M,M,140.00,8.00,M,30.08,M,3.50,M,FEW,BKN,M,M,6000.00,10000.00,M,M,BR,KAMW 141350Z AUTO 14008KT 3SM BR FEW060 BKN100 A3008 RMK MADISHF
AMW,2017-04-14 08:53,54.00,52.00,92.92,140.00,7.00,0.00,30.08,1018.40,3.00,M,SCT,BKN,M,M,6000.00,10000.00,M,M,BR,KAMW 141353Z AUTO 14007KT 3SM BR SCT060 BKN100 12/11 A3008 RMK AO2 SLP184 T01220111
AMW,2017-04-14 08:55,M,M,M,150.00,7.00,M,30.08,M,3.50,M,SCT,BKN,M,M,6000.00,10000.00,M,M,BR,KAMW 141355Z AUTO 15007KT 3SM BR SCT060 BKN100 A3008 RMK MADISHF
AMW,2017-04-14 09:00,M,M,M,150.00,8.00,M,30.08,M,3.50,M,BKN,BKN,M,M,6000.00,10000.00,M,M,BR,KAMW 141400Z AUTO 15008KT 3SM BR BKN060 BKN100 A3008 RMK MADISHF
AMW,2017-04-14 09:05,M,M,M,130.00,5.00,M,30.08,M,3.00,M,BKN,BKN,OVC,M,6000.00,8500.00,10000.00,M,-RA BR,KAMW 141405Z AUTO 13005KT 3SM -RA BR BKN060 BKN085 OVC100 A3008 RMK MADISHF
AMW,2017-04-14 09:10,M,M,M,140.00,6.00,M,30.07,M,2.50,M,SCT,SCT,OVC,M,6000.00,7000.00,9500.00,M,-RA BR,KAMW 141410Z AUTO 14006KT 2 1/2SM -RA BR SCT060 SCT070 OVC095 A3007 RMK MADISHF
AMW,2017-04-14 09:15,M,M,M,150.00,3.00,M,30.07,M,3.00,M,SCT,OVC,M,M,6000.00,9500.00,M,M,-RA BR,KAMW 141415Z AUTO 15003KT 3SM -RA BR SCT060 OVC095 A3007 RMK MADISHF
AMW,2017-04-14 09:20,M,M,M,120.00,5.00,M,30.07,M,3.00,M,SCT,OVC,M,M,6000.00,9500.00,M,M,-RA BR,KAMW 141420Z AUTO 12005KT 3SM -RA BR SCT060 OVC095 A3007 RMK MADISHF
AMW,2017-04-14 09:25,M,M,M,110.00,7.00,M,30.07,M,3.50,M,FEW,BKN,OVC,M,6500.00,10000.00,11000.00,M,-RA BR,KAMW 141425Z AUTO 11007KT 3SM -RA BR FEW065 BKN100 OVC110 A3007 RMK MADISHF
AMW,2017-04-14 09:30,M,M,M,120.00,7.00,M,30.07,M,3.50,M,FEW,BKN,BKN,M,7000.00,9500.00,11000.00,M,BR,KAMW 141430Z AUTO 12007KT 3SM BR FEW070 BKN095 BKN110 A3007 RMK MADISHF
AMW,2017-04-14 09:35,M,M,M,130.00,8.00,M,30.07,M,3.50,M,SCT,BKN,M,M,10000.00,11000.00,M,M,BR,KAMW 141435Z AUTO 13008KT 3SM BR SCT100 BKN110 A3007 RMK MADISHF
AMW,2017-04-14 09:40,M,M,M,140.00,7.00,M,30.07,M,3.00,M,SCT,BKN,M,M,10000.00,12000.00,M,M,BR,KAMW 141440Z AUTO 14007KT 3SM BR SCT100 BKN120 A3007 RMK MADISHF
AMW,2017-04-14 09:45,M,M,M,140.00,10.00,M,30.06,M,3.00,M,SCT,M,M,M,11000.00,M,M,M,BR,KAMW 141445Z AUTO 14010KT 3SM BR SCT110 A3006 RMK MADISHF
AMW,2017-04-14 09:50,M,M,M,140.00,7.00,M,30.06,M,3.00,M,FEW,M,M,M,11000.00,M,M,M,BR,KAMW 141450Z AUTO 14007KT 3SM BR FEW110 A3006 RMK MADISHF
AMW,2017-04-14 09:53,55.90,54.00,93.32,130.00,8.00,0.00,30.06,1017.60,3.00,M,FEW,M,M,M,11000.00,M,M,M,BR,KAMW 141453Z AUTO 13008KT 3SM BR FEW110 13/12 A3006 RMK AO2 RAB05E28 SLP176 P0000 60000 T01330122 58004
AMW,2017-04-14 09:55,M,M,M,140.00,8.00,M,30.06,M,3.00,M,FEW,M,M,M,12000.00,M,M,M,BR,KAMW 141455Z AUTO 14008KT 3SM BR FEW120 A3006 RMK MADISHF
AMW,2017-04-14 10:00,M,M,M,140.00,10.00,M,30.06,M,3.50,M,FEW,M,M,M,12000.00,M,M,M,BR,KAMW 141500Z AUTO 14010KT 3SM BR FEW120 A3006 RMK MADISHF
AMW,2017-04-14 10:05,M,M,M,120.00,8.00,M,30.06,M,3.50,M,FEW,M,M,M,12000.00,M,M,M,BR,KAMW 141505Z AUTO 12008KT 3SM BR FEW120 A3006 RMK MADISHF
AMW,2017-04-14 10:10,M,M,M,130.00,11.00,M,30.06,M,4.00,M,CLR,M,M,M,M,M,M,M,BR,KAMW 141510Z AUTO 13011KT 4SM BR CLR A3006 RMK MADISHF
AMW,2017-04-14 10:15,M,M,M,130.00,8.00,M,30.06,M,4.00,M,FEW,M,M,M,6500.00,M,M,M,BR,KAMW 141515Z AUTO 13008KT 4SM BR FEW065 A3006 RMK MADISHF
AMW,2017-04-14 10:20,M,M,M,130.00,9.00,M,30.05,M,4.00,M,SCT,SCT,M,M,6500.00,12000.00,M,M,BR,KAMW 141520Z AUTO 13009KT 4SM BR SCT065 SCT120 A3005 RMK MADISHF
AMW,2017-04-14 10:25,M,M,M,140.00,7.00,M,30.06,M,4.00,M,SCT,BKN,M,M,6000.00,11000.00,M,M,BR,KAMW 141525Z AUTO 14007KT 4SM BR SCT060 BKN110 A3006 RMK MADISHF
AMW,2017-04-14 10:30,M,M,M,130.00,8.00,M,30.05,M,4.00,M,FEW,FEW,BKN,M,5500.00,7000.00,11000.00,M,BR,KAMW 141530Z AUTO 13008KT 4SM BR FEW055 FEW070 BKN110 A3005 RMK MADISHF
AMW,2017-04-14 10:35,M,M,M,130.00,9.00,M,30.06,M,4.00,M,FEW,SCT,BKN,M,5500.00,6500.00,11000.00,M,BR,KAMW 141535Z AUTO 13009KT 4SM BR FEW055 SCT065 BKN110 A3006 RMK MADISHF
AMW,2017-04-14 10:40,M,M,M,140.00,8.00,M,30.06,M,4.00,M,SCT,BKN,BKN,M,5000.00,6500.00,11000.00,M,BR,KAMW 141540Z AUTO 14008KT 4SM BR SCT050 BKN065 BKN110 A3006 RMK MADISHF
AMW,2017-04-14 10:45,M,M,M,130.00,10.00,M,30.05,M,4.00,M,BKN,BKN,M,M,5000.00,11000.00,M,M,BR,KAMW 141545Z AUTO 13010KT 4SM BR BKN050 BKN110 A3005 RMK MADISHF
AMW,2017-04-14 10:50,M,M,M,130.00,8.00,M,30.05,M,4.00,M,BKN,BKN,M,M,5000.00,11000.00,M,M,BR,KAMW 141550Z AUTO 13008KT 4SM BR BKN050 BKN110 A3005 RMK MADISHF
AMW,2017-04-14 10:53,59.00,55.90,89.44,130.00,8.00,0.00,30.05,1017.20,4.00,M,BKN,BKN,BKN,M,5000.00,6000.00,11000.00,M,BR,KAMW 141553Z AUTO 13008KT 4SM BR BKN050 BKN060 BKN110 15/13 A3005 RMK AO2 SLP172 T01500133
AMW,2017-04-14 10:55,M,M,M,130.00,8.00,M,30.05,M,5.00,M,BKN,BKN,M,M,5500.00,11000.00,M,M,BR,KAMW 141555Z AUTO 13008KT 5SM BR BKN055 BKN110 A3005 RMK MADISHF
AMW,2017-04-14 11:00,M,M,M,130.00,8.00,M,30.05,M,5.00,M,BKN,M,M,M,5500.00,M,M,M,BR,KAMW 141600Z AUTO 13008KT 5SM BR BKN055 A3005 RMK MADISHF
AMW,2017-04-14 11:05,M,M,M,130.00,9.00,M,30.04,M,5.00,M,BKN,OVC,M,M,5500.00,7500.00,M,M,BR,KAMW 141605Z AUTO 13009KT 5SM BR BKN055 OVC075 A3004 RMK MADISHF
AMW,2017-04-14 11:10,M,M,M,110.00,9.00,M,30.04,M,5.00,M,FEW,OVC,M,M,5000.00,6000.00,M,M,HZ,KAMW 141610Z AUTO 11009KT 5SM HZ FEW050 OVC060 A3004 RMK MADISHF
AMW,2017-04-14 11:15,M,M,M,110.00,8.00,M,30.04,M,5.00,M,OVC,M,M,M,5500.00,M,M,M,HZ,KAMW 141615Z AUTO 11008KT 5SM HZ OVC055 A3004 RMK MADISHF
AMW,2017-04-14 11:20,M,M,M,120.00,10.00,M,30.04,M,5.00,M,OVC,M,M,M,6000.00,M,M,M,HZ,KAMW 141620Z AUTO 12010KT 5SM HZ OVC060 A3004 RMK MADISHF
AMW,2017-04-14 11:25,M,M,M,110.00,9.00,0.01,30.04,M,4.00,M,OVC,M,M,M,6000.00,M,M,M,-RA BR,KAMW 141625Z AUTO 11009KT 4SM -RA BR OVC060 A3004 RMK P0001 MADISHF
AMW,2017-04-14 11:30,M,M,M,110.00,10.00,0.01,30.03,M,4.00,M,BKN,OVC,M,M,6000.00,7500.00,M,M,-RA BR,KAMW 141630Z AUTO 11010KT 4SM -RA BR BKN060 OVC075 A3003 RMK P0001 MADISHF
AMW,2017-04-14 11:35,M,M,M,110.00,11.00,0.01,30.02,M,4.00,17.00,BKN,BKN,OVC,M,6000.00,7000.00,9000.00,M,-RA BR,KAMW 141635Z AUTO 11011G17KT 4SM -RA BR BKN060 BKN070 OVC090 A3002 RMK P0001 MADISHF
AMW,2017-04-14 11:40,M,M,M,110.00,10.00,0.01,30.02,M,4.00,M,SCT,BKN,OVC,M,6000.00,7500.00,9500.00,M,-RA BR,KAMW 141640Z AUTO 11010KT 4SM -RA BR SCT060 BKN075 OVC095 A3002 RMK P0001  LTG DSNT E! MADISHF
AMW,2017-04-14 11:45,M,M,M,110.00,10.00,0.01,30.02,M,5.00,M,SCT,SCT,OVC,M,6000.00,7000.00,10000.00,M,-RA BR,KAMW 141645Z AUTO 11010KT 5SM -RA BR SCT060 SCT070 OVC100 A3002 RMK P0001  LTG DSNT E! MADISHF
AMW,2017-04-14 11:50,M,M,M,110.00,9.00,0.01,30.02,M,5.00,M,FEW,BKN,OVC,M,5000.00,9000.00,11000.00,M,BR,KAMW 141650Z AUTO 11009KT 5SM BR FEW050 BKN090 OVC110 A3002 RMK P0001  LTG DSNT E! MADISHF
AMW,2017-04-14 11:53,62.10,57.00,83.36,110.00,9.00,0.01,30.01,1016.00,5.00,M,FEW,BKN,BKN,M,5000.00,9000.00,11000.00,M,HZ,KAMW 141653Z AUTO 11009KT 5SM HZ FEW050 BKN090 BKN110 17/14 A3001 RMK AO2 LTG DSNT E RAB25E46 SLP160 P0001 T01670139
AMW,2017-04-14 11:55,M,M,M,120.00,9.00,M,30.01,M,5.00,M,FEW,BKN,M,M,7999.00,10000.00,M,M,BR,KAMW 141655Z AUTO 12009KT 5SM BR FEW079 BKN100 A3001 RMK MADISHF
AMW,2017-04-14 12:00,M,M,M,120.00,10.00,M,30.01,M,5.00,M,SCT,BKN,M,M,9500.00,12000.00,M,M,HZ,KAMW 141700Z AUTO 12010KT 5SM HZ SCT095 BKN120 A3001 RMK MADISHF
AMW,2017-04-14 12:05,M,M,M,130.00,10.00,M,30.01,M,6.00,M,FEW,BKN,M,M,9500.00,11000.00,M,M,HZ,KAMW 141705Z AUTO 13010KT 6SM HZ FEW095 BKN110 A3001 RMK MADISHF
AMW,2017-04-14 12:10,M,M,M,130.00,11.00,M,30.01,M,6.00,M,BKN,M,M,M,11000.00,M,M,M,HZ,KAMW 141710Z AUTO 13011KT 6SM HZ BKN110 A3001 RMK MADISHF
AMW,2017-04-14 12:15,M,M,M,130.00,12.00,M,30.01,M,6.00,M,BKN,M,M,M,10000.00,M,M,M,HZ,KAMW 141715Z AUTO 13012KT 6SM HZ BKN100 A3001 RMK MADISHF
AMW,2017-04-14 12:20,M,M,M,130.00,11.00,M,30.01,M,6.00,M,FEW,BKN,BKN,M,7999.00,10000.00,12000.00,M,HZ,KAMW 141720Z AUTO 13011KT 6SM HZ FEW079 BKN100 BKN120 A3001 RMK MADISHF
AMW,2017-04-14 12:25,M,M,M,120.00,11.00,M,30.01,M,6.00,M,SCT,BKN,OVC,M,7999.00,9000.00,11000.00,M,HZ,KAMW 141725Z AUTO 12011KT 6SM HZ SCT079 BKN090 OVC110 A3001 RMK MADISHF
AMW,2017-04-14 12:30,M,M,M,130.00,12.00,M,30.00,M,6.00,M,BKN,BKN,OVC,M,7999.00,9000.00,11000.00,M,HZ,KAMW 141730Z AUTO 13012KT 6SM HZ BKN079 BKN090 OVC110 A3000 RMK MADISHF
AMW,2017-04-14 12:35,M,M,M,120.00,10.00,M,30.00,M,6.00,M,BKN,OVC,M,M,7500.00,10000.00,M,M,HZ,KAMW 141735Z AUTO 12010KT 6SM HZ BKN075 OVC100 A3000 RMK MADISHF
AMW,2017-04-14 12:40,M,M,M,130.00,11.00,M,30.00,M,6.00,M,BKN,OVC,M,M,7000.00,9500.00,M,M,HZ,KAMW 141740Z AUTO 13011KT 6SM HZ BKN070 OVC095 A3000 RMK MADISHF
AMW,2017-04-14 12:45,M,M,M,120.00,10.00,M,30.00,M,6.00,M,OVC,M,M,M,7000.00,M,M,M,HZ,KAMW 141745Z AUTO 12010KT 6SM HZ OVC070 A3000 RMK MADISHF
AMW,2017-04-14 12:50,M,M,M,130.00,12.00,M,29.99,M,6.00,M,OVC,M,M,M,7000.00,M,M,M,HZ,KAMW 141750Z AUTO 13012KT 6SM HZ OVC070 A2999 RMK MADISHF
AMW,2017-04-14 12:53,63.00,57.90,83.42,120.00,12.00,0.00,29.99,1015.30,6.00,M,OVC,M,M,M,7000.00,M,M,M,HZ,KAMW 141753Z AUTO 12012KT 6SM HZ OVC070 17/14 A2999 RMK AO2 SLP153 60001 T01720144 10178 20111 58022
AMW,2017-04-14 12:55,M,M,M,130.00,13.00,M,29.99,M,6.00,M,OVC,M,M,M,7000.00,M,M,M,HZ,KAMW 141755Z AUTO 13013KT 6SM HZ OVC070 A2999 RMK MADISHF
AMW,2017-04-14 13:00,M,M,M,130.00,14.00,M,29.99,M,7.00,M,OVC,M,M,M,7000.00,M,M,M,M,KAMW 141800Z AUTO 13014KT 7SM OVC070 A2999 RMK MADISHF
AMW,2017-04-14 13:05,M,M,M,130.00,13.00,M,29.99,M,7.00,18.00,OVC,M,M,M,7000.00,M,M,M,M,KAMW 141805Z AUTO 13013G18KT 7SM OVC070 A2999 RMK MADISHF
AMW,2017-04-14 13:10,M,M,M,130.00,10.00,M,29.98,M,7.00,M,FEW,OVC,M,M,4900.00,7000.00,M,M,M,KAMW 141810Z AUTO 13010KT 7SM FEW049 OVC070 A2998 RMK MADISHF
AMW,2017-04-14 13:15,M,M,M,130.00,12.00,M,29.98,M,7.00,M,FEW,BKN,OVC,M,4900.00,7500.00,9000.00,M,M,KAMW 141815Z AUTO 13012KT 7SM FEW049 BKN075 OVC090 A2998 RMK MADISHF
AMW,2017-04-14 13:20,M,M,M,130.00,13.00,M,29.97,M,7.00,M,FEW,BKN,BKN,M,4900.00,7000.00,10000.00,M,M,KAMW 141820Z AUTO 13013KT 7SM FEW049 BKN070 BKN100 A2997 RMK MADISHF
AMW,2017-04-14 13:25,M,M,M,140.00,14.00,M,29.97,M,8.00,M,FEW,SCT,BKN,M,4900.00,7500.00,10000.00,M,M,KAMW 141825Z AUTO 14014KT 8SM FEW049 SCT075 BKN100 A2997 RMK MADISHF
AMW,2017-04-14 13:30,M,M,M,130.00,14.00,M,29.97,M,9.00,M,FEW,SCT,SCT,M,4900.00,7500.00,10000.00,M,M,KAMW 141830Z AUTO 13014KT 9SM FEW049 SCT075 SCT100 A2997 RMK MADISHF
AMW,2017-04-14 13:35,M,M,M,150.00,13.00,M,29.96,M,9.00,M,FEW,FEW,SCT,M,4900.00,7500.00,10000.00,M,M,KAMW 141835Z AUTO 15013KT 9SM FEW049 FEW075 SCT100 A2996 RMK MADISHF
AMW,2017-04-14 13:40,M,M,M,140.00,15.00,M,29.96,M,9.00,M,FEW,FEW,M,M,4700.00,10000.00,M,M,M,KAMW 141840Z AUTO 14015KT 9SM FEW047 FEW100 A2996 RMK MADISHF
AMW,2017-04-14 13:45,M,M,M,150.00,15.00,M,29.96,M,9.00,M,FEW,M,M,M,4500.00,M,M,M,M,KAMW 141845Z AUTO 15015KT 9SM FEW045 A2996 RMK MADISHF
AMW,2017-04-14 13:50,M,M,M,160.00,14.00,M,29.96,M,9.00,M,FEW,SCT,M,M,3600.00,4500.00,M,M,M,KAMW 141850Z AUTO 16014KT 9SM FEW036 SCT045 A2996 RMK MADISHF
AMW,2017-04-14 13:53,69.10,59.00,70.21,150.00,15.00,0.00,29.96,1013.90,10.00,22.00,SCT,BKN,M,M,3600.00,4500.00,M,M,M,KAMW 141853Z AUTO 15015G22KT 10SM SCT036 BKN045 21/15 A2996 RMK AO2 SLP139 T02060150
AMW,2017-04-14 13:55,M,M,M,160.00,16.00,M,29.96,M,10.00,M,SCT,BKN,M,M,3399.00,4500.00,M,M,M,KAMW 141855Z AUTO 16016KT 10SM SCT033 BKN045 A2996 RMK MADISHF
AMW,2017-04-14 14:00,M,M,M,150.00,18.00,M,29.96,M,10.00,M,SCT,BKN,BKN,M,3200.00,4500.00,5500.00,M,M,KAMW 141900Z AUTO 15018KT 10SM SCT032 BKN045 BKN055 A2996 RMK MADISHF
AMW,2017-04-14 14:05,M,M,M,160.00,17.00,M,29.95,M,10.00,M,SCT,BKN,OVC,M,3200.00,4500.00,5500.00,M,M,KAMW 141905Z AUTO 16017KT 10SM SCT032 BKN045 OVC055 A2995 RMK MADISHF
AMW,2017-04-14 14:10,M,M,M,150.00,15.00,M,29.95,M,10.00,20.00,SCT,BKN,OVC,M,3500.00,4600.00,5500.00,M,M,KAMW 141910Z AUTO 15015G20KT 10SM SCT035 BKN046 OVC055 A2995 RMK MADISHF
AMW,2017-04-14 14:15,M,M,M,160.00,16.00,M,29.95,M,10.00,M,BKN,OVC,M,M,3500.00,4600.00,M,M,M,KAMW 141915Z AUTO 16016KT 10SM BKN035 OVC046 A2995 RMK MADISHF
AMW,2017-04-14 14:20,M,M,M,M,M,M,29.95,M,10.00,M,BKN,BKN,OVC,M,3300.00,4400.00,5500.00,M,M,KAMW 141920Z AUTO /////KT 10SM BKN033 BKN044 OVC055 A2995 RMK MADISHF
AMW,2017-04-14 14:25,M,M,M,M,M,M,29.95,M,10.00,M,BKN,BKN,OVC,M,3300.00,4400.00,5500.00,M,M,KAMW 141925Z AUTO /////KT 10SM BKN033 BKN044 OVC055 A2995 RMK MADISHF
AMW,2017-04-14 14:30,M,M,M,160.00,14.00,M,29.95,M,10.00,19.00,BKN,BKN,OVC,M,3300.00,4400.00,10000.00,M,M,KAMW 141930Z AUTO 16014G19KT 10SM BKN033 BKN044 OVC100 A2995 RMK MADISHF
AMW,2017-04-14 14:35,M,M,M,170.00,16.00,M,29.95,M,10.00,M,SCT,BKN,OVC,M,3300.00,4700.00,10000.00,M,M,KAMW 141935Z AUTO 17016KT 10SM SCT033 BKN047 OVC100 A2995 RMK MADISHF
AMW,2017-04-14 14:40,M,M,M,160.00,17.00,M,29.94,M,10.00,M,SCT,SCT,OVC,M,3300.00,4700.00,10000.00,M,M,KAMW 141940Z AUTO 16017KT 10SM SCT033 SCT047 OVC100 A2994 RMK MADISHF
AMW,2017-04-14 14:45,M,M,M,160.00,13.00,M,29.94,M,10.00,M,FEW,SCT,OVC,M,3300.00,4900.00,10000.00,M,M,KAMW 141945Z AUTO 16013KT 10SM FEW033 SCT049 OVC100 A2994 RMK MADISHF
AMW,2017-04-14 14:50,M,M,M,170.00,17.00,M,29.95,M,10.00,M,SCT,BKN,OVC,M,3500.00,7500.00,10000.00,M,-RA,KAMW 141950Z AUTO 17017KT 10SM -RA SCT035 BKN075 OVC100 A2995 RMK MADISHF
AMW,2017-04-14 14:53,68.00,59.00,72.92,170.00,16.00,0.00,29.95,1013.60,10.00,24.00,SCT,BKN,OVC,M,3500.00,7500.00,10000.00,M,-RA,KAMW 141953Z AUTO 17016G24KT 10SM -RA SCT035 BKN075 OVC100 20/15 A2995 RMK AO2 RAB47 SLP136 P0000 T02000150
AMW,2017-04-14 14:55,M,M,M,170.00,16.00,M,29.95,M,10.00,M,FEW,BKN,OVC,M,3200.00,4800.00,10000.00,M,-RA,KAMW 141955Z AUTO 17016KT 10SM -RA FEW032 BKN048 OVC100 A2995 RMK MADISHF
AMW,2017-04-14 15:00,M,M,M,160.00,15.00,M,29.94,M,10.00,M,BKN,BKN,OVC,M,3600.00,4800.00,10000.00,M,-RA,KAMW 142000Z AUTO 16015KT 10SM -RA BKN036 BKN048 OVC100 A2994 RMK MADISHF
AMW,2017-04-14 15:05,M,M,M,M,M,M,29.94,M,10.00,M,SCT,BKN,OVC,M,3100.00,3800.00,10000.00,M,-RA,KAMW 142005Z AUTO /////KT 10SM -RA SCT031 BKN038 OVC100 A2994 RMK MADISHF
AMW,2017-04-14 15:10,M,M,M,M,M,0.02,29.94,M,6.00,M,SCT,BKN,OVC,M,3100.00,4200.00,7500.00,M,-RA,KAMW 142010Z AUTO /////KT 6SM -RA SCT031 BKN042 OVC075 A2994 RMK P0002 MADISHF
AMW,2017-04-14 15:15,M,M,M,180.00,13.00,0.02,29.94,M,6.00,M,SCT,BKN,OVC,M,3100.00,3900.00,7999.00,M,-RA BR,KAMW 142015Z AUTO 18013KT 6SM -RA BR SCT031 BKN039 OVC079 A2994 RMK P0002 MADISHF
AMW,2017-04-14 15:20,M,M,M,180.00,11.00,0.02,29.93,M,8.00,M,FEW,BKN,OVC,M,3100.00,4100.00,8500.00,M,-RA,KAMW 142020Z AUTO 18011KT 8SM -RA FEW031 BKN041 OVC085 A2993 RMK P0002  LTG DSNT SW! MADISHF
AMW,2017-04-14 15:25,M,M,M,180.00,13.00,0.03,29.93,M,6.00,M,SCT,BKN,OVC,M,3500.00,7500.00,9000.00,M,-RA,KAMW 142025Z AUTO 18013KT 6SM -RA SCT035 BKN075 OVC090 A2993 RMK P0003  LTG DSNT SW! MADISHF
AMW,2017-04-14 15:30,M,M,M,190.00,12.00,0.05,29.94,M,4.00,M,FEW,BKN,OVC,M,3300.00,7000.00,9000.00,M,RA BR,KAMW 142030Z AUTO 19012KT 4SM RA BR FEW033 BKN070 OVC090 A2994 RMK P0005  LTG DSNT SW! MADISHF
AMW,2017-04-14 15:35,M,M,M,200.00,10.00,0.06,29.95,M,4.00,M,SCT,BKN,OVC,M,3500.00,6000.00,8500.00,M,RA BR,KAMW 142035Z AUTO 20010KT 4SM RA BR SCT035 BKN060 OVC085 A2995 RMK P0006  LTG DSNT SW! MADISHF
AMW,2017-04-14 15:40,M,M,M,210.00,9.00,0.10,29.95,M,3.00,M,FEW,BKN,OVC,M,2600.00,3900.00,9000.00,M,RA BR,KAMW 142040Z AUTO 21009KT 3SM RA BR FEW026 BKN039 OVC090 A2995 RMK P0010  LTG DSNT SW! MADISHF
AMW,2017-04-14 15:45,M,M,M,220.00,11.00,0.14,29.95,M,2.00,M,SCT,BKN,OVC,M,2800.00,4100.00,9000.00,M,+RA BR,KAMW 142045Z AUTO 22011KT 2SM +RA BR SCT028 BKN041 OVC090 A2995 RMK P0014  LTG DSNT S AND SW! MADISHF
AMW,2017-04-14 15:46,64.00,62.10,93.54,220.00,12.00,0.16,29.95,M,1.75,M,SCT,BKN,OVC,M,2800.00,3700.00,9000.00,M,+RA BR,KAMW 142046Z AUTO 22012KT 1 3/4SM +RA BR SCT028 BKN037 OVC090 18/17 A2995 RMK AO2 LTG DSNT S AND SW P0016 T01780167
AMW,2017-04-14 15:50,M,M,M,M,M,0.19,29.95,M,1.50,M,SCT,BKN,OVC,M,2500.00,3399.00,7999.00,M,+RA BR,KAMW 142050Z AUTO /////KT 1 1/2SM +RA BR SCT025 BKN033 OVC079 A2995 RMK P0019  LTG DSNT S AND SW! MADISHF
AMW,2017-04-14 15:53,63.00,62.10,96.88,230.00,13.00,0.22,29.95,1013.90,1.50,M,SCT,BKN,OVC,M,2500.00,3400.00,4600.00,M,+RA BR,KAMW 142053Z AUTO 23013KT 1 1/2SM +RA BR SCT025 BKN034 OVC046 17/17 A2995 RMK AO2 LTG DSNT S AND SW SLP139 P0022 60022 T01720167 55013
AMW,2017-04-14 15:55,M,M,M,210.00,12.00,0.03,29.95,M,1.25,M,SCT,BKN,OVC,M,2500.00,3100.00,5000.00,M,+RA BR,KAMW 142055Z AUTO 21012KT 1 1/2SM +RA BR SCT025 BKN031 OVC050 A2995 RMK P0003  LTG DSNT S AND SW! MADISHF
AMW,2017-04-14 16:00,M,M,M,210.00,12.00,0.07,29.95,M,1.25,M,SCT,BKN,OVC,M,2500.00,3300.00,4300.00,M,+RA BR,KAMW 142100Z AUTO 21012KT 1 1/2SM +RA BR SCT025 BKN033 OVC043 A2995 RMK P0007  LTG DSNT SW! MADISHF
AMW,2017-04-14 16:05,M,M,M,210.00,12.00,0.10,29.94,M,1.50,M,FEW,SCT,OVC,M,2300.00,3300.00,5000.00,M,+RA BR,KAMW 142105Z AUTO 21012KT 1 1/2SM +RA BR FEW023 SCT033 OVC050 A2994 RMK P0010  LTG DSNT SW! MADISHF
AMW,2017-04-14 16:10,M,M,M,220.00,14.00,0.15,29.95,M,1.50,M,FEW,FEW,OVC,M,2300.00,3100.00,5000.00,M,+RA BR,KAMW 142110Z AUTO 22014KT 1 1/2SM +RA BR FEW023 FEW031 OVC050 A2995 RMK P0015  LTG DSNT SW! MADISHF
AMW,2017-04-14 16:15,M,M,M,220.00,13.00,0.17,29.95,M,1.75,M,FEW,BKN,OVC,M,2400.00,5500.00,7000.00,M,RA BR,KAMW 142115Z AUTO 22013KT 2SM RA BR FEW024 BKN055 OVC070 A2995 RMK P0017  LTG DSNT S AND SW! MADISHF
AMW,2017-04-14 16:18,62.10,62.10,100.00,220.00,12.00,0.18,29.95,M,1.75,M,FEW,BKN,OVC,M,2400.00,5000.00,7000.00,M,VCTS RA BR,KAMW 142118Z AUTO 22012KT 1 3/4SM VCTS RA BR FEW024 BKN050 OVC070 17/17 A2995 RMK AO2 LTG DSNT S AND SW P0018 T01670167
AMW,2017-04-14 16:20,M,M,M,210.00,10.00,0.21,29.94,M,1.75,M,FEW,BKN,OVC,M,2600.00,5000.00,7000.00,M,RA BR,KAMW 142120Z AUTO 21010KT 2SM RA BR FEW026 BKN050 OVC070 A2994 RMK P0021  LTG DSNT S AND SW! MADISHF
AMW,2017-04-14 16:25,M,M,M,180.00,11.00,0.23,29.93,M,1.75,M,BKN,OVC,M,M,5500.00,7000.00,M,M,RA BR,KAMW 142125Z AUTO 18011KT 2SM RA BR BKN055 OVC070 A2993 RMK P0023  LTG DSNT S AND SW! MADISHF
AMW,2017-04-14 16:30,M,M,M,150.00,12.00,0.26,29.90,M,1.75,M,BKN,BKN,OVC,M,5000.00,6500.00,7999.00,M,RA BR,KAMW 142130Z AUTO 15012KT 2SM RA BR BKN050 BKN065 OVC079 A2990 RMK P0026  LTG DSNT S AND SW! MADISHF
AMW,2017-04-14 16:33,62.10,62.10,100.00,150.00,14.00,0.27,29.88,M,1.75,M,BKN,BKN,OVC,M,5000.00,7000.00,8500.00,M,+RA BR,KAMW 142133Z AUTO 15014KT 1 3/4SM +RA BR BKN050 BKN070 OVC085 17/17 A2988 RMK AO2 LTG DSNT SE-SW PRESFR P0027 T01670167
AMW,2017-04-14 16:35,M,M,M,150.00,15.00,0.27,29.88,M,1.75,M,BKN,BKN,OVC,M,5000.00,7000.00,9000.00,M,RA BR,KAMW 142135Z AUTO 15015KT 2SM RA BR BKN050 BKN070 OVC090 A2988 RMK P0027  LTG DSNT SE-W! MADISHF
AMW,2017-04-14 16:37,62.10,62.10,100.00,150.00,16.00,0.27,29.88,M,2.00,M,SCT,BKN,OVC,M,5000.00,7000.00,9000.00,M,VCTS RA BR,KAMW 142137Z AUTO 15016KT 2SM VCTS RA BR SCT050 BKN070 OVC090 17/17 A2988 RMK AO2 LTG DSNT SE-W PRESFR P0027 T01670167
AMW,2017-04-14 16:40,62.10,62.10,100.00,140.00,15.00,0.28,29.88,M,3.00,M,SCT,BKN,OVC,M,5000.00,9000.00,11000.00,M,VCTS -RA BR,KAMW 142140Z AUTO 14015KT 3SM VCTS -RA BR SCT050 BKN090 OVC110 17/17 A2988 RMK AO2 WSHFT 2124 LTG DSNT SE-W P0028 T01670167
AMW,2017-04-14 16:45,M,M,M,150.00,14.00,0.28,29.89,M,5.00,M,FEW,BKN,OVC,M,5000.00,9000.00,11000.00,M,-RA BR,KAMW 142145Z AUTO 15014KT 5SM -RA BR FEW050 BKN090 OVC110 A2989 RMK P0028  LTG DSNT SE-W! MADISHF
AMW,2017-04-14 16:50,M,M,M,140.00,12.00,0.28,29.89,M,6.00,M,FEW,SCT,BKN,M,4700.00,8500.00,11000.00,M,-RA BR,KAMW 142150Z AUTO 14012KT 6SM -RA BR FEW047 SCT085 BKN110 A2989 RMK P0028  LTG DSNT SE-W! MADISHF
AMW,2017-04-14 16:53,62.10,62.10,100.00,150.00,12.00,0.28,29.90,1012.10,7.00,M,FEW,BKN,BKN,M,5000.00,10000.00,12000.00,M,-RA,KAMW 142153Z AUTO 15012KT 7SM -RA FEW050 BKN100 BKN120 17/17 A2990 RMK AO2 WSHFT 2124 LTG DSNT SE-W SLP121 P0028 T01670167
AMW,2017-04-14 16:55,M,M,M,160.00,12.00,M,29.90,M,6.00,M,FEW,SCT,BKN,M,4600.00,9500.00,11000.00,M,-RA BR,KAMW 142155Z AUTO 16012KT 6SM -RA BR FEW046 SCT095 BKN110 A2990 RMK  LTG DSNT SE-W! MADISHF
AMW,2017-04-14 17:00,M,M,M,170.00,9.00,M,29.91,M,6.00,M,FEW,SCT,BKN,M,2100.00,9000.00,11000.00,M,BR,KAMW 142200Z AUTO 17009KT 6SM BR FEW021 SCT090 BKN110 A2991 RMK  LTG DSNT ALQDS! MADISHF
AMW,2017-04-14 17:05,M,M,M,180.00,9.00,M,29.91,M,5.00,M,FEW,SCT,BKN,M,1100.00,1800.00,11000.00,M,BR,KAMW 142205Z AUTO 18009KT 5SM BR FEW011 SCT018 BKN110 A2991 RMK  LTG DSNT ALQDS! MADISHF
AMW,2017-04-14 17:10,M,M,M,160.00,9.00,M,29.90,M,4.00,M,FEW,BKN,BKN,M,800.00,1800.00,11000.00,M,-RA BR,KAMW 142210Z AUTO 16009KT 4SM -RA BR FEW008 BKN018 BKN110 A2990 RMK  LTG DSNT ALQDS! MADISHF
AMW,2017-04-14 17:12,62.10,62.10,100.00,150.00,7.00,0.00,29.90,M,4.00,M,FEW,BKN,BKN,M,800.00,1800.00,7500.00,M,-RA BR,KAMW 142212Z AUTO 15007KT 4SM -RA BR FEW008 BKN018 BKN075 17/17 A2990 RMK AO2 LTG DSNT E AND SE AND NW P0000 T01670167
AMW,2017-04-14 17:15,M,M,M,150.00,7.00,M,29.90,M,3.50,M,SCT,BKN,BKN,M,800.00,1699.00,7000.00,M,-RA BR,KAMW 142215Z AUTO 15007KT 3SM -RA BR SCT008 BKN016 BKN070 A2990 RMK  LTG DSNT E AND SE AND NW! MADISHF
AMW,2017-04-14 17:20,M,M,M,160.00,9.00,M,29.91,M,5.00,M,SCT,BKN,BKN,M,1300.00,5500.00,7000.00,M,-RA BR,KAMW 142220Z AUTO 16009KT 5SM -RA BR SCT013 BKN055 BKN070 A2991 RMK  LTG DSNT E AND SE AND NW! MADISHF
AMW,2017-04-14 17:24,62.10,62.10,100.00,170.00,8.00,0.00,29.90,M,6.00,M,SCT,BKN,OVC,M,1300.00,4800.00,6000.00,M,-RA BR,KAMW 142224Z AUTO 17008KT 6SM -RA BR SCT013 BKN048 OVC060 17/17 A2990 RMK AO2 LTG DSNT ALQDS P0000 T01670167
AMW,2017-04-14 17:25,M,M,M,170.00,8.00,M,29.91,M,7.00,M,FEW,BKN,OVC,M,800.00,4800.00,6000.00,M,M,KAMW 142225Z AUTO 17008KT 7SM FEW008 BKN048 OVC060 A2991 RMK  LTG DSNT ALQDS! MADISHF
AMW,2017-04-14 17:30,M,M,M,170.00,6.00,0.01,29.90,M,7.00,M,SCT,BKN,OVC,M,1100.00,4300.00,6000.00,M,M,KAMW 142230Z AUTO 17006KT 7SM SCT011 BKN043 OVC060 A2990 RMK P0001  LTG DSNT ALQDS! MADISHF
AMW,2017-04-14 17:35,M,M,M,150.00,6.00,0.01,29.90,M,6.00,M,FEW,BKN,OVC,M,1100.00,3999.00,6000.00,M,BR,KAMW 142235Z AUTO 15006KT 6SM BR FEW011 BKN039 OVC060 A2990 RMK P0001  LTG DSNT ALQDS! MADISHF
AMW,2017-04-14 17:40,M,M,M,140.00,8.00,0.01,29.89,M,4.00,M,BKN,BKN,OVC,M,3800.00,4800.00,6000.00,M,BR,KAMW 142240Z AUTO 14008KT 4SM BR BKN038 BKN048 OVC060 A2989 RMK P0001  LTG DSNT ALQDS! MADISHF
AMW,2017-04-14 17:45,M,M,M,140.00,9.00,0.01,29.89,M,4.00,M,BKN,OVC,M,M,3399.00,4800.00,M,M,BR,KAMW 142245Z AUTO 14009KT 4SM BR BKN033 OVC048 A2989 RMK P0001  LTG DSNT NW-E! MADISHF
AMW,2017-04-14 17:50,M,M,M,140.00,7.00,0.01,29.89,M,4.00,M,SCT,BKN,OVC,M,2900.00,3600.00,4800.00,M,BR,KAMW 142250Z AUTO 14007KT 4SM BR SCT029 BKN036 OVC048 A2989 RMK P0001  LTG DSNT N! MADISHF
AMW,2017-04-14 17:53,63.00,63.00,100.00,140.00,8.00,0.01,29.88,1011.60,5.00,M,BKN,OVC,M,M,2900.00,3800.00,M,M,BR,KAMW 142253Z AUTO 14008KT 5SM BR BKN029 OVC038 17/17 A2988 RMK AO2 LTG DSNT N AND NW RAE25 SLP116 P0001 T01720172
AMW,2017-04-14 17:55,M,M,M,130.00,7.00,M,29.88,M,5.00,M,BKN,OVC,M,M,2900.00,3999.00,M,M,BR,KAMW 142255Z AUTO 13007KT 5SM BR BKN029 OVC039 A2988 RMK  LTG DSNT N AND NW! MADISHF
AMW,2017-04-14 18:00,M,M,M,130.00,10.00,M,29.88,M,6.00,M,BKN,OVC,M,M,2800.00,3600.00,M,M,BR,KAMW 142300Z AUTO 13010KT 6SM BR BKN028 OVC036 A2988 RMK  LTG DSNT N AND NW! MADISHF
AMW,2017-04-14 18:05,M,M,M,140.00,9.00,M,29.88,M,7.00,M,BKN,OVC,M,M,3000.00,3600.00,M,M,M,KAMW 142305Z AUTO 14009KT 7SM BKN030 OVC036 A2988 RMK  LTG DSNT N AND NW! MADISHF
AMW,2017-04-14 18:10,M,M,M,150.00,10.00,M,29.88,M,8.00,M,BKN,OVC,M,M,2800.00,3600.00,M,M,M,KAMW 142310Z AUTO 15010KT 8SM BKN028 OVC036 A2988 RMK  LTG DSNT N! MADISHF
AMW,2017-04-14 18:15,M,M,M,140.00,7.00,M,29.88,M,8.00,M,BKN,OVC,M,M,2800.00,3600.00,M,M,M,KAMW 142315Z AUTO 14007KT 8SM BKN028 OVC036 A2988 RMK  LTG DSNT N! MADISHF
AMW,2017-04-14 18:20,M,M,M,150.00,7.00,M,29.88,M,9.00,M,SCT,OVC,M,M,2800.00,3600.00,M,M,M,KAMW 142320Z AUTO 15007KT 9SM SCT028 OVC036 A2988 RMK  LTG DSNT N! MADISHF
AMW,2017-04-14 18:24,63.00,63.00,100.00,150.00,8.00,0.00,29.88,M,9.00,M,FEW,BKN,OVC,M,2800.00,3600.00,6000.00,M,M,KAMW 142324Z AUTO 15008KT 9SM FEW028 BKN036 OVC060 17/17 A2988 RMK AO2 LTG DSNT N T01720172
AMW,2017-04-14 18:25,M,M,M,140.00,8.00,M,29.87,M,9.00,M,FEW,BKN,OVC,M,2800.00,3600.00,5000.00,M,M,KAMW 142325Z AUTO 14008KT 9SM FEW028 BKN036 OVC050 A2987 RMK  LTG DSNT N! MADISHF
AMW,2017-04-14 18:30,M,M,M,150.00,8.00,M,29.87,M,10.00,M,FEW,BKN,OVC,M,2800.00,3600.00,6500.00,M,M,KAMW 142330Z AUTO 15008KT 10SM FEW028 BKN036 OVC065 A2987 RMK  LTG DSNT N! MADISHF
AMW,2017-04-14 18:35,M,M,M,150.00,9.00,M,29.88,M,10.00,M,FEW,BKN,OVC,M,2800.00,4900.00,7000.00,M,M,KAMW 142335Z AUTO 15009KT 10SM FEW028 BKN049 OVC070 A2988 RMK  LTG DSNT N! MADISHF
AMW,2017-04-14 18:40,M,M,M,150.00,9.00,M,29.88,M,10.00,M,SCT,BKN,OVC,M,3500.00,4900.00,7000.00,M,M,KAMW 142340Z AUTO 15009KT 10SM SCT035 BKN049 OVC070 A2988 RMK MADISHF
AMW,2017-04-14 18:45,M,M,M,150.00,8.00,M,29.87,M,10.00,M,FEW,BKN,OVC,M,3500.00,4700.00,6500.00,M,M,KAMW 142345Z AUTO 15008KT 10SM FEW035 BKN047 OVC065 A2987 RMK MADISHF
AMW,2017-04-14 18:50,M,M,M,140.00,7.00,M,29.87,M,10.00,M,FEW,BKN,OVC,M,4300.00,6500.00,7999.00,M,M,KAMW 142350Z AUTO 14007KT 10SM FEW043 BKN065 OVC079 A2987 RMK MADISHF
AMW,2017-04-14 18:53,63.00,63.00,100.00,140.00,7.00,0.00,29.87,1011.10,10.00,M,SCT,OVC,M,M,4700.00,7500.00,M,M,M,KAMW 142353Z AUTO 14007KT 10SM SCT047 OVC075 17/17 A2987 RMK AO2 SLP111 60051 T01720172 10217 20167 56027
AMW,2017-04-14 18:55,M,M,M,140.00,6.00,M,29.87,M,10.00,M,SCT,OVC,M,M,4700.00,7999.00,M,M,M,KAMW 142355Z AUTO 14006KT 10SM SCT047 OVC079 A2987 RMK MADISHF
AMW,2017-04-14 19:00,M,M,M,140.00,7.00,M,29.87,M,10.00,M,FEW,OVC,M,M,4700.00,7500.00,M,M,M,KAMW 150000Z AUTO 14007KT 10SM FEW047 OVC075 A2987 RMK MADISHF
AMW,2017-04-14 19:05,M,M,M,140.00,7.00,M,29.87,M,10.00,M,FEW,SCT,OVC,M,4500.00,6500.00,7999.00,M,M,KAMW 150005Z AUTO 14007KT 10SM FEW045 SCT065 OVC079 A2987 RMK MADISHF
AMW,2017-04-14 19:10,M,M,M,140.00,6.00,M,29.87,M,10.00,M,FEW,OVC,M,M,6000.00,7999.00,M,M,M,KAMW 150010Z AUTO 14006KT 10SM FEW060 OVC079 A2987 RMK MADISHF
AMW,2017-04-14 19:15,M,M,M,140.00,7.00,M,29.87,M,10.00,M,OVC,M,M,M,7999.00,M,M,M,M,KAMW 150015Z AUTO 14007KT 10SM OVC079 A2987 RMK MADISHF
AMW,2017-04-14 19:20,M,M,M,150.00,6.00,M,29.87,M,10.00,M,OVC,M,M,M,7500.00,M,M,M,M,KAMW 150020Z AUTO 15006KT 10SM OVC075 A2987 RMK MADISHF
AMW,2017-04-14 19:25,M,M,M,140.00,6.00,M,29.87,M,9.00,M,OVC,M,M,M,7500.00,M,M,M,M,KAMW 150025Z AUTO 14006KT 9SM OVC075 A2987 RMK MADISHF
AMW,2017-04-14 19:30,M,M,M,150.00,7.00,M,29.87,M,9.00,M,OVC,M,M,M,7500.00,M,M,M,M,KAMW 150030Z AUTO 15007KT 9SM OVC075 A2987 RMK MADISHF
AMW,2017-04-14 19:35,M,M,M,140.00,8.00,M,29.87,M,9.00,M,OVC,M,M,M,7999.00,M,M,M,M,KAMW 150035Z AUTO 14008KT 9SM OVC079 A2987 RMK MADISHF
AMW,2017-04-14 19:40,M,M,M,150.00,8.00,M,29.87,M,9.00,M,BKN,OVC,M,M,7000.00,7999.00,M,M,M,KAMW 150040Z AUTO 15008KT 9SM BKN070 OVC079 A2987 RMK MADISHF
AMW,2017-04-14 19:45,M,M,M,140.00,9.00,M,29.87,M,9.00,M,BKN,OVC,M,M,7000.00,8500.00,M,M,M,KAMW 150045Z AUTO 14009KT 9SM BKN070 OVC085 A2987 RMK MADISHF
AMW,2017-04-14 19:50,M,M,M,150.00,10.00,M,29.87,M,9.00,M,BKN,OVC,M,M,7000.00,8500.00,M,M,M,KAMW 150050Z AUTO 15010KT 9SM BKN070 OVC085 A2987 RMK MADISHF
AMW,2017-04-14 19:53,64.00,63.00,96.55,150.00,9.00,0.00,29.87,1011.00,10.00,M,SCT,OVC,M,M,7000.00,9000.00,M,M,M,KAMW 150053Z AUTO 15009KT 10SM SCT070 OVC090 18/17 A2987 RMK AO2 SLP110 T01780172
AMW,2017-04-14 19:55,M,M,M,150.00,10.00,M,29.87,M,10.00,M,SCT,OVC,M,M,7000.00,9000.00,M,M,M,KAMW 150055Z AUTO 15010KT 10SM SCT070 OVC090 A2987 RMK MADISHF
AMW,2017-04-14 20:00,M,M,M,140.00,11.00,M,29.86,M,10.00,M,SCT,OVC,M,M,7000.00,9000.00,M,M,M,KAMW 150100Z AUTO 14011KT 10SM SCT070 OVC090 A2986 RMK MADISHF
AMW,2017-04-14 20:05,M,M,M,150.00,10.00,M,29.87,M,10.00,M,SCT,OVC,M,M,6500.00,9000.00,M,M,-RA,KAMW 150105Z AUTO 15010KT 10SM -RA SCT065 OVC090 A2987 RMK MADISHF
AMW,2017-04-14 20:10,M,M,M,150.00,14.00,M,29.86,M,10.00,M,SCT,OVC,M,M,7000.00,9500.00,M,M,-RA,KAMW 150110Z AUTO 15014KT 10SM -RA SCT070 OVC095 A2986 RMK MADISHF
AMW,2017-04-14 20:15,M,M,M,150.00,14.00,M,29.86,M,10.00,M,FEW,OVC,M,M,7000.00,9500.00,M,M,M,KAMW 150115Z AUTO 15014KT 10SM FEW070 OVC095 A2986 RMK MADISHF
AMW,2017-04-14 20:20,M,M,M,150.00,12.00,M,29.86,M,10.00,M,FEW,OVC,M,M,6500.00,9500.00,M,M,M,KAMW 150120Z AUTO 15012KT 10SM FEW065 OVC095 A2986 RMK MADISHF
AMW,2017-04-14 20:25,M,M,M,150.00,12.00,M,29.86,M,10.00,M,FEW,OVC,M,M,6500.00,10000.00,M,M,M,KAMW 150125Z AUTO 15012KT 10SM FEW065 OVC100 A2986 RMK MADISHF
AMW,2017-04-14 20:30,M,M,M,160.00,13.00,M,29.87,M,10.00,M,FEW,OVC,M,M,6500.00,10000.00,M,M,M,KAMW 150130Z AUTO 16013KT 10SM FEW065 OVC100 A2987 RMK MADISHF
AMW,2017-04-14 20:35,M,M,M,160.00,13.00,M,29.86,M,10.00,M,SCT,OVC,M,M,6500.00,10000.00,M,M,M,KAMW 150135Z AUTO 16013KT 10SM SCT065 OVC100 A2986 RMK MADISHF
AMW,2017-04-14 20:40,M,M,M,160.00,12.00,M,29.86,M,10.00,M,SCT,OVC,M,M,6000.00,10000.00,M,M,M,KAMW 150140Z AUTO 16012KT 10SM SCT060 OVC100 A2986 RMK MADISHF
AMW,2017-04-14 20:45,M,M,M,160.00,11.00,M,29.86,M,10.00,M,SCT,OVC,M,M,6000.00,10000.00,M,M,M,KAMW 150145Z AUTO 16011KT 10SM SCT060 OVC100 A2986 RMK MADISHF
AMW,2017-04-14 20:50,M,M,M,150.00,12.00,M,29.86,M,10.00,M,FEW,OVC,M,M,6000.00,10000.00,M,M,M,KAMW 150150Z AUTO 15012KT 10SM FEW060 OVC100 A2986 RMK MADISHF
AMW,2017-04-14 20:53,64.00,63.00,96.55,150.00,12.00,0.00,29.87,1010.90,10.00,M,FEW,OVC,M,M,6000.00,10000.00,M,M,M,KAMW 150153Z AUTO 15012KT 10SM FEW060 OVC100 18/17 A2987 RMK AO2 RAB04E13 SLP109 P0000 T01780172
AMW,2017-04-14 20:55,M,M,M,160.00,11.00,M,29.87,M,10.00,M,FEW,OVC,M,M,6000.00,10000.00,M,M,M,KAMW 150155Z AUTO 16011KT 10SM FEW060 OVC100 A2987 RMK MADISHF
AMW,2017-04-14 21:00,M,M,M,160.00,11.00,M,29.86,M,10.00,M,FEW,OVC,M,M,6000.00,10000.00,M,M,M,KAMW 150200Z AUTO 16011KT 10SM FEW060 OVC100 A2986 RMK MADISHF
AMW,2017-04-14 21:05,M,M,M,150.00,11.00,M,29.86,M,10.00,M,OVC,M,M,M,10000.00,M,M,M,M,KAMW 150205Z AUTO 15011KT 10SM OVC100 A2986 RMK MADISHF
AMW,2017-04-14 21:10,M,M,M,150.00,9.00,M,29.86,M,10.00,M,OVC,M,M,M,10000.00,M,M,M,M,KAMW 150210Z AUTO 15009KT 10SM OVC100 A2986 RMK MADISHF
AMW,2017-04-14 21:15,M,M,M,150.00,10.00,M,29.86,M,10.00,M,OVC,M,M,M,10000.00,M,M,M,M,KAMW 150215Z AUTO 15010KT 10SM OVC100 A2986 RMK MADISHF
AMW,2017-04-14 21:20,M,M,M,150.00,10.00,M,29.86,M,10.00,M,OVC,M,M,M,10000.00,M,M,M,M,KAMW 150220Z AUTO 15010KT 10SM OVC100 A2986 RMK MADISHF
AMW,2017-04-14 21:25,M,M,M,150.00,11.00,M,29.86,M,10.00,M,OVC,M,M,M,9500.00,M,M,M,M,KAMW 150225Z AUTO 15011KT 10SM OVC095 A2986 RMK MADISHF
AMW,2017-04-14 21:30,M,M,M,150.00,11.00,M,29.86,M,10.00,M,OVC,M,M,M,9500.00,M,M,M,M,KAMW 150230Z AUTO 15011KT 10SM OVC095 A2986 RMK MADISHF
AMW,2017-04-14 21:35,M,M,M,150.00,12.00,M,29.86,M,10.00,M,OVC,M,M,M,9500.00,M,M,M,M,KAMW 150235Z AUTO 15012KT 10SM OVC095 A2986 RMK MADISHF
AMW,2017-04-14 21:40,M,M,M,150.00,11.00,M,29.86,M,10.00,M,OVC,M,M,M,9500.00,M,M,M,M,KAMW 150240Z AUTO 15011KT 10SM OVC095 A2986 RMK MADISHF
AMW,2017-04-14 21:45,M,M,M,150.00,12.00,M,29.86,M,10.00,M,OVC,M,M,M,9000.00,M,M,M,M,KAMW 150245Z AUTO 15012KT 10SM OVC090 A2986 RMK MADISHF
AMW,2017-04-14 21:50,M,M,M,150.00,14.00,M,29.85,M,10.00,M,OVC,M,M,M,9000.00,M,M,M,M,KAMW 150250Z AUTO 15014KT 10SM OVC090 A2985 RMK MADISHF
AMW,2017-04-14 21:53,64.90,62.10,90.64,150.00,12.00,0.00,29.85,1010.50,10.00,M,OVC,M,M,M,9000.00,M,M,M,M,KAMW 150253Z AUTO 15012KT 10SM OVC090 18/17 A2985 RMK AO2 SLP105 60000 T01830167 58005
AMW,2017-04-14 21:55,M,M,M,150.00,12.00,M,29.86,M,10.00,M,OVC,M,M,M,9000.00,M,M,M,M,KAMW 150255Z AUTO 15012KT 10SM OVC090 A2986 RMK MADISHF
AMW,2017-04-14 22:00,M,M,M,150.00,12.00,M,29.85,M,10.00,M,FEW,OVC,M,M,6500.00,9000.00,M,M,M,KAMW 150300Z AUTO 15012KT 10SM FEW065 OVC090 A2985 RMK MADISHF
AMW,2017-04-14 22:05,M,M,M,150.00,12.00,M,29.85,M,10.00,M,FEW,OVC,M,M,6500.00,9000.00,M,M,M,KAMW 150305Z AUTO 15012KT 10SM FEW065 OVC090 A2985 RMK MADISHF
AMW,2017-04-14 22:10,M,M,M,150.00,12.00,M,29.85,M,10.00,17.00,FEW,OVC,M,M,6500.00,9000.00,M,M,M,KAMW 150310Z AUTO 15012G17KT 10SM FEW065 OVC090 A2985 RMK MADISHF
AMW,2017-04-14 22:15,M,M,M,150.00,11.00,M,29.85,M,10.00,M,FEW,OVC,M,M,6500.00,9000.00,M,M,M,KAMW 150315Z AUTO 15011KT 10SM FEW065 OVC090 A2985 RMK MADISHF
AMW,2017-04-14 22:20,M,M,M,160.00,11.00,M,29.85,M,10.00,M,SCT,OVC,M,M,6000.00,8500.00,M,M,M,KAMW 150320Z AUTO 16011KT 10SM SCT060 OVC085 A2985 RMK MADISHF
AMW,2017-04-14 22:25,M,M,M,150.00,10.00,M,29.85,M,10.00,M,SCT,OVC,M,M,6000.00,9000.00,M,M,M,KAMW 150325Z AUTO 15010KT 10SM SCT060 OVC090 A2985 RMK MADISHF
AMW,2017-04-14 22:30,M,M,M,150.00,10.00,M,29.85,M,10.00,M,SCT,OVC,M,M,6000.00,9000.00,M,M,M,KAMW 150330Z AUTO 15010KT 10SM SCT060 OVC090 A2985 RMK MADISHF
AMW,2017-04-14 22:35,M,M,M,150.00,10.00,M,29.85,M,10.00,M,SCT,OVC,M,M,6000.00,9000.00,M,M,M,KAMW 150335Z AUTO 15010KT 10SM SCT060 OVC090 A2985 RMK MADISHF
AMW,2017-04-14 22:40,M,M,M,160.00,11.00,M,29.85,M,10.00,M,BKN,OVC,M,M,6000.00,9000.00,M,M,M,KAMW 150340Z AUTO 16011KT 10SM BKN060 OVC090 A2985 RMK MADISHF
AMW,2017-04-14 22:45,M,M,M,160.00,11.00,M,29.85,M,10.00,M,BKN,OVC,M,M,6000.00,9000.00,M,M,M,KAMW 150345Z AUTO 16011KT 10SM BKN060 OVC090 A2985 RMK MADISHF
AMW,2017-04-14 22:50,M,M,M,160.00,11.00,M,29.85,M,10.00,M,BKN,OVC,M,M,6000.00,9000.00,M,M,M,KAMW 150350Z AUTO 16011KT 10SM BKN060 OVC090 A2985 RMK MADISHF
AMW,2017-04-14 22:53,64.90,62.10,90.64,160.00,12.00,0.00,29.85,1010.20,10.00,M,BKN,OVC,M,M,6000.00,9000.00,M,M,M,KAMW 150353Z AUTO 16012KT 10SM BKN060 OVC090 18/17 A2985 RMK AO2 SLP102 T01830167
AMW,2017-04-14 22:55,M,M,M,160.00,12.00,M,29.85,M,10.00,M,BKN,OVC,M,M,6000.00,9000.00,M,M,M,KAMW 150355Z AUTO 16012KT 10SM BKN060 OVC090 A2985 RMK MADISHF
AMW,2017-04-14 23:00,M,M,M,160.00,13.00,M,29.85,M,10.00,M,BKN,OVC,M,M,6000.00,8500.00,M,M,M,KAMW 150400Z AUTO 16013KT 10SM BKN060 OVC085 A2985 RMK MADISHF
AMW,2017-04-14 23:05,M,M,M,160.00,15.00,M,29.84,M,10.00,M,SCT,OVC,M,M,6000.00,8500.00,M,M,M,KAMW 150405Z AUTO 16015KT 10SM SCT060 OVC085 A2984 RMK MADISHF
AMW,2017-04-14 23:10,M,M,M,160.00,12.00,M,29.84,M,10.00,M,BKN,OVC,M,M,6000.00,8500.00,M,M,M,KAMW 150410Z AUTO 16012KT 10SM BKN060 OVC085 A2984 RMK MADISHF
AMW,2017-04-14 23:15,M,M,M,160.00,13.00,M,29.84,M,10.00,M,SCT,OVC,M,M,6000.00,8500.00,M,M,M,KAMW 150415Z AUTO 16013KT 10SM SCT060 OVC085 A2984 RMK MADISHF
AMW,2017-04-14 23:20,M,M,M,160.00,13.00,M,29.84,M,10.00,M,SCT,OVC,M,M,6000.00,8500.00,M,M,M,KAMW 150420Z AUTO 16013KT 10SM SCT060 OVC085 A2984 RMK MADISHF
AMW,2017-04-14 23:25,M,M,M,160.00,12.00,M,29.84,M,10.00,M,SCT,OVC,M,M,6000.00,7999.00,M,M,M,KAMW 150425Z AUTO 16012KT 10SM SCT060 OVC079 A2984 RMK MADISHF
AMW,2017-04-14 23:30,M,M,M,160.00,12.00,M,29.83,M,10.00,M,FEW,OVC,M,M,6000.00,7999.00,M,M,M,KAMW 150430Z AUTO 16012KT 10SM FEW060 OVC079 A2983 RMK MADISHF
AMW,2017-04-14 23:35,M,M,M,160.00,13.00,M,29.83,M,10.00,M,FEW,OVC,M,M,6000.00,7999.00,M,M,M,KAMW 150435Z AUTO 16013KT 10SM FEW060 OVC079 A2983 RMK MADISHF
AMW,2017-04-14 23:40,M,M,M,160.00,12.00,M,29.83,M,10.00,M,OVC,M,M,M,8500.00,M,M,M,M,KAMW 150440Z AUTO 16012KT 10SM OVC085 A2983 RMK MADISHF
AMW,2017-04-14 23:45,M,M,M,160.00,11.00,M,29.83,M,10.00,M,OVC,M,M,M,8500.00,M,M,M,M,KAMW 150445Z AUTO 16011KT 10SM OVC085 A2983 RMK MADISHF
AMW,2017-04-14 23:50,M,M,M,160.00,11.00,M,29.84,M,10.00,M,OVC,M,M,M,8500.00,M,M,M,M,KAMW 150450Z AUTO 16011KT 10SM OVC085 A2984 RMK MADISHF
AMW,2017-04-14 23:53,64.90,61.00,87.18,160.00,11.00,0.00,29.83,1009.70,10.00,M,OVC,M,M,M,8500.00,M,M,M,M,KAMW 150453Z AUTO 16011KT 10SM OVC085 18/16 A2983 RMK AO2 SLP097 T01830161
AMW,2017-04-14 23:55,M,M,M,160.00,11.00,M,29.84,M,10.00,M,OVC,M,M,M,8500.00,M,M,M,M,KAMW 150455Z AUTO 16011KT 10SM OVC085 A2984 RMK MADISHF
AMW,2017-04-15 00:00,M,M,M,160.00,10.00,M,29.84,M,10.00,M,OVC,M,M,M,8500.00,M,M,M,M,KAMW 150500Z AUTO 16010KT 10SM OVC085 A2984 RMK MADISHF
AMW,2017-04-15 00:05,M,M,M,170.00,11.00,M,29.84,M,10.00,M,OVC,M,M,M,8500.00,M,M,M,M,KAMW 150505Z AUTO 17011KT 10SM OVC085 A2984 RMK MADISHF
AMW,2017-04-15 00:10,M,M,M,170.00,9.00,M,29.84,M,10.00,M,OVC,M,M,M,8500.00,M,M,M,M,KAMW 150510Z AUTO 17009KT 10SM OVC085 A2984 RMK MADISHF
AMW,2017-04-15 00:15,M,M,M,170.00,10.00,M,29.84,M,10.00,M,OVC,M,M,M,8500.00,M,M,M,M,KAMW 150515Z AUTO 17010KT 10SM OVC085 A2984 RMK MADISHF
AMW,2017-04-15 00:20,M,M,M,170.00,9.00,M,29.84,M,10.00,M,OVC,M,M,M,8500.00,M,M,M,M,KAMW 150520Z AUTO 17009KT 10SM OVC085 A2984 RMK MADISHF
AMW,2017-04-15 00:25,M,M,M,170.00,9.00,M,29.84,M,10.00,M,OVC,M,M,M,8500.00,M,M,M,M,KAMW 150525Z AUTO 17009KT 10SM OVC085 A2984 RMK MADISHF
AMW,2017-04-15 00:30,M,M,M,170.00,9.00,M,29.84,M,10.00,M,OVC,M,M,M,8500.00,M,M,M,M,KAMW 150530Z AUTO 17009KT 10SM OVC085 A2984 RMK MADISHF
AMW,2017-04-15 00:35,M,M,M,170.00,9.00,M,29.84,M,10.00,M,OVC,M,M,M,8500.00,M,M,M,M,KAMW 150535Z AUTO 17009KT 10SM OVC085 A2984 RMK MADISHF
AMW,2017-04-15 00:40,M,M,M,180.00,10.00,M,29.84,M,10.00,M,OVC,M,M,M,9000.00,M,M,M,M,KAMW 150540Z AUTO 18010KT 10SM OVC090 A2984 RMK MADISHF
AMW,2017-04-15 00:45,M,M,M,180.00,13.00,M,29.84,M,10.00,M,OVC,M,M,M,9000.00,M,M,M,M,KAMW 150545Z AUTO 18013KT 10SM OVC090 A2984 RMK MADISHF
AMW,2017-04-15 00:50,M,M,M,180.00,13.00,M,29.84,M,10.00,M,OVC,M,M,M,9000.00,M,M,M,M,KAMW 150550Z AUTO 18013KT 10SM OVC090 A2984 RMK MADISHF
AMW,2017-04-15 00:53,66.00,59.00,78.14,190.00,13.00,0.00,29.84,1009.70,10.00,M,OVC,M,M,M,9000.00,M,M,M,M,KAMW 150553Z AUTO 19013KT 10SM OVC090 19/15 A2984 RMK AO2 SLP097 60000 T01890150 10189 20172 402170111 56006
AMW,2017-04-15 00:55,M,M,M,190.00,14.00,M,29.83,M,10.00,M,OVC,M,M,M,9000.00,M,M,M,M,KAMW 150555Z AUTO 19014KT 10SM OVC090 A2983 RMK MADISHF
AMW,2017-04-15 01:00,M,M,M,190.00,15.00,M,29.83,M,10.00,M,OVC,M,M,M,9000.00,M,M,M,M,KAMW 150600Z AUTO 19015KT 10SM OVC090 A2983 RMK MADISHF
AMW,2017-04-15 01:05,M,M,M,190.00,14.00,M,29.83,M,10.00,M,FEW,OVC,M,M,7500.00,9000.00,M,M,M,KAMW 150605Z AUTO 19014KT 10SM FEW075 OVC090 A2983 RMK MADISHF
AMW,2017-04-15 01:10,M,M,M,190.00,14.00,M,29.83,M,10.00,M,FEW,BKN,M,M,7500.00,9000.00,M,M,M,KAMW 150610Z AUTO 19014KT 10SM FEW075 BKN090 A2983 RMK MADISHF
AMW,2017-04-15 01:15,M,M,M,180.00,15.00,M,29.83,M,10.00,M,FEW,BKN,M,M,7999.00,9000.00,M,M,M,KAMW 150615Z AUTO 18015KT 10SM FEW079 BKN090 A2983 RMK MADISHF
AMW,2017-04-15 01:20,M,M,M,190.00,15.00,M,29.83,M,10.00,M,FEW,BKN,M,M,7999.00,9000.00,M,M,M,KAMW 150620Z AUTO 19015KT 10SM FEW079 BKN090 A2983 RMK MADISHF
AMW,2017-04-15 01:25,M,M,M,190.00,15.00,M,29.82,M,10.00,M,FEW,BKN,M,M,7500.00,9000.00,M,M,M,KAMW 150625Z AUTO 19015KT 10SM FEW075 BKN090 A2982 RMK MADISHF
AMW,2017-04-15 01:30,M,M,M,190.00,16.00,M,29.82,M,10.00,M,FEW,BKN,M,M,7500.00,9000.00,M,M,M,KAMW 150630Z AUTO 19016KT 10SM FEW075 BKN090 A2982 RMK MADISHF
AMW,2017-04-15 01:35,M,M,M,190.00,14.00,M,29.82,M,10.00,M,SCT,M,M,M,9000.00,M,M,M,M,KAMW 150635Z AUTO 19014KT 10SM SCT090 A2982 RMK MADISHF
AMW,2017-04-15 01:40,M,M,M,180.00,15.00,M,29.82,M,10.00,M,SCT,M,M,M,9000.00,M,M,M,M,KAMW 150640Z AUTO 18015KT 10SM SCT090 A2982 RMK MADISHF
AMW,2017-04-15 01:45,M,M,M,180.00,14.00,M,29.82,M,10.00,M,BKN,M,M,M,9000.00,M,M,M,M,KAMW 150645Z AUTO 18014KT 10SM BKN090 A2982 RMK MADISHF
AMW,2017-04-15 01:50,M,M,M,180.00,16.00,M,29.82,M,10.00,M,BKN,M,M,M,9000.00,M,M,M,M,KAMW 150650Z AUTO 18016KT 10SM BKN090 A2982 RMK MADISHF
AMW,2017-04-15 01:53,66.00,55.90,69.88,180.00,14.00,0.00,29.82,1009.10,10.00,M,SCT,M,M,M,9000.00,M,M,M,M,KAMW 150653Z AUTO 18014KT 10SM SCT090 19/13 A2982 RMK AO2 SLP091 T01890133
AMW,2017-04-15 01:55,M,M,M,180.00,15.00,M,29.82,M,10.00,M,SCT,M,M,M,9000.00,M,M,M,M,KAMW 150655Z AUTO 18015KT 10SM SCT090 A2982 RMK MADISHF
AMW,2017-04-15 02:00,M,M,M,180.00,14.00,M,29.82,M,10.00,M,FEW,M,M,M,9000.00,M,M,M,M,KAMW 150700Z AUTO 18014KT 10SM FEW090 A2982 RMK MADISHF
AMW,2017-04-15 02:05,M,M,M,180.00,12.00,M,29.82,M,10.00,M,FEW,M,M,M,9000.00,M,M,M,M,KAMW 150705Z AUTO 18012KT 10SM FEW090 A2982 RMK MADISHF
AMW,2017-04-15 02:10,M,M,M,180.00,13.00,M,29.82,M,10.00,M,FEW,M,M,M,9000.00,M,M,M,M,KAMW 150710Z AUTO 18013KT 10SM FEW090 A2982 RMK MADISHF
AMW,2017-04-15 02:15,M,M,M,180.00,12.00,M,29.83,M,10.00,M,CLR,M,M,M,M,M,M,M,M,KAMW 150715Z AUTO 18012KT 10SM CLR A2983 RMK MADISHF
AMW,2017-04-15 02:20,M,M,M,180.00,13.00,M,29.82,M,10.00,M,CLR,M,M,M,M,M,M,M,M,KAMW 150720Z AUTO 18013KT 10SM CLR A2982 RMK MADISHF
AMW,2017-04-15 02:25,M,M,M,180.00,11.00,M,29.82,M,10.00,M,CLR,M,M,M,M,M,M,M,M,KAMW 150725Z AUTO 18011KT 10SM CLR A2982 RMK MADISHF
AMW,2017-04-15 02:30,M,M,M,180.00,13.00,M,29.82,M,10.00,M,FEW,M,M,M,7999.00,M,M,M,M,KAMW 150730Z AUTO 18013KT 10SM FEW079 A2982 RMK MADISHF
AMW,2017-04-15 02:35,M,M,M,180.00,14.00,M,29.82,M,10.00,M,SCT,M,M,M,7999.00,M,M,M,M,KAMW 150735Z AUTO 18014KT 10SM SCT079 A2982 RMK MADISHF
AMW,2017-04-15 02:40,M,M,M,180.00,13.00,M,29.82,M,10.00,M,SCT,M,M,M,8500.00,M,M,M,M,KAMW 150740Z AUTO 18013KT 10SM SCT085 A2982 RMK MADISHF
AMW,2017-04-15 02:45,M,M,M,180.00,13.00,M,29.82,M,10.00,M,FEW,M,M,M,7999.00,M,M,M,M,KAMW 150745Z AUTO 18013KT 10SM FEW079 A2982 RMK MADISHF
AMW,2017-04-15 02:50,M,M,M,180.00,13.00,M,29.82,M,10.00,M,FEW,M,M,M,7999.00,M,M,M,M,KAMW 150750Z AUTO 18013KT 10SM FEW079 A2982 RMK MADISHF
AMW,2017-04-15 02:53,64.90,55.90,72.61,180.00,14.00,0.00,29.83,1009.30,10.00,M,FEW,M,M,M,8000.00,M,M,M,M,KAMW 150753Z AUTO 18014KT 10SM FEW080 18/13 A2983 RMK AO2 SLP093 T01830133
AMW,2017-04-15 02:55,M,M,M,180.00,14.00,M,29.83,M,10.00,M,SCT,M,M,M,7999.00,M,M,M,M,KAMW 150755Z AUTO 18014KT 10SM SCT079 A2983 RMK MADISHF
AMW,2017-04-15 03:00,M,M,M,180.00,13.00,M,29.83,M,10.00,M,FEW,SCT,M,M,5500.00,8500.00,M,M,M,KAMW 150800Z AUTO 18013KT 10SM FEW055 SCT085 A2983 RMK MADISHF
AMW,2017-04-15 03:05,M,M,M,180.00,11.00,M,29.83,M,10.00,M,SCT,BKN,M,M,5500.00,8500.00,M,M,M,KAMW 150805Z AUTO 18011KT 10SM SCT055 BKN085 A2983 RMK MADISHF
AMW,2017-04-15 03:10,M,M,M,180.00,11.00,M,29.84,M,10.00,M,SCT,BKN,M,M,5500.00,7999.00,M,M,M,KAMW 150810Z AUTO 18011KT 10SM SCT055 BKN079 A2984 RMK MADISHF
AMW,2017-04-15 03:15,M,M,M,180.00,11.00,M,29.84,M,10.00,M,SCT,BKN,M,M,6000.00,7999.00,M,M,M,KAMW 150815Z AUTO 18011KT 10SM SCT060 BKN079 A2984 RMK MADISHF
AMW,2017-04-15 03:20,M,M,M,180.00,11.00,M,29.84,M,10.00,M,BKN,OVC,M,M,6000.00,8500.00,M,M,M,KAMW 150820Z AUTO 18011KT 10SM BKN060 OVC085 A2984 RMK MADISHF
AMW,2017-04-15 03:25,M,M,M,180.00,11.00,M,29.84,M,10.00,M,BKN,OVC,M,M,5500.00,7999.00,M,M,M,KAMW 150825Z AUTO 18011KT 10SM BKN055 OVC079 A2984 RMK MADISHF
AMW,2017-04-15 03:30,M,M,M,180.00,11.00,M,29.84,M,10.00,M,BKN,OVC,M,M,5500.00,7999.00,M,M,M,KAMW 150830Z AUTO 18011KT 10SM BKN055 OVC079 A2984 RMK MADISHF
AMW,2017-04-15 03:35,M,M,M,180.00,11.00,M,29.83,M,10.00,M,BKN,OVC,M,M,5500.00,8500.00,M,M,M,KAMW 150835Z AUTO 18011KT 10SM BKN055 OVC085 A2983 RMK MADISHF
AMW,2017-04-15 03:40,M,M,M,170.00,11.00,M,29.83,M,10.00,M,OVC,M,M,M,5500.00,M,M,M,M,KAMW 150840Z AUTO 17011KT 10SM OVC055 A2983 RMK MADISHF
AMW,2017-04-15 03:45,M,M,M,170.00,10.00,M,29.83,M,10.00,M,OVC,M,M,M,5500.00,M,M,M,M,KAMW 150845Z AUTO 17010KT 10SM OVC055 A2983 RMK MADISHF
AMW,2017-04-15 03:50,M,M,M,180.00,12.00,M,29.83,M,10.00,M,OVC,M,M,M,5000.00,M,M,M,M,KAMW 150850Z AUTO 18012KT 10SM OVC050 A2983 RMK MADISHF
AMW,2017-04-15 03:53,64.90,55.90,72.61,180.00,13.00,0.00,29.83,1009.40,10.00,M,OVC,M,M,M,5000.00,M,M,M,M,KAMW 150853Z AUTO 18013KT 10SM OVC050 18/13 A2983 RMK AO2 SLP094 T01830133 56003
AMW,2017-04-15 03:55,M,M,M,180.00,13.00,M,29.82,M,10.00,M,OVC,M,M,M,5000.00,M,M,M,M,KAMW 150855Z AUTO 18013KT 10SM OVC050 A2982 RMK MADISHF
AMW,2017-04-15 04:00,M,M,M,180.00,13.00,M,29.83,M,10.00,M,OVC,M,M,M,5000.00,M,M,M,M,KAMW 150900Z AUTO 18013KT 10SM OVC050 A2983 RMK MADISHF
AMW,2017-04-15 04:05,M,M,M,180.00,12.00,M,29.83,M,10.00,M,OVC,M,M,M,5000.00,M,M,M,M,KAMW 150905Z AUTO 18012KT 10SM OVC050 A2983 RMK MADISHF
AMW,2017-04-15 04:10,M,M,M,180.00,12.00,M,29.83,M,10.00,M,OVC,M,M,M,5000.00,M,M,M,M,KAMW 150910Z AUTO 18012KT 10SM OVC050 A2983 RMK MADISHF
AMW,2017-04-15 04:15,M,M,M,180.00,13.00,M,29.82,M,10.00,M,OVC,M,M,M,5000.00,M,M,M,M,KAMW 150915Z AUTO 18013KT 10SM OVC050 A2982 RMK MADISHF
AMW,2017-04-15 04:20,M,M,M,180.00,13.00,M,29.82,M,10.00,M,BKN,M,M,M,5000.00,M,M,M,M,KAMW 150920Z AUTO 18013KT 10SM BKN050 A2982 RMK MADISHF
AMW,2017-04-15 04:25,M,M,M,180.00,14.00,M,29.82,M,10.00,M,BKN,M,M,M,5000.00,M,M,M,M,KAMW 150925Z AUTO 18014KT 10SM BKN050 A2982 RMK MADISHF
AMW,2017-04-15 04:30,M,M,M,180.00,12.00,M,29.82,M,10.00,M,BKN,M,M,M,5000.00,M,M,M,M,KAMW 150930Z AUTO 18012KT 10SM BKN050 A2982 RMK MADISHF
AMW,2017-04-15 04:35,M,M,M,180.00,13.00,M,29.82,M,10.00,M,SCT,BKN,M,M,5000.00,6000.00,M,M,M,KAMW 150935Z AUTO 18013KT 10SM SCT050 BKN060 A2982 RMK MADISHF
AMW,2017-04-15 04:40,M,M,M,180.00,16.00,M,29.82,M,10.00,M,FEW,BKN,M,M,5000.00,6000.00,M,M,M,KAMW 150940Z AUTO 18016KT 10SM FEW050 BKN060 A2982 RMK MADISHF
AMW,2017-04-15 04:45,M,M,M,190.00,15.00,M,29.82,M,10.00,M,FEW,BKN,M,M,5000.00,6000.00,M,M,M,KAMW 150945Z AUTO 19015KT 10SM FEW050 BKN060 A2982 RMK MADISHF
AMW,2017-04-15 04:50,M,M,M,190.00,14.00,M,29.82,M,10.00,19.00,FEW,BKN,M,M,5000.00,6000.00,M,M,M,KAMW 150950Z AUTO 19014G19KT 10SM FEW050 BKN060 A2982 RMK MADISHF
AMW,2017-04-15 04:53,64.00,55.90,74.93,190.00,16.00,0.00,29.82,1009.30,10.00,M,BKN,M,M,M,6000.00,M,M,M,M,KAMW 150953Z AUTO 19016KT 10SM BKN060 18/13 A2982 RMK AO2 SLP093 T01780133
AMW,2017-04-15 04:55,M,M,M,190.00,15.00,M,29.82,M,10.00,M,BKN,M,M,M,6000.00,M,M,M,M,KAMW 150955Z AUTO 19015KT 10SM BKN060 A2982 RMK MADISHF
AMW,2017-04-15 05:00,M,M,M,190.00,17.00,M,29.81,M,10.00,M,OVC,M,M,M,6000.00,M,M,M,M,KAMW 151000Z AUTO 19017KT 10SM OVC060 A2981 RMK MADISHF
AMW,2017-04-15 05:05,M,M,M,190.00,17.00,M,29.82,M,10.00,M,BKN,M,M,M,6000.00,M,M,M,M,KAMW 151005Z AUTO 19017KT 10SM BKN060 A2982 RMK MADISHF
AMW,2017-04-15 05:10,M,M,M,190.00,18.00,M,29.82,M,10.00,M,BKN,M,M,M,6000.00,M,M,M,M,KAMW 151010Z AUTO 19018KT 10SM BKN060 A2982 RMK MADISHF
AMW,2017-04-15 05:15,M,M,M,190.00,17.00,M,29.82,M,10.00,M,BKN,M,M,M,6000.00,M,M,M,M,KAMW 151015Z AUTO 19017KT 10SM BKN060 A2982 RMK MADISHF
AMW,2017-04-15 05:20,M,M,M,190.00,17.00,M,29.82,M,10.00,M,BKN,M,M,M,6500.00,M,M,M,M,KAMW 151020Z AUTO 19017KT 10SM BKN065 A2982 RMK MADISHF
AMW,2017-04-15 05:25,M,M,M,M,M,M,29.81,M,10.00,M,BKN,M,M,M,6500.00,M,M,M,M,KAMW 151025Z AUTO /////KT 10SM BKN065 A2981 RMK MADISHF
AMW,2017-04-15 05:30,M,M,M,190.00,16.00,M,29.81,M,10.00,M,FEW,BKN,M,M,4200.00,6500.00,M,M,M,KAMW 151030Z AUTO 19016KT 10SM FEW042 BKN065 A2981 RMK MADISHF
AMW,2017-04-15 05:35,M,M,M,M,M,M,29.81,M,10.00,M,SCT,OVC,M,M,4400.00,6500.00,M,M,M,KAMW 151035Z AUTO /////KT 10SM SCT044 OVC065 A2981 RMK MADISHF
AMW,2017-04-15 05:40,M,M,M,M,M,M,29.81,M,10.00,M,BKN,OVC,M,M,4600.00,6500.00,M,M,M,KAMW 151040Z AUTO /////KT 10SM BKN046 OVC065 A2981 RMK MADISHF
AMW,2017-04-15 05:45,M,M,M,180.00,18.00,M,29.81,M,10.00,M,BKN,OVC,M,M,4800.00,6500.00,M,M,M,KAMW 151045Z AUTO 18018KT 10SM BKN048 OVC065 A2981 RMK MADISHF
AMW,2017-04-15 05:50,M,M,M,190.00,18.00,M,29.80,M,10.00,23.00,BKN,BKN,M,M,4800.00,6500.00,M,M,M,KAMW 151050Z AUTO 19018G23KT 10SM BKN048 BKN065 A2980 RMK MADISHF
AMW,2017-04-15 05:53,64.00,55.00,72.52,180.00,16.00,0.00,29.80,1008.60,10.00,M,BKN,BKN,M,M,4800.00,6500.00,M,M,M,KAMW 151053Z AUTO 18016KT 10SM BKN048 BKN065 18/13 A2980 RMK AO2 SLP086 T01780128
AMW,2017-04-15 05:55,M,M,M,180.00,16.00,M,29.80,M,10.00,M,BKN,M,M,M,4800.00,M,M,M,M,KAMW 151055Z AUTO 18016KT 10SM BKN048 A2980 RMK MADISHF
AMW,2017-04-15 06:00,M,M,M,180.00,14.00,M,29.80,M,10.00,M,SCT,M,M,M,4800.00,M,M,M,M,KAMW 151100Z AUTO 18014KT 10SM SCT048 A2980 RMK MADISHF
AMW,2017-04-15 06:05,M,M,M,180.00,15.00,M,29.80,M,10.00,M,SCT,M,M,M,5000.00,M,M,M,M,KAMW 151105Z AUTO 18015KT 10SM SCT050 A2980 RMK MADISHF
AMW,2017-04-15 06:10,M,M,M,180.00,15.00,M,29.80,M,10.00,M,FEW,M,M,M,5000.00,M,M,M,M,KAMW 151110Z AUTO 18015KT 10SM FEW050 A2980 RMK MADISHF
AMW,2017-04-15 06:15,M,M,M,180.00,15.00,M,29.80,M,10.00,20.00,FEW,M,M,M,5000.00,M,M,M,M,KAMW 151115Z AUTO 18015G20KT 10SM FEW050 A2980 RMK MADISHF
AMW,2017-04-15 06:20,M,M,M,180.00,16.00,M,29.81,M,10.00,M,CLR,M,M,M,M,M,M,M,M,KAMW 151120Z AUTO 18016KT 10SM CLR A2981 RMK MADISHF
AMW,2017-04-15 06:25,M,M,M,180.00,16.00,M,29.81,M,10.00,M,CLR,M,M,M,M,M,M,M,M,KAMW 151125Z AUTO 18016KT 10SM CLR A2981 RMK MADISHF
AMW,2017-04-15 06:30,M,M,M,180.00,14.00,M,29.82,M,10.00,M,CLR,M,M,M,M,M,M,M,M,KAMW 151130Z AUTO 18014KT 10SM CLR A2982 RMK MADISHF
AMW,2017-04-15 06:35,M,M,M,180.00,12.00,M,29.82,M,10.00,M,CLR,M,M,M,M,M,M,M,M,KAMW 151135Z AUTO 18012KT 10SM CLR A2982 RMK MADISHF
AMW,2017-04-15 06:40,M,M,M,190.00,12.00,M,29.82,M,10.00,M,CLR,M,M,M,M,M,M,M,M,KAMW 151140Z AUTO 19012KT 10SM CLR A2982 RMK MADISHF
AMW,2017-04-15 06:45,M,M,M,190.00,12.00,M,29.83,M,10.00,M,CLR,M,M,M,M,M,M,M,M,KAMW 151145Z AUTO 19012KT 10SM CLR A2983 RMK MADISHF
AMW,2017-04-15 06:50,M,M,M,190.00,11.00,M,29.83,M,10.00,M,CLR,M,M,M,M,M,M,M,M,KAMW 151150Z AUTO 19011KT 10SM CLR A2983 RMK MADISHF
AMW,2017-04-15 06:53,63.00,55.90,77.61,190.00,11.00,0.00,29.83,1009.60,10.00,M,CLR,M,M,M,M,M,M,M,M,KAMW 151153Z AUTO 19011KT 10SM CLR 17/13 A2983 RMK AO2 SLP096 70052 T01720133 10194 20172 53002
AMW,2017-04-15 06:55,M,M,M,190.00,10.00,M,29.83,M,10.00,M,CLR,M,M,M,M,M,M,M,M,KAMW 151155Z AUTO 19010KT 10SM CLR A2983 RMK MADISHF
AMW,2017-04-15 07:00,M,M,M,190.00,10.00,M,29.83,M,10.00,M,CLR,M,M,M,M,M,M,M,M,KAMW 151200Z AUTO 19010KT 10SM CLR A2983 RMK MADISHF
AMW,2017-04-15 07:05,M,M,M,190.00,10.00,M,29.83,M,10.00,M,CLR,M,M,M,M,M,M,M,M,KAMW 151205Z AUTO 19010KT 10SM CLR A2983 RMK MADISHF
AMW,2017-04-15 07:10,M,M,M,180.00,11.00,M,29.83,M,10.00,M,CLR,M,M,M,M,M,M,M,M,KAMW 151210Z AUTO 18011KT 10SM CLR A2983 RMK MADISHF
AMW,2017-04-15 07:15,M,M,M,180.00,10.00,M,29.83,M,10.00,M,CLR,M,M,M,M,M,M,M,M,KAMW 151215Z AUTO 18010KT 10SM CLR A2983 RMK MADISHF
AMW,2017-04-15 07:20,M,M,M,180.00,10.00,M,29.83,M,10.00,M,CLR,M,M,M,M,M,M,M,M,KAMW 151220Z AUTO 18010KT 10SM CLR A2983 RMK MADISHF
AMW,2017-04-15 07:25,M,M,M,180.00,10.00,M,29.82,M,10.00,M,CLR,M,M,M,M,M,M,M,M,KAMW 151225Z AUTO 18010KT 10SM CLR A2982 RMK MADISHF
AMW,2017-04-15 07:30,M,M,M,180.00,10.00,M,29.82,M,10.00,M,CLR,M,M,M,M,M,M,M,M,KAMW 151230Z AUTO 18010KT 10SM CLR A2982 RMK MADISHF
AMW,2017-04-15 07:35,M,M,M,180.00,9.00,M,29.82,M,10.00,M,CLR,M,M,M,M,M,M,M,M,KAMW 151235Z AUTO 18009KT 10SM CLR A2982 RMK MADISHF
AMW,2017-04-15 07:40,M,M,M,180.00,10.00,M,29.82,M,10.00,M,CLR,M,M,M,M,M,M,M,M,KAMW 151240Z AUTO 18010KT 10SM CLR A2982 RMK MADISHF
AMW,2017-04-15 07:45,M,M,M,170.00,10.00,M,29.82,M,10.00,M,FEW,M,M,M,11000.00,M,M,M,M,KAMW 151245Z AUTO 17010KT 10SM FEW110 A2982 RMK MADISHF
AMW,2017-04-15 07:50,M,M,M,180.00,11.00,M,29.83,M,10.00,M,SCT,M,M,M,11000.00,M,M,M,M,KAMW 151250Z AUTO 18011KT 10SM SCT110 A2983 RMK MADISHF
AMW,2017-04-15 07:53,63.00,55.90,77.61,190.00,8.00,0.00,29.83,1009.60,10.00,M,FEW,M,M,M,11000.00,M,M,M,M,KAMW 151253Z AUTO 19008KT 10SM FEW110 17/13 A2983 RMK AO2 SLP096 T01720133
AMW,2017-04-15 07:55,M,M,M,180.00,10.00,M,29.83,M,10.00,M,FEW,M,M,M,11000.00,M,M,M,M,KAMW 151255Z AUTO 18010KT 10SM FEW110 A2983 RMK MADISHF
AMW,2017-04-15 08:00,M,M,M,180.00,9.00,M,29.83,M,10.00,M,FEW,M,M,M,11000.00,M,M,M,M,KAMW 151300Z AUTO 18009KT 10SM FEW110 A2983 RMK MADISHF
AMW,2017-04-15 08:05,M,M,M,180.00,10.00,M,29.83,M,10.00,M,FEW,M,M,M,11000.00,M,M,M,M,KAMW 151305Z AUTO 18010KT 10SM FEW110 A2983 RMK MADISHF
AMW,2017-04-15 08:10,M,M,M,180.00,12.00,M,29.83,M,10.00,M,FEW,M,M,M,11000.00,M,M,M,M,KAMW 151310Z AUTO 18012KT 10SM FEW110 A2983 RMK MADISHF
AMW,2017-04-15 08:15,M,M,M,190.00,12.00,M,29.83,M,10.00,M,CLR,M,M,M,M,M,M,M,M,KAMW 151315Z AUTO 19012KT 10SM CLR A2983 RMK MADISHF
AMW,2017-04-15 08:20,M,M,M,190.00,13.00,M,29.83,M,10.00,M,CLR,M,M,M,M,M,M,M,M,KAMW 151320Z AUTO 19013KT 10SM CLR A2983 RMK MADISHF
AMW,2017-04-15 08:25,M,M,M,190.00,12.00,M,29.83,M,10.00,M,CLR,M,M,M,M,M,M,M,M,KAMW 151325Z AUTO 19012KT 10SM CLR A2983 RMK MADISHF
AMW,2017-04-15 08:30,M,M,M,190.00,12.00,M,29.83,M,10.00,M,CLR,M,M,M,M,M,M,M,M,KAMW 151330Z AUTO 19012KT 10SM CLR A2983 RMK MADISHF
AMW,2017-04-15 08:35,M,M,M,190.00,12.00,M,29.83,M,10.00,M,CLR,M,M,M,M,M,M,M,M,KAMW 151335Z AUTO 19012KT 10SM CLR A2983 RMK MADISHF
AMW,2017-04-15 08:40,M,M,M,190.00,10.00,M,29.84,M,10.00,M,FEW,M,M,M,4700.00,M,M,M,M,KAMW 151340Z AUTO 19010KT 10SM FEW047 A2984 RMK MADISHF
AMW,2017-04-15 08:45,M,M,M,200.00,8.00,M,29.85,M,10.00,M,FEW,M,M,M,4700.00,M,M,M,M,KAMW 151345Z AUTO 20008KT 10SM FEW047 A2985 RMK MADISHF
AMW,2017-04-15 08:50,M,M,M,200.00,9.00,M,29.85,M,10.00,M,SCT,M,M,M,4600.00,M,M,M,M,KAMW 151350Z AUTO 20009KT 10SM SCT046 A2985 RMK MADISHF
AMW,2017-04-15 08:53,64.90,57.00,75.56,200.00,10.00,0.00,29.85,1010.10,10.00,M,SCT,M,M,M,4600.00,M,M,M,M,KAMW 151353Z AUTO 20010KT 10SM SCT046 18/14 A2985 RMK AO2 SLP101 T01830139
AMW,2017-04-15 08:55,M,M,M,200.00,10.00,M,29.84,M,10.00,M,BKN,M,M,M,4600.00,M,M,M,M,KAMW 151355Z AUTO 20010KT 10SM BKN046 A2984 RMK MADISHF
AMW,2017-04-15 09:00,M,M,M,200.00,10.00,M,29.84,M,10.00,M,BKN,M,M,M,4600.00,M,M,M,M,KAMW 151400Z AUTO 20010KT 10SM BKN046 A2984 RMK MADISHF
AMW,2017-04-15 09:05,M,M,M,200.00,8.00,M,29.84,M,10.00,M,BKN,M,M,M,4600.00,M,M,M,M,KAMW 151405Z AUTO 20008KT 10SM BKN046 A2984 RMK MADISHF
AMW,2017-04-15 09:10,M,M,M,210.00,9.00,M,29.85,M,10.00,M,BKN,M,M,M,4600.00,M,M,M,M,KAMW 151410Z AUTO 21009KT 10SM BKN046 A2985 RMK MADISHF
AMW,2017-04-15 09:15,M,M,M,200.00,9.00,M,29.85,M,10.00,M,BKN,M,M,M,4600.00,M,M,M,M,KAMW 151415Z AUTO 20009KT 10SM BKN046 A2985 RMK MADISHF
AMW,2017-04-15 09:20,M,M,M,210.00,9.00,M,29.85,M,10.00,M,BKN,M,M,M,4600.00,M,M,M,M,KAMW 151420Z AUTO 21009KT 10SM BKN046 A2985 RMK MADISHF
AMW,2017-04-15 09:25,M,M,M,210.00,9.00,M,29.85,M,10.00,M,BKN,M,M,M,4600.00,M,M,M,M,KAMW 151425Z AUTO 21009KT 10SM BKN046 A2985 RMK MADISHF
AMW,2017-04-15 09:30,M,M,M,210.00,9.00,M,29.85,M,10.00,M,BKN,M,M,M,4500.00,M,M,M,M,KAMW 151430Z AUTO 21009KT 10SM BKN045 A2985 RMK MADISHF
AMW,2017-04-15 09:35,M,M,M,200.00,8.00,M,29.85,M,10.00,M,OVC,M,M,M,4500.00,M,M,M,M,KAMW 151435Z AUTO 20008KT 10SM OVC045 A2985 RMK MADISHF
AMW,2017-04-15 09:40,M,M,M,200.00,8.00,M,29.85,M,10.00,M,OVC,M,M,M,4700.00,M,M,M,M,KAMW 151440Z AUTO 20008KT 10SM OVC047 A2985 RMK MADISHF
AMW,2017-04-15 09:45,M,M,M,200.00,8.00,M,29.85,M,10.00,M,OVC,M,M,M,4700.00,M,M,M,M,KAMW 151445Z AUTO 20008KT 10SM OVC047 A2985 RMK MADISHF
AMW,2017-04-15 09:50,M,M,M,210.00,8.00,M,29.86,M,10.00,M,BKN,M,M,M,4700.00,M,M,M,M,KAMW 151450Z AUTO 21008KT 10SM BKN047 A2986 RMK MADISHF
AMW,2017-04-15 09:53,66.00,57.90,75.12,200.00,8.00,0.00,29.86,1010.30,10.00,M,BKN,M,M,M,4700.00,M,M,M,M,KAMW 151453Z AUTO 20008KT 10SM BKN047 19/14 A2986 RMK AO2 SLP103 T01890144 53008
AMW,2017-04-15 09:55,M,M,M,210.00,7.00,M,29.86,M,10.00,M,BKN,M,M,M,4700.00,M,M,M,M,KAMW 151455Z AUTO 21007KT 10SM BKN047 A2986 RMK MADISHF
AMW,2017-04-15 10:00,M,M,M,200.00,10.00,M,29.86,M,10.00,M,BKN,M,M,M,4700.00,M,M,M,M,KAMW 151500Z AUTO 20010KT 10SM BKN047 A2986 RMK MADISHF
AMW,2017-04-15 10:05,M,M,M,200.00,8.00,M,29.86,M,10.00,M,BKN,M,M,M,4700.00,M,M,M,M,KAMW 151505Z AUTO 20008KT 10SM BKN047 A2986 RMK MADISHF
AMW,2017-04-15 10:10,M,M,M,210.00,10.00,M,29.86,M,10.00,M,BKN,M,M,M,4500.00,M,M,M,M,KAMW 151510Z AUTO 21010KT 10SM BKN045 A2986 RMK MADISHF
AMW,2017-04-15 10:15,M,M,M,210.00,13.00,M,29.86,M,10.00,M,SCT,M,M,M,4500.00,M,M,M,M,KAMW 151515Z AUTO 21013KT 10SM SCT045 A2986 RMK MADISHF
AMW,2017-04-15 10:20,M,M,M,200.00,13.00,M,29.86,M,10.00,19.00,SCT,M,M,M,4500.00,M,M,M,M,KAMW 151520Z AUTO 20013G19KT 10SM SCT045 A2986 RMK MADISHF
AMW,2017-04-15 10:25,M,M,M,220.00,14.00,M,29.86,M,10.00,M,SCT,M,M,M,4500.00,M,M,M,M,KAMW 151525Z AUTO 22014KT 10SM SCT045 A2986 RMK MADISHF
AMW,2017-04-15 10:30,M,M,M,210.00,14.00,M,29.85,M,10.00,M,SCT,M,M,M,4500.00,M,M,M,M,KAMW 151530Z AUTO 21014KT 10SM SCT045 A2985 RMK MADISHF
AMW,2017-04-15 10:35,M,M,M,210.00,15.00,M,29.85,M,10.00,M,FEW,M,M,M,4500.00,M,M,M,M,KAMW 151535Z AUTO 21015KT 10SM FEW045 A2985 RMK MADISHF
AMW,2017-04-15 10:40,M,M,M,220.00,17.00,M,29.85,M,10.00,M,SCT,M,M,M,4500.00,M,M,M,M,KAMW 151540Z AUTO 22017KT 10SM SCT045 A2985 RMK MADISHF
AMW,2017-04-15 10:45,M,M,M,220.00,15.00,M,29.85,M,10.00,M,SCT,M,M,M,4500.00,M,M,M,M,KAMW 151545Z AUTO 22015KT 10SM SCT045 A2985 RMK MADISHF
AMW,2017-04-15 10:50,M,M,M,210.00,16.00,M,29.85,M,10.00,M,FEW,M,M,M,4500.00,M,M,M,M,KAMW 151550Z AUTO 21016KT 10SM FEW045 A2985 RMK MADISHF
AMW,2017-04-15 10:53,69.10,60.10,73.03,220.00,18.00,0.00,29.85,1010.00,10.00,M,FEW,M,M,M,4500.00,M,M,M,M,KAMW 151553Z AUTO 22018KT 10SM FEW045 21/16 A2985 RMK AO2 SLP100 T02060156
AMW,2017-04-15 10:55,M,M,M,220.00,16.00,M,29.85,M,10.00,M,FEW,M,M,M,4500.00,M,M,M,M,KAMW 151555Z AUTO 22016KT 10SM FEW045 A2985 RMK MADISHF
AMW,2017-04-15 11:00,M,M,M,220.00,13.00,M,29.84,M,10.00,M,FEW,M,M,M,4500.00,M,M,M,M,KAMW 151600Z AUTO 22013KT 10SM FEW045 A2984 RMK MADISHF
AMW,2017-04-15 11:05,M,M,M,210.00,14.00,M,29.84,M,10.00,M,FEW,M,M,M,4500.00,M,M,M,M,KAMW 151605Z AUTO 21014KT 10SM FEW045 A2984 RMK MADISHF
AMW,2017-04-15 11:10,M,M,M,220.00,13.00,M,29.84,M,10.00,M,CLR,M,M,M,M,M,M,M,M,KAMW 151610Z AUTO 22013KT 10SM CLR A2984 RMK MADISHF
AMW,2017-04-15 11:15,M,M,M,200.00,15.00,M,29.84,M,10.00,20.00,CLR,M,M,M,M,M,M,M,M,KAMW 151615Z AUTO 20015G20KT 10SM CLR A2984 RMK MADISHF
AMW,2017-04-15 11:20,M,M,M,220.00,16.00,M,29.84,M,10.00,M,CLR,M,M,M,M,M,M,M,M,KAMW 151620Z AUTO 22016KT 10SM CLR A2984 RMK MADISHF
AMW,2017-04-15 11:25,M,M,M,210.00,14.00,M,29.83,M,10.00,M,CLR,M,M,M,M,M,M,M,M,KAMW 151625Z AUTO 21014KT 10SM CLR A2983 RMK MADISHF
AMW,2017-04-15 11:30,M,M,M,210.00,14.00,M,29.83,M,10.00,M,CLR,M,M,M,M,M,M,M,M,KAMW 151630Z AUTO 21014KT 10SM CLR A2983 RMK MADISHF
AMW,2017-04-15 11:35,M,M,M,210.00,13.00,M,29.82,M,10.00,M,CLR,M,M,M,M,M,M,M,M,KAMW 151635Z AUTO 21013KT 10SM CLR A2982 RMK MADISHF
AMW,2017-04-15 11:40,M,M,M,200.00,13.00,M,29.82,M,10.00,M,CLR,M,M,M,M,M,M,M,M,KAMW 151640Z AUTO 20013KT 10SM CLR A2982 RMK MADISHF
AMW,2017-04-15 11:45,M,M,M,190.00,12.00,M,29.82,M,10.00,M,CLR,M,M,M,M,M,M,M,M,KAMW 151645Z AUTO 19012KT 10SM CLR A2982 RMK MADISHF
AMW,2017-04-15 11:50,M,M,M,210.00,14.00,M,29.81,M,10.00,M,CLR,M,M,M,M,M,M,M,M,KAMW 151650Z AUTO 21014KT 10SM CLR A2981 RMK MADISHF
AMW,2017-04-15 11:53,70.00,60.10,70.81,200.00,13.00,0.00,29.81,1008.80,10.00,M,CLR,M,M,M,M,M,M,M,M,KAMW 151653Z AUTO 20013KT 10SM CLR 21/16 A2981 RMK AO2 SLP088 T02110156
AMW,2017-04-15 11:55,M,M,M,200.00,14.00,M,29.81,M,10.00,M,CLR,M,M,M,M,M,M,M,M,KAMW 151655Z AUTO 20014KT 10SM CLR A2981 RMK MADISHF
AMW,2017-04-15 12:00,M,M,M,200.00,11.00,M,29.80,M,10.00,M,CLR,M,M,M,M,M,M,M,M,KAMW 151700Z AUTO 20011KT 10SM CLR A2980 RMK MADISHF
AMW,2017-04-15 12:05,M,M,M,200.00,18.00,M,29.80,M,10.00,M,CLR,M,M,M,M,M,M,M,M,KAMW 151705Z AUTO 20018KT 10SM CLR A2980 RMK MADISHF
AMW,2017-04-15 12:10,M,M,M,200.00,16.00,M,29.80,M,10.00,M,CLR,M,M,M,M,M,M,M,M,KAMW 151710Z AUTO 20016KT 10SM CLR A2980 RMK MADISHF
AMW,2017-04-15 12:15,M,M,M,200.00,15.00,M,29.80,M,10.00,M,CLR,M,M,M,M,M,M,M,M,KAMW 151715Z AUTO 20015KT 10SM CLR A2980 RMK MADISHF
AMW,2017-04-15 12:20,M,M,M,200.00,17.00,M,29.80,M,10.00,M,CLR,M,M,M,M,M,M,M,M,KAMW 151720Z AUTO 20017KT 10SM CLR A2980 RMK MADISHF
AMW,2017-04-15 12:25,M,M,M,M,M,M,29.80,M,10.00,M,CLR,M,M,M,M,M,M,M,M,KAMW 151725Z AUTO /////KT 10SM CLR A2980 RMK MADISHF
AMW,2017-04-15 12:30,M,M,M,200.00,17.00,M,29.80,M,10.00,M,CLR,M,M,M,M,M,M,M,M,KAMW 151730Z AUTO 20017KT 10SM CLR A2980 RMK MADISHF
AMW,2017-04-15 12:35,M,M,M,190.00,15.00,M,29.80,M,10.00,M,CLR,M,M,M,M,M,M,M,M,KAMW 151735Z AUTO 19015KT 10SM CLR A2980 RMK MADISHF
AMW,2017-04-15 12:40,M,M,M,190.00,15.00,M,29.81,M,10.00,M,CLR,M,M,M,M,M,M,M,M,KAMW 151740Z AUTO 19015KT 10SM CLR A2981 RMK MADISHF
AMW,2017-04-15 12:45,M,M,M,210.00,17.00,M,29.82,M,10.00,M,CLR,M,M,M,M,M,M,M,M,KAMW 151745Z AUTO 21017KT 10SM CLR A2982 RMK MADISHF
AMW,2017-04-15 12:50,M,M,M,200.00,14.00,M,29.81,M,10.00,M,CLR,M,M,M,M,M,M,M,M,KAMW 151750Z AUTO 20014KT 10SM CLR A2981 RMK MADISHF
AMW,2017-04-15 12:53,71.10,60.10,68.21,200.00,11.00,0.00,29.81,1008.80,10.00,21.00,CLR,M,M,M,M,M,M,M,M,KAMW 151753Z AUTO 20011G21KT 10SM CLR 22/16 A2981 RMK AO2 SLP088 T02170156 10222 20167 55014
AMW,2017-04-15 12:55,M,M,M,210.00,13.00,M,29.82,M,10.00,M,CLR,M,M,M,M,M,M,M,M,KAMW 151755Z AUTO 21013KT 10SM CLR A2982 RMK MADISHF
AMW,2017-04-15 13:00,M,M,M,190.00,10.00,M,29.81,M,10.00,M,CLR,M,M,M,M,M,M,M,M,KAMW 151800Z AUTO 19010KT 10SM CLR A2981 RMK MADISHF
AMW,2017-04-15 13:05,M,M,M,200.00,9.00,M,29.81,M,10.00,M,CLR,M,M,M,M,M,M,M,M,KAMW 151805Z AUTO 20009KT 10SM CLR A2981 RMK MADISHF
AMW,2017-04-15 13:10,M,M,M,220.00,9.00,M,29.80,M,10.00,M,CLR,M,M,M,M,M,M,M,M,KAMW 151810Z AUTO 22009KT 10SM CLR A2980 RMK MADISHF
AMW,2017-04-15 13:15,M,M,M,200.00,9.00,M,29.80,M,10.00,M,CLR,M,M,M,M,M,M,M,M,KAMW 151815Z AUTO 20009KT 10SM CLR A2980 RMK MADISHF
AMW,2017-04-15 13:20,M,M,M,210.00,14.00,M,29.82,M,10.00,M,CLR,M,M,M,M,M,M,M,M,KAMW 151820Z AUTO 21014KT 10SM CLR A2982 RMK MADISHF
AMW,2017-04-15 13:25,M,M,M,210.00,14.00,M,29.82,M,10.00,M,FEW,M,M,M,3399.00,M,M,M,M,KAMW 151825Z AUTO 21014KT 10SM FEW033 A2982 RMK MADISHF
AMW,2017-04-15 13:30,M,M,M,190.00,13.00,M,29.82,M,10.00,M,SCT,M,M,M,3600.00,M,M,M,M,KAMW 151830Z AUTO 19013KT 10SM SCT036 A2982 RMK MADISHF
AMW,2017-04-15 13:35,M,M,M,190.00,11.00,M,29.81,M,10.00,M,BKN,M,M,M,3600.00,M,M,M,M,KAMW 151835Z AUTO 19011KT 10SM BKN036 A2981 RMK MADISHF
AMW,2017-04-15 13:40,M,M,M,210.00,11.00,M,29.81,M,10.00,M,BKN,M,M,M,3600.00,M,M,M,M,KAMW 151840Z AUTO 21011KT 10SM BKN036 A2981 RMK MADISHF
AMW,2017-04-15 13:45,M,M,M,200.00,10.00,M,29.82,M,10.00,M,BKN,M,M,M,3600.00,M,M,M,M,KAMW 151845Z AUTO 20010KT 10SM BKN036 A2982 RMK MADISHF
AMW,2017-04-15 13:50,M,M,M,190.00,11.00,M,29.81,M,10.00,M,BKN,M,M,M,3600.00,M,M,M,M,KAMW 151850Z AUTO 19011KT 10SM BKN036 A2981 RMK MADISHF
AMW,2017-04-15 13:53,71.10,61.00,70.42,200.00,12.00,0.00,29.82,1008.90,10.00,M,BKN,M,M,M,3600.00,M,M,M,M,KAMW 151853Z AUTO 20012KT 10SM BKN036 22/16 A2982 RMK AO2 SLP089 T02170161
AMW,2017-04-15 13:55,M,M,M,190.00,12.00,M,29.82,M,10.00,M,BKN,M,M,M,3600.00,M,M,M,M,KAMW 151855Z AUTO 19012KT 10SM BKN036 A2982 RMK MADISHF
AMW,2017-04-15 14:00,M,M,M,200.00,11.00,M,29.82,M,10.00,M,BKN,M,M,M,3600.00,M,M,M,M,KAMW 151900Z AUTO 20011KT 10SM BKN036 A2982 RMK MADISHF
AMW,2017-04-15 14:05,M,M,M,210.00,12.00,M,29.82,M,10.00,M,BKN,M,M,M,3399.00,M,M,M,M,KAMW 151905Z AUTO 21012KT 10SM BKN033 A2982 RMK MADISHF
AMW,2017-04-15 14:10,M,M,M,200.00,10.00,M,29.82,M,10.00,M,BKN,M,M,M,3399.00,M,M,M,M,KAMW 151910Z AUTO 20010KT 10SM BKN033 A2982 RMK MADISHF
AMW,2017-04-15 14:15,M,M,M,190.00,11.00,M,29.82,M,10.00,M,OVC,M,M,M,3500.00,M,M,M,M,KAMW 151915Z AUTO 19011KT 10SM OVC035 A2982 RMK MADISHF
AMW,2017-04-15 14:20,M,M,M,200.00,12.00,M,29.83,M,10.00,M,OVC,M,M,M,3700.00,M,M,M,M,KAMW 151920Z AUTO 20012KT 10SM OVC037 A2983 RMK MADISHF
AMW,2017-04-15 14:25,M,M,M,210.00,9.00,M,29.83,M,10.00,M,OVC,M,M,M,3700.00,M,M,M,M,KAMW 151925Z AUTO 21009KT 10SM OVC037 A2983 RMK MADISHF
AMW,2017-04-15 14:30,M,M,M,200.00,10.00,M,29.83,M,10.00,M,OVC,M,M,M,3700.00,M,M,M,M,KAMW 151930Z AUTO 20010KT 10SM OVC037 A2983 RMK  LTG DSNT NW! MADISHF
AMW,2017-04-15 14:35,M,M,M,190.00,10.00,M,29.83,M,10.00,M,OVC,M,M,M,3500.00,M,M,M,M,KAMW 151935Z AUTO 19010KT 10SM OVC035 A2983 RMK  LTG DSNT NW! MADISHF
AMW,2017-04-15 14:40,M,M,M,190.00,10.00,M,29.82,M,10.00,M,OVC,M,M,M,3500.00,M,M,M,M,KAMW 151940Z AUTO 19010KT 10SM OVC035 A2982 RMK  LTG DSNT NW! MADISHF
AMW,2017-04-15 14:45,M,M,M,190.00,11.00,M,29.82,M,10.00,M,OVC,M,M,M,3500.00,M,M,M,M,KAMW 151945Z AUTO 19011KT 10SM OVC035 A2982 RMK MADISHF
AMW,2017-04-15 14:50,M,M,M,180.00,10.00,M,29.82,M,10.00,M,OVC,M,M,M,3500.00,M,M,M,M,KAMW 151950Z AUTO 18010KT 10SM OVC035 A2982 RMK MADISHF
AMW,2017-04-15 14:53,69.10,61.00,75.40,180.00,10.00,0.00,29.82,1009.20,10.00,M,OVC,M,M,M,3500.00,M,M,M,M,KAMW 151953Z AUTO 18010KT 10SM OVC035 21/16 A2982 RMK AO2 SLP092 T02060161
AMW,2017-04-15 14:55,M,M,M,180.00,11.00,M,29.82,M,10.00,M,OVC,M,M,M,3500.00,M,M,M,M,KAMW 151955Z AUTO 18011KT 10SM OVC035 A2982 RMK MADISHF
AMW,2017-04-15 15:00,M,M,M,180.00,9.00,M,29.82,M,10.00,M,BKN,OVC,M,M,3500.00,4300.00,M,M,M,KAMW 152000Z AUTO 18009KT 10SM BKN035 OVC043 A2982 RMK MADISHF
AMW,2017-04-15 15:05,M,M,M,190.00,10.00,M,29.82,M,10.00,M,BKN,OVC,M,M,3600.00,4300.00,M,M,M,KAMW 152005Z AUTO 19010KT 10SM BKN036 OVC043 A2982 RMK MADISHF
AMW,2017-04-15 15:10,M,M,M,180.00,11.00,M,29.82,M,10.00,M,BKN,OVC,M,M,3600.00,4400.00,M,M,M,KAMW 152010Z AUTO 18011KT 10SM BKN036 OVC044 A2982 RMK MADISHF
AMW,2017-04-15 15:15,M,M,M,180.00,11.00,M,29.82,M,10.00,M,OVC,M,M,M,3900.00,M,M,M,M,KAMW 152015Z AUTO 18011KT 10SM OVC039 A2982 RMK MADISHF
AMW,2017-04-15 15:20,M,M,M,170.00,11.00,M,29.82,M,10.00,M,OVC,M,M,M,4100.00,M,M,M,M,KAMW 152020Z AUTO 17011KT 10SM OVC041 A2982 RMK MADISHF
AMW,2017-04-15 15:25,M,M,M,180.00,11.00,M,29.82,M,10.00,M,OVC,M,M,M,4100.00,M,M,M,M,KAMW 152025Z AUTO 18011KT 10SM OVC041 A2982 RMK MADISHF
AMW,2017-04-15 15:30,M,M,M,180.00,10.00,M,29.82,M,10.00,M,OVC,M,M,M,3900.00,M,M,M,M,KAMW 152030Z AUTO 18010KT 10SM OVC039 A2982 RMK MADISHF
AMW,2017-04-15 15:35,M,M,M,180.00,9.00,M,29.82,M,10.00,M,OVC,M,M,M,3900.00,M,M,M,M,KAMW 152035Z AUTO 18009KT 10SM OVC039 A2982 RMK MADISHF
AMW,2017-04-15 15:40,M,M,M,180.00,7.00,M,29.81,M,10.00,M,OVC,M,M,M,3900.00,M,M,M,M,KAMW 152040Z AUTO 18007KT 10SM OVC039 A2981 RMK MADISHF
AMW,2017-04-15 15:45,M,M,M,190.00,8.00,M,29.81,M,10.00,M,OVC,M,M,M,3900.00,M,M,M,M,KAMW 152045Z AUTO 19008KT 10SM OVC039 A2981 RMK MADISHF
AMW,2017-04-15 15:50,M,M,M,190.00,8.00,M,29.81,M,10.00,M,OVC,M,M,M,3700.00,M,M,M,M,KAMW 152050Z AUTO 19008KT 10SM OVC037 A2981 RMK MADISHF
AMW,2017-04-15 15:53,69.10,61.00,75.40,190.00,7.00,0.00,29.81,1008.80,10.00,M,OVC,M,M,M,3700.00,M,M,M,M,KAMW 152053Z AUTO 19007KT 10SM OVC037 21/16 A2981 RMK AO2 SLP088 T02060161 58001
AMW,2017-04-15 15:55,M,M,M,180.00,8.00,M,29.81,M,10.00,M,OVC,M,M,M,3700.00,M,M,M,M,KAMW 152055Z AUTO 18008KT 10SM OVC037 A2981 RMK MADISHF
AMW,2017-04-15 16:00,M,M,M,180.00,8.00,M,29.81,M,10.00,M,OVC,M,M,M,3700.00,M,M,M,M,KAMW 152100Z AUTO 18008KT 10SM OVC037 A2981 RMK MADISHF
AMW,2017-04-15 16:05,M,M,M,180.00,6.00,M,29.80,M,10.00,M,OVC,M,M,M,3700.00,M,M,M,M,KAMW 152105Z AUTO 18006KT 10SM OVC037 A2980 RMK MADISHF
AMW,2017-04-15 16:10,M,M,M,170.00,6.00,M,29.80,M,10.00,M,BKN,OVC,M,M,3700.00,4400.00,M,M,M,KAMW 152110Z AUTO 17006KT 10SM BKN037 OVC044 A2980 RMK MADISHF
AMW,2017-04-15 16:15,M,M,M,170.00,5.00,M,29.80,M,10.00,M,BKN,BKN,OVC,M,3700.00,4400.00,5000.00,M,M,KAMW 152115Z AUTO 17005KT 10SM BKN037 BKN044 OVC050 A2980 RMK  LTG DSNT W AND NW! MADISHF
AMW,2017-04-15 16:20,M,M,M,190.00,5.00,M,29.80,M,10.00,M,FEW,BKN,OVC,M,3399.00,4200.00,8500.00,M,M,KAMW 152120Z AUTO 19005KT 10SM FEW033 BKN042 OVC085 A2980 RMK  LTG DSNT W AND NW! MADISHF
AMW,2017-04-15 16:25,M,M,M,190.00,5.00,M,29.79,M,10.00,M,FEW,BKN,OVC,M,3399.00,4200.00,7999.00,M,M,KAMW 152125Z AUTO 19005KT 10SM FEW033 BKN042 OVC079 A2979 RMK  LTG DSNT W AND NW! MADISHF
AMW,2017-04-15 16:30,M,M,M,170.00,5.00,M,29.79,M,10.00,M,SCT,BKN,OVC,M,4300.00,5000.00,7999.00,M,M,KAMW 152130Z AUTO 17005KT 10SM SCT043 BKN050 OVC079 A2979 RMK  LTG DSNT W AND NW! MADISHF
AMW,2017-04-15 16:35,M,M,M,160.00,6.00,M,29.78,M,10.00,M,SCT,BKN,OVC,M,4500.00,5500.00,9000.00,M,M,KAMW 152135Z AUTO 16006KT 10SM SCT045 BKN055 OVC090 A2978 RMK  LTG DSNT W AND NW! MADISHF
AMW,2017-04-15 16:40,M,M,M,170.00,7.00,M,29.77,M,10.00,M,FEW,BKN,OVC,M,4600.00,7000.00,9000.00,M,M,KAMW 152140Z AUTO 17007KT 10SM FEW046 BKN070 OVC090 A2977 RMK  LTG DSNT W-N! MADISHF
AMW,2017-04-15 16:45,M,M,M,150.00,9.00,M,29.76,M,10.00,M,SCT,BKN,OVC,M,5000.00,6500.00,9000.00,M,M,KAMW 152145Z AUTO 15009KT 10SM SCT050 BKN065 OVC090 A2976 RMK  LTG DSNT W-N! MADISHF
AMW,2017-04-15 16:50,M,M,M,150.00,8.00,M,29.76,M,10.00,M,FEW,SCT,OVC,M,5000.00,6500.00,9000.00,M,M,KAMW 152150Z AUTO 15008KT 10SM FEW050 SCT065 OVC090 A2976 RMK  LTG DSNT W-N! MADISHF
AMW,2017-04-15 16:53,70.00,62.10,76.01,150.00,8.00,0.00,29.76,1006.90,10.00,M,FEW,SCT,OVC,M,5000.00,6500.00,9000.00,M,M,KAMW 152153Z AUTO 15008KT 10SM FEW050 SCT065 OVC090 21/17 A2976 RMK AO2 LTG DSNT W-N SLP069 T02110167
AMW,2017-04-15 16:55,M,M,M,150.00,8.00,M,29.75,M,10.00,M,FEW,BKN,OVC,M,5000.00,9000.00,11000.00,M,M,KAMW 152155Z AUTO 15008KT 10SM FEW050 BKN090 OVC110 A2975 RMK  LTG DSNT W-N! MADISHF
AMW,2017-04-15 17:00,M,M,M,140.00,9.00,M,29.75,M,10.00,M,FEW,OVC,M,M,7000.00,10000.00,M,M,M,KAMW 152200Z AUTO 14009KT 10SM FEW070 OVC100 A2975 RMK  LTG DSNT W-N! MADISHF
AMW,2017-04-15 17:05,M,M,M,140.00,8.00,M,29.75,M,10.00,M,BKN,M,M,M,9500.00,M,M,M,M,KAMW 152205Z AUTO 14008KT 10SM BKN095 A2975 RMK  LTG DSNT W-N! MADISHF
AMW,2017-04-15 17:08,70.00,62.10,76.01,150.00,7.00,0.00,29.76,M,10.00,M,BKN,M,M,M,10000.00,M,M,M,VCTS,KAMW 152208Z AUTO 15007KT 10SM VCTS BKN100 21/17 A2976 RMK AO2 LTG DSNT W-N T02110167
AMW,2017-04-15 17:10,M,M,M,150.00,5.00,M,29.76,M,10.00,M,BKN,M,M,M,9500.00,M,M,M,M,KAMW 152210Z AUTO 15005KT 10SM BKN095 A2976 RMK  LTG DSNT SW-N! MADISHF
AMW,2017-04-15 17:15,M,M,M,140.00,7.00,M,29.75,M,10.00,M,FEW,OVC,M,M,5500.00,10000.00,M,M,M,KAMW 152215Z AUTO 14007KT 10SM FEW055 OVC100 A2975 RMK  LTG DSNT SW-N! MADISHF
AMW,2017-04-15 17:20,M,M,M,150.00,6.00,M,29.75,M,10.00,M,SCT,BKN,M,M,5500.00,10000.00,M,M,M,KAMW 152220Z AUTO 15006KT 10SM SCT055 BKN100 A2975 RMK  LTG DSNT ALQDS! MADISHF
AMW,2017-04-15 17:25,M,M,M,150.00,8.00,M,29.74,M,10.00,M,BKN,BKN,M,M,5500.00,10000.00,M,M,M,KAMW 152225Z AUTO 15008KT 10SM BKN055 BKN100 A2974 RMK  LTG DSNT ALQDS! MADISHF
AMW,2017-04-15 17:30,M,M,M,150.00,9.00,M,29.74,M,10.00,M,BKN,BKN,M,M,5500.00,9000.00,M,M,M,KAMW 152230Z AUTO 15009KT 10SM BKN055 BKN090 A2974 RMK  LTG DSNT ALQDS! MADISHF
AMW,2017-04-15 17:35,M,M,M,160.00,9.00,M,29.74,M,10.00,M,FEW,BKN,OVC,M,4900.00,6000.00,9500.00,M,M,KAMW 152235Z AUTO 16009KT 10SM FEW049 BKN060 OVC095 A2974 RMK  LTG DSNT ALQDS! MADISHF
AMW,2017-04-15 17:40,M,M,M,160.00,6.00,M,29.75,M,10.00,M,SCT,BKN,OVC,M,4900.00,5500.00,7000.00,M,M,KAMW 152240Z AUTO 16006KT 10SM SCT049 BKN055 OVC070 A2975 RMK  LTG DSNT ALQDS! MADISHF
AMW,2017-04-15 17:45,M,M,M,260.00,5.00,M,29.76,M,10.00,M,BKN,OVC,M,M,4700.00,5500.00,M,M,M,KAMW 152245Z AUTO 26005KT 10SM BKN047 OVC055 A2976 RMK VRB05KT  MADISHF
AMW,2017-04-15 17:50,M,M,M,310.00,12.00,M,29.76,M,9.00,M,BKN,OVC,M,M,4500.00,6000.00,M,M,-RA,KAMW 152250Z AUTO 31012KT 9SM -RA BKN045 OVC060 A2976 RMK  LTG DSNT ALQDS! MADISHF
AMW,2017-04-15 17:51,68.00,62.60,82.86,320.00,11.00,0.00,29.76,M,8.00,M,BKN,OVC,M,M,4300.00,6000.00,M,M,-TSRA,KAMW 152251Z AUTO 32011KT 8SM -TSRA BKN043 OVC060 20/17 A2976 RMK AO2 LTG DSNT ALQDS RAB48 TSB45 P0000
AMW,2017-04-15 17:53,68.00,63.00,84.03,340.00,11.00,0.01,29.75,1006.60,7.00,M,BKN,OVC,M,M,4300.00,6000.00,M,M,-TSRA,KAMW 152253Z AUTO 34011KT 7SM -TSRA BKN043 OVC060 20/17 A2975 RMK AO2 LTG DSNT ALQDS RAB48 TSB45 SLP066 P0001 T02000172
AMW,2017-04-15 17:55,M,M,M,M,M,0.01,29.74,M,6.00,M,BKN,BKN,OVC,M,3999.00,4800.00,6000.00,M,RA BR,KAMW 152255Z AUTO /////KT 6SM RA BR BKN039 BKN048 OVC060 A2974 RMK P0001  LTG DSNT ALQDS! MADISHF
AMW,2017-04-15 18:00,M,M,M,M,M,0.11,29.77,M,2.50,M,FEW,BKN,OVC,M,2700.00,3800.00,4600.00,M,-RA BR,KAMW 152300Z AUTO /////KT 2 1/2SM -RA BR FEW027 BKN038 OVC046 A2977 RMK P0011  LTG DSNT W-NE! MADISHF
AMW,2017-04-15 18:01,66.00,64.00,93.26,310.00,22.00,0.18,29.76,M,1.25,32.00,FEW,BKN,OVC,M,2700.00,3800.00,4600.00,M,+TSRA BR,KAMW 152301Z AUTO 31022G32KT 1 1/4SM +TSRA BR FEW027 BKN038 OVC046 19/18 A2976 RMK AO2 PK WND 30032/2300 WSHFT 2247 LTG DSNT NW-NE P0018 T01890178
AMW,2017-04-15 18:05,M,M,M,M,M,0.23,29.77,M,0.75,M,FEW,BKN,OVC,M,1100.00,3999.00,4800.00,M,+RA BR,KAMW 152305Z AUTO /////KT 1SM +RA BR FEW011 BKN039 OVC048 A2977 RMK P0023  LTG DSNT NW-NE! MADISHF
AMW,2017-04-15 18:09,64.90,64.90,100.00,270.00,7.00,0.25,29.77,M,0.75,32.00,FEW,BKN,OVC,M,1100.00,3200.00,4200.00,M,TSRA BR,KAMW 152309Z AUTO 27007G32KT 3/4SM TSRA BR FEW011 BKN032 OVC042 18/18 A2977 RMK AO2 PK WND 30032/2300 WSHFT 2247 LTG DSNT NE AND NW P0025 T01830183
AMW,2017-04-15 18:10,M,M,M,270.00,7.00,0.25,29.77,M,0.75,M,FEW,SCT,OVC,M,1100.00,2800.00,4200.00,M,RA BR,KAMW 152310Z AUTO 27007KT 1SM RA BR FEW011 SCT028 OVC042 A2977 RMK P0025  LTG DSNT NE AND NW! MADISHF
AMW,2017-04-15 18:12,64.90,64.90,100.00,270.00,8.00,0.26,29.77,M,2.00,M,SCT,OVC,M,M,2800.00,4200.00,M,M,-TSRA BR,KAMW 152312Z AUTO 27008KT 2SM -TSRA BR SCT028 OVC042 18/18 A2977 RMK AO2 PK WND 30032/2300 WSHFT 2247 LTG DSNT NW-NE P0026 T01830183
AMW,2017-04-15 18:15,M,M,M,270.00,9.00,0.26,29.77,M,5.00,M,SCT,BKN,OVC,M,2800.00,3800.00,4600.00,M,-RA BR,KAMW 152315Z AUTO 27009KT 5SM -RA BR SCT028 BKN038 OVC046 A2977 RMK P0026  LTG DSNT NW-E! MADISHF
AMW,2017-04-15 18:19,66.00,64.00,93.26,300.00,8.00,0.26,29.76,M,9.00,M,SCT,BKN,OVC,M,2800.00,3800.00,4600.00,M,-TSRA,KAMW 152319Z AUTO 30008KT 9SM -TSRA SCT028 BKN038 OVC046 19/18 A2976 RMK AO2 PK WND 30032/2300 WSHFT 2247 LTG DSNT NW-E P0026 T01890178
AMW,2017-04-15 18:20,M,M,M,300.00,7.00,0.26,29.76,M,9.00,M,SCT,BKN,OVC,M,2800.00,3800.00,6000.00,M,-RA,KAMW 152320Z AUTO 30007KT 9SM -RA SCT028 BKN038 OVC060 A2976 RMK P0026  LTG DSNT NW-E! MADISHF
AMW,2017-04-15 18:25,M,M,M,310.00,7.00,0.26,29.77,M,10.00,M,SCT,BKN,OVC,M,2800.00,3800.00,6000.00,M,-RA,KAMW 152325Z AUTO 31007KT 10SM -RA SCT028 BKN038 OVC060 A2977 RMK P0026  LTG DSNT NW-E! MADISHF
AMW,2017-04-15 18:29,64.90,64.90,100.00,330.00,6.00,0.26,29.76,M,10.00,M,FEW,BKN,OVC,M,2800.00,4400.00,6000.00,M,VCTS -RA,KAMW 152329Z AUTO 33006KT 10SM VCTS -RA FEW028 BKN044 OVC060 18/18 A2976 RMK AO2 PK WND 30032/2300 WSHFT 2247 LTG DSNT ALQDS TSE23 P0026 T01830183
AMW,2017-04-15 18:30,M,M,M,330.00,5.00,0.26,29.76,M,10.00,M,FEW,BKN,OVC,M,2600.00,4400.00,6000.00,M,-RA,KAMW 152330Z AUTO 33005KT 10SM -RA FEW026 BKN044 OVC060 A2976 RMK P0026  LTG DSNT ALQDS! MADISHF
AMW,2017-04-15 18:35,M,M,M,340.00,5.00,0.26,29.76,M,10.00,M,FEW,BKN,OVC,M,2900.00,4400.00,5500.00,M,M,KAMW 152335Z AUTO 34005KT 10SM FEW029 BKN044 OVC055 A2976 RMK P0026  LTG DSNT ALQDS! MADISHF
AMW,2017-04-15 18:40,M,M,M,340.00,5.00,0.26,29.76,M,10.00,M,FEW,SCT,OVC,M,3600.00,4600.00,5500.00,M,M,KAMW 152340Z AUTO 34005KT 10SM FEW036 SCT046 OVC055 A2976 RMK P0026  LTG DSNT ALQDS! MADISHF
AMW,2017-04-15 18:42,64.90,64.90,100.00,350.00,5.00,0.26,29.76,M,10.00,M,SCT,OVC,M,M,4300.00,5500.00,M,M,M,KAMW 152342Z AUTO 35005KT 10SM SCT043 OVC055 18/18 A2976 RMK AO2 PK WND 30032/2300 WSHFT 2247 LTG DSNT ALQDS RAE31 TSE23 P0026 T01830183
AMW,2017-04-15 18:45,M,M,M,340.00,4.00,0.26,29.76,M,9.00,M,BKN,OVC,M,M,4300.00,6000.00,M,M,M,KAMW 152345Z AUTO 34004KT 9SM BKN043 OVC060 A2976 RMK P0026  LTG DSNT ALQDS! MADISHF
AMW,2017-04-15 18:50,M,M,M,340.00,3.00,0.26,29.75,M,9.00,M,BKN,OVC,M,M,4300.00,5500.00,M,M,M,KAMW 152350Z AUTO 34003KT 9SM BKN043 OVC055 A2975 RMK P0026  LTG DSNT ALQDS! MADISHF
AMW,2017-04-15 18:53,64.90,64.90,100.00,360.00,3.00,0.26,29.76,1007.00,9.00,M,SCT,OVC,M,M,4300.00,5500.00,M,M,VCTS,KAMW 152353Z AUTO 36003KT 9SM VCTS SCT043 OVC055 18/18 A2976 RMK AO2 PK WND 30032/2300 WSHFT 2247 LTG DSNT N-SE RAE31 TSE23 SLP070 P0026 60027 T01830183 10222 20183 53000
AMW,2017-04-15 18:55,M,M,M,360.00,3.00,M,29.76,M,9.00,M,SCT,OVC,M,M,4300.00,5500.00,M,M,M,KAMW 152355Z AUTO 36003KT 9SM SCT043 OVC055 A2976 RMK  LTG DSNT N-SE! MADISHF
AMW,2017-04-15 19:00,M,M,M,340.00,7.00,M,29.76,M,8.00,M,SCT,OVC,M,M,4300.00,5500.00,M,M,M,KAMW 160000Z AUTO 34007KT 8SM SCT043 OVC055 A2976 RMK  LTG DSNT ALQDS! MADISHF
AMW,2017-04-15 19:04,64.90,64.90,100.00,340.00,6.00,0.02,29.76,M,6.00,M,FEW,BKN,OVC,M,4300.00,5500.00,7000.00,M,-TSRA BR,KAMW 160004Z AUTO 34006KT 6SM -TSRA BR FEW043 BKN055 OVC070 18/18 A2976 RMK AO2 LTG DSNT ALQDS RAB01 TSB2358 P0002 T01830183
AMW,2017-04-15 19:05,M,M,M,340.00,6.00,0.02,29.76,M,6.00,M,FEW,BKN,OVC,M,4100.00,5000.00,7000.00,M,-RA BR,KAMW 160005Z AUTO 34006KT 6SM -RA BR FEW041 BKN050 OVC070 A2976 RMK P0002  LTG DSNT ALQDS! MADISHF
AMW,2017-04-15 19:10,M,M,M,350.00,5.00,0.02,29.75,M,6.00,M,SCT,BKN,OVC,M,4100.00,5000.00,7000.00,M,-RA BR,KAMW 160010Z AUTO 35005KT 6SM -RA BR SCT041 BKN050 OVC070 A2975 RMK P0002  LTG DSNT ALQDS! MADISHF
AMW,2017-04-15 19:15,M,M,M,350.00,6.00,0.02,29.75,M,9.00,M,SCT,BKN,M,M,4300.00,5500.00,M,M,-RA,KAMW 160015Z AUTO 35006KT 9SM -RA SCT043 BKN055 A2975 RMK P0002  LTG DSNT ALQDS! MADISHF
AMW,2017-04-15 19:20,M,M,M,340.00,7.00,0.02,29.75,M,10.00,M,SCT,OVC,M,M,4100.00,5500.00,M,M,-RA,KAMW 160020Z AUTO 34007KT 10SM -RA SCT041 OVC055 A2975 RMK P0002  LTG DSNT NE AND E AND SW! MADISHF
AMW,2017-04-15 19:25,M,M,M,320.00,8.00,0.03,29.75,M,9.00,M,BKN,BKN,OVC,M,3900.00,4700.00,6000.00,M,-RA,KAMW 160025Z AUTO 32008KT 9SM -RA BKN039 BKN047 OVC060 A2975 RMK P0003  LTG DSNT NE AND E AND SW! MADISHF
AMW,2017-04-15 19:30,M,M,M,280.00,7.00,0.03,29.76,M,7.00,M,FEW,BKN,OVC,M,2600.00,4100.00,5500.00,M,-RA,KAMW 160030Z AUTO 28007KT 7SM -RA FEW026 BKN041 OVC055 A2976 RMK P0003  LTG DSNT NE AND E AND SW! MADISHF
AMW,2017-04-15 19:35,64.90,64.00,96.90,310.00,10.00,0.20,29.76,M,1.75,M,FEW,BKN,OVC,M,1600.00,4100.00,6000.00,M,+TSRA BR,KAMW 160035Z AUTO 31010KT 1 3/4SM +TSRA BR FEW016 BKN041 OVC060 18/18 A2976 RMK AO2 LTG DSNT NE AND E RAB01 TSB2358 P0020 T01830178
AMW,2017-04-15 19:40,M,M,M,320.00,10.00,0.29,29.75,M,1.25,M,SCT,BKN,OVC,M,1800.00,4100.00,8500.00,M,+RA BR,KAMW 160040Z AUTO 32010KT 1 1/2SM +RA BR SCT018 BKN041 OVC085 A2975 RMK P0028  LTG DSNT NE AND E! MADISHF
AMW,2017-04-15 19:45,M,M,M,340.00,11.00,0.29,29.74,M,2.50,M,SCT,BKN,OVC,M,2200.00,3999.00,9000.00,M,-RA BR,KAMW 160045Z AUTO 34011KT 2 1/2SM -RA BR SCT022 BKN039 OVC090 A2974 RMK P0028  LTG DSNT ALQDS! MADISHF
AMW,2017-04-15 19:46,64.90,64.00,96.90,340.00,11.00,0.29,29.74,M,3.00,18.00,SCT,BKN,OVC,M,2200.00,4000.00,9000.00,M,-TSRA BR,KAMW 160046Z AUTO 34011G18KT 3SM -TSRA BR SCT022 BKN040 OVC090 18/18 A2974 RMK AO2 LTG DSNT ALQDS RAB01 TSB2358 P0029 T01830178
AMW,2017-04-15 19:50,M,M,M,330.00,9.00,0.29,29.74,M,10.00,M,FEW,BKN,OVC,M,2200.00,4300.00,9000.00,M,-RA,KAMW 160050Z AUTO 33009KT 10SM -RA FEW022 BKN043 OVC090 A2974 RMK P0028  LTG DSNT ALQDS! MADISHF
AMW,2017-04-15 19:53,64.90,64.00,96.90,340.00,8.00,0.29,29.74,1006.40,10.00,M,FEW,BKN,OVC,M,1900.00,4300.00,9000.00,M,TS,KAMW 160053Z AUTO 34008KT 10SM TS FEW019 BKN043 OVC090 18/18 A2974 RMK AO2 LTG DSNT ALQDS RAB01E51 TSB2358 SLP064 P0029 T01830178
AMW,2017-04-15 19:55,M,M,M,340.00,8.00,M,29.74,M,10.00,M,FEW,BKN,OVC,M,2200.00,4300.00,9000.00,M,M,KAMW 160055Z AUTO 34008KT 10SM FEW022 BKN043 OVC090 A2974 RMK  LTG DSNT ALQDS! MADISHF
AMW,2017-04-15 20:00,M,M,M,340.00,5.00,M,29.73,M,10.00,M,FEW,SCT,BKN,M,1999.00,4300.00,9000.00,M,M,KAMW 160100Z AUTO 34005KT 10SM FEW019 SCT043 BKN090 A2973 RMK  LTG DSNT ALQDS! MADISHF
AMW,2017-04-15 20:05,M,M,M,10.00,4.00,M,29.73,M,10.00,M,FEW,FEW,BKN,M,2500.00,4300.00,9000.00,M,M,KAMW 160105Z AUTO 01004KT 10SM FEW025 FEW043 BKN090 A2973 RMK  LTG DSNT ALQDS! MADISHF
AMW,2017-04-15 20:06,64.00,64.00,100.00,10.00,4.00,0.00,29.73,M,9.00,M,FEW,SCT,M,M,4400.00,9000.00,M,M,M,KAMW 160106Z AUTO 01004KT 9SM FEW044 SCT090 18/18 A2973 RMK AO2 LTG DSNT ALQDS TSE00 T01780178
AMW,2017-04-15 20:10,M,M,M,0.00,0.00,M,29.73,M,9.00,M,FEW,SCT,M,M,4400.00,9000.00,M,M,M,KAMW 160110Z AUTO 00000KT 9SM FEW044 SCT090 A2973 RMK  LTG DSNT ALQDS! MADISHF
AMW,2017-04-15 20:15,M,M,M,40.00,3.00,M,29.74,M,10.00,M,FEW,FEW,SCT,M,4400.00,8500.00,11000.00,M,M,KAMW 160115Z AUTO 04003KT 10SM FEW044 FEW085 SCT110 A2974 RMK  LTG DSNT ALQDS! MADISHF
AMW,2017-04-15 20:20,M,M,M,0.00,0.00,M,29.75,M,10.00,M,FEW,SCT,M,M,9000.00,11000.00,M,M,M,KAMW 160120Z AUTO 00000KT 10SM FEW090 SCT110 A2975 RMK  LTG DSNT E-SW! MADISHF
AMW,2017-04-15 20:25,M,M,M,0.00,0.00,M,29.75,M,10.00,M,FEW,FEW,M,M,9000.00,11000.00,M,M,M,KAMW 160125Z AUTO 00000KT 10SM FEW090 FEW110 A2975 RMK  LTG DSNT E-SW! MADISHF
AMW,2017-04-15 20:26,64.00,64.00,100.00,0.00,0.00,0.00,29.75,M,10.00,M,FEW,FEW,M,M,9000.00,11000.00,M,M,VCTS,KAMW 160126Z AUTO 00000KT 10SM VCTS FEW090 FEW110 18/18 A2975 RMK AO2 LTG DSNT E-SW TSE00 T01780178
AMW,2017-04-15 20:30,M,M,M,0.00,0.00,M,29.76,M,10.00,M,FEW,SCT,M,M,7999.00,11000.00,M,M,M,KAMW 160130Z AUTO 00000KT 10SM FEW079 SCT110 A2976 RMK  LTG DSNT E-SW! MADISHF
AMW,2017-04-15 20:35,M,M,M,0.00,0.00,M,29.77,M,10.00,M,FEW,FEW,SCT,M,7500.00,9000.00,11000.00,M,M,KAMW 160135Z AUTO 00000KT 10SM FEW075 FEW090 SCT110 A2977 RMK  LTG DSNT E-SW! MADISHF
AMW,2017-04-15 20:40,M,M,M,0.00,0.00,M,29.78,M,10.00,M,FEW,SCT,SCT,M,7500.00,9000.00,11000.00,M,M,KAMW 160140Z AUTO 00000KT 10SM FEW075 SCT090 SCT110 A2978 RMK  LTG DSNT E-SW! MADISHF
AMW,2017-04-15 20:45,M,M,M,0.00,0.00,M,29.78,M,10.00,M,FEW,BKN,M,M,7999.00,9500.00,M,M,M,KAMW 160145Z AUTO 00000KT 10SM FEW079 BKN095 A2978 RMK  LTG DSNT E-SW! MADISHF
AMW,2017-04-15 20:50,M,M,M,0.00,0.00,M,29.78,M,10.00,M,FEW,SCT,BKN,M,6000.00,7500.00,9000.00,M,M,KAMW 160150Z AUTO 00000KT 10SM FEW060 SCT075 BKN090 A2978 RMK  LTG DSNT E-SW! MADISHF
AMW,2017-04-15 20:53,62.10,62.10,100.00,140.00,3.00,0.00,29.78,1007.80,10.00,M,FEW,SCT,BKN,M,6000.00,7500.00,9000.00,M,VCTS,KAMW 160153Z AUTO 14003KT 10SM VCTS FEW060 SCT075 BKN090 17/17 A2978 RMK AO2 LTG DSNT E-SW TSE00 SLP078 T01670167
AMW,2017-04-15 20:55,M,M,M,170.00,3.00,M,29.78,M,9.00,M,FEW,BKN,BKN,M,6000.00,7999.00,9000.00,M,M,KAMW 160155Z AUTO 17003KT 9SM FEW060 BKN079 BKN090 A2978 RMK  LTG DSNT E-SW! MADISHF
AMW,2017-04-15 21:00,M,M,M,180.00,4.00,M,29.78,M,8.00,M,SCT,BKN,BKN,M,6500.00,7999.00,9500.00,M,M,KAMW 160200Z AUTO 18004KT 8SM SCT065 BKN079 BKN095 A2978 RMK  LTG DSNT ALQDS! MADISHF
AMW,2017-04-15 21:05,M,M,M,190.00,6.00,M,29.79,M,8.00,M,SCT,BKN,BKN,M,6000.00,7500.00,9500.00,M,M,KAMW 160205Z AUTO 19006KT 8SM SCT060 BKN075 BKN095 A2979 RMK  LTG DSNT ALQDS! MADISHF
AMW,2017-04-15 21:10,M,M,M,190.00,7.00,M,29.80,M,8.00,M,FEW,BKN,BKN,M,4700.00,7000.00,9000.00,M,M,KAMW 160210Z AUTO 19007KT 8SM FEW047 BKN070 BKN090 A2980 RMK  LTG DSNT ALQDS! MADISHF
AMW,2017-04-15 21:13,64.00,64.00,100.00,190.00,9.00,0.00,29.80,M,9.00,M,FEW,BKN,OVC,M,4700.00,7000.00,9500.00,M,M,KAMW 160213Z AUTO 19009KT 9SM FEW047 BKN070 OVC095 18/18 A2980 RMK AO2 LTG DSNT ALQDS T01780178
AMW,2017-04-15 21:15,M,M,M,190.00,9.00,M,29.80,M,9.00,M,FEW,BKN,OVC,M,4700.00,7500.00,9500.00,M,M,KAMW 160215Z AUTO 19009KT 9SM FEW047 BKN075 OVC095 A2980 RMK  LTG DSNT ALQDS! MADISHF
AMW,2017-04-15 21:20,M,M,M,210.00,7.00,M,29.80,M,10.00,M,FEW,SCT,BKN,M,4700.00,5500.00,7000.00,M,M,KAMW 160220Z AUTO 21007KT 10SM FEW047 SCT055 BKN070 A2980 RMK  LTG DSNT ALQDS! MADISHF
AMW,2017-04-15 21:23,64.00,64.00,100.00,220.00,6.00,0.00,29.80,M,10.00,M,FEW,FEW,BKN,M,4700.00,5500.00,7000.00,M,VCTS,KAMW 160223Z AUTO 22006KT 10SM VCTS FEW047 FEW055 BKN070 18/18 A2980 RMK AO2 LTG DSNT ALQDS T01780178
AMW,2017-04-15 21:25,M,M,M,240.00,5.00,M,29.79,M,10.00,M,FEW,BKN,OVC,M,4700.00,7000.00,9000.00,M,M,KAMW 160225Z AUTO 24005KT 10SM FEW047 BKN070 OVC090 A2979 RMK  LTG DSNT ALQDS! MADISHF
AMW,2017-04-15 21:30,M,M,M,260.00,4.00,M,29.79,M,10.00,M,FEW,BKN,BKN,M,5000.00,7000.00,9000.00,M,M,KAMW 160230Z AUTO 26004KT 10SM FEW050 BKN070 BKN090 A2979 RMK  LTG DSNT SE-SW! MADISHF
AMW,2017-04-15 21:35,M,M,M,310.00,6.00,M,29.80,M,10.00,M,FEW,BKN,OVC,M,5500.00,7500.00,11000.00,M,M,KAMW 160235Z AUTO 31006KT 10SM FEW055 BKN075 OVC110 A2980 RMK  LTG DSNT E-SW! MADISHF
AMW,2017-04-15 21:38,63.00,63.00,100.00,330.00,5.00,0.00,29.81,M,10.00,M,FEW,BKN,OVC,M,4700.00,6500.00,10000.00,M,M,KAMW 160238Z AUTO 33005KT 10SM FEW047 BKN065 OVC100 17/17 A2981 RMK AO2 LTG DSNT E-SW T01720172
AMW,2017-04-15 21:40,M,M,M,300.00,4.00,M,29.81,M,9.00,M,BKN,BKN,OVC,M,6500.00,8500.00,10000.00,M,M,KAMW 160240Z AUTO 30004KT 9SM BKN065 BKN085 OVC100 A2981 RMK  LTG DSNT E-SW! MADISHF
AMW,2017-04-15 21:45,M,M,M,330.00,4.00,M,29.80,M,9.00,M,BKN,OVC,M,M,6500.00,8500.00,M,M,M,KAMW 160245Z AUTO 33004KT 9SM BKN065 OVC085 A2980 RMK  LTG DSNT ALQDS! MADISHF
AMW,2017-04-15 21:50,M,M,M,300.00,4.00,M,29.80,M,8.00,M,BKN,OVC,M,M,6000.00,8500.00,M,M,M,KAMW 160250Z AUTO 30004KT 8SM BKN060 OVC085 A2980 RMK  LTG DSNT ALQDS! MADISHF
AMW,2017-04-15 21:53,63.00,63.00,100.00,0.00,0.00,0.00,29.80,1008.60,8.00,M,BKN,OVC,M,M,6000.00,8500.00,M,M,M,KAMW 160253Z AUTO 00000KT 8SM BKN060 OVC085 17/17 A2980 RMK AO2 LTG DSNT ALQDS SLP086 60029 T01720172 53015
AMW,2017-04-15 21:55,M,M,M,0.00,0.00,M,29.80,M,8.00,M,BKN,OVC,M,M,6000.00,8500.00,M,M,M,KAMW 160255Z AUTO 00000KT 8SM BKN060 OVC085 A2980 RMK  LTG DSNT NE-S! MADISHF
AMW,2017-04-15 22:00,M,M,M,290.00,3.00,M,29.80,M,7.00,M,BKN,OVC,M,M,6000.00,8500.00,M,M,M,KAMW 160300Z AUTO 29003KT 7SM BKN060 OVC085 A2980 RMK  LTG DSNT E-S! MADISHF
AMW,2017-04-15 22:01,63.00,63.00,100.00,290.00,3.00,0.00,29.80,M,7.00,M,BKN,BKN,M,M,6000.00,8000.00,M,M,VCTS,KAMW 160301Z AUTO 29003KT 7SM VCTS BKN060 BKN080 17/17 A2980 RMK AO2 LTG DSNT E-S T01720172
AMW,2017-04-15 22:05,M,M,M,310.00,4.00,M,29.80,M,7.00,M,BKN,BKN,M,M,6000.00,8500.00,M,M,M,KAMW 160305Z AUTO 31004KT 7SM BKN060 BKN085 A2980 RMK  LTG DSNT E-S! MADISHF
AMW,2017-04-15 22:10,M,M,M,320.00,5.00,M,29.80,M,7.00,M,BKN,OVC,M,M,6500.00,8500.00,M,M,M,KAMW 160310Z AUTO 32005KT 7SM BKN065 OVC085 A2980 RMK  LTG DSNT SE AND S! MADISHF
AMW,2017-04-15 22:25,M,M,M,320.00,12.00,M,29.82,M,10.00,M,BKN,M,M,M,6000.00,M,M,M,M,KAMW 160325Z AUTO 32012KT 10SM BKN060 A2982 RMK  LTG DSNT SE AND S! MADISHF
AMW,2017-04-15 22:30,M,M,M,320.00,13.00,M,29.84,M,10.00,M,BKN,BKN,M,M,6000.00,7000.00,M,M,M,KAMW 160330Z AUTO 32013KT 10SM BKN060 BKN070 A2984 RMK  LTG DSNT SE AND S! MADISHF
AMW,2017-04-15 22:35,M,M,M,320.00,13.00,M,29.83,M,10.00,M,FEW,BKN,BKN,M,5500.00,7000.00,10000.00,M,M,KAMW 160335Z AUTO 32013KT 10SM FEW055 BKN070 BKN100 A2983 RMK  LTG DSNT SE AND S! MADISHF
AMW,2017-04-15 22:40,M,M,M,M,M,M,29.82,M,10.00,20.00,FEW,SCT,SCT,M,5500.00,7000.00,10000.00,M,M,KAMW 160340Z AUTO /////G20KT 10SM FEW055 SCT070 SCT100 A2982 RMK  LTG DSNT SE AND S AND NW! MADISHF
AMW,2017-04-15 22:45,M,M,M,330.00,10.00,M,29.82,M,10.00,M,FEW,M,M,M,5500.00,M,M,M,M,KAMW 160345Z AUTO 33010KT 10SM FEW055 A2982 RMK  LTG DSNT SE AND S AND NW! MADISHF
AMW,2017-04-15 22:50,M,M,M,340.00,10.00,M,29.83,M,10.00,M,FEW,M,M,M,10000.00,M,M,M,M,KAMW 160350Z AUTO 34010KT 10SM FEW100 A2983 RMK  LTG DSNT SE AND S AND NW! MADISHF
AMW,2017-04-15 22:53,63.00,63.00,100.00,330.00,12.00,0.00,29.83,1009.50,10.00,M,FEW,M,M,M,10000.00,M,M,M,M,KAMW 160353Z AUTO 33012KT 10SM FEW100 17/17 A2983 RMK AO2 LTG DSNT SE AND S AND NW SLP095 T01720172
AMW,2017-04-15 22:55,M,M,M,330.00,14.00,M,29.84,M,10.00,M,FEW,M,M,M,10000.00,M,M,M,M,KAMW 160355Z AUTO 33014KT 10SM FEW100 A2984 RMK  LTG DSNT SE! MADISHF
AMW,2017-04-15 23:00,M,M,M,330.00,14.00,M,29.84,M,10.00,20.00,FEW,M,M,M,10000.00,M,M,M,M,KAMW 160400Z AUTO 33014G20KT 10SM FEW100 A2984 RMK  LTG DSNT N AND SE! MADISHF
AMW,2017-04-15 23:05,M,M,M,M,M,M,29.85,M,10.00,M,FEW,M,M,M,7000.00,M,M,M,M,KAMW 160405Z AUTO /////KT 10SM FEW070 A2985 RMK  LTG DSNT N AND SE! MADISHF
AMW,2017-04-15 23:10,M,M,M,320.00,17.00,M,29.86,M,9.00,M,FEW,FEW,M,M,900.00,7000.00,M,M,M,KAMW 160410Z AUTO 32017KT 9SM FEW009 FEW070 A2986 RMK  LTG DSNT S! MADISHF
AMW,2017-04-15 23:15,63.00,62.10,96.88,340.00,13.00,0.00,29.85,M,9.00,21.00,FEW,SCT,M,M,900.00,7000.00,M,M,M,KAMW 160415Z AUTO 34013G21KT 9SM FEW009 SCT070 17/17 A2985 RMK AO2 LTG DSNT S T01720167
AMW,2017-04-15 23:20,M,M,M,340.00,11.00,M,29.85,M,9.00,M,FEW,SCT,SCT,M,900.00,7000.00,9000.00,M,M,KAMW 160420Z AUTO 34011KT 9SM FEW009 SCT070 SCT090 A2985 RMK  LTG DSNT S! MADISHF
AMW,2017-04-15 23:25,M,M,M,350.00,14.00,M,29.84,M,9.00,19.00,FEW,SCT,BKN,M,900.00,9000.00,11000.00,M,M,KAMW 160425Z AUTO 35014G19KT 9SM FEW009 SCT090 BKN110 A2984 RMK MADISHF
AMW,2017-04-15 23:30,M,M,M,360.00,10.00,M,29.84,M,8.00,M,FEW,BKN,BKN,M,900.00,9500.00,11000.00,M,-RA,KAMW 160430Z AUTO 36010KT 8SM -RA FEW009 BKN095 BKN110 A2984 RMK MADISHF
AMW,2017-04-15 23:35,M,M,M,20.00,10.00,M,29.81,M,9.00,M,FEW,BKN,BKN,M,900.00,9500.00,11000.00,M,-RA,KAMW 160435Z AUTO 02010KT 9SM -RA FEW009 BKN095 BKN110 A2981 RMK MADISHF
AMW,2017-04-15 23:40,M,M,M,20.00,11.00,M,29.80,M,9.00,M,FEW,SCT,BKN,M,7000.00,9000.00,11000.00,M,-RA,KAMW 160440Z AUTO 02011KT 9SM -RA FEW070 SCT090 BKN110 A2980 RMK MADISHF
AMW,2017-04-15 23:45,M,M,M,M,M,M,29.80,M,7.00,M,SCT,BKN,M,M,9000.00,11000.00,M,M,M,KAMW 160445Z AUTO /////KT 7SM SCT090 BKN110 A2980 RMK MADISHF
AMW,2017-04-15 23:50,M,M,M,360.00,17.00,M,29.79,M,5.00,M,FEW,SCT,M,M,9500.00,11000.00,M,M,BR,KAMW 160450Z AUTO 36017KT 5SM BR FEW095 SCT110 A2979 RMK MADISHF
AMW,2017-04-15 23:53,61.00,61.00,100.00,360.00,14.00,0.00,29.80,1008.30,5.00,M,FEW,SCT,M,M,9500.00,11000.00,M,M,BR,KAMW 160453Z AUTO 36014KT 5SM BR FEW095 SCT110 16/16 A2980 RMK AO2 RAB29E42 SLP083 P0000 T01610161
AMW,2017-04-15 23:55,M,M,M,360.00,12.00,M,29.80,M,5.00,M,SCT,M,M,M,10000.00,M,M,M,BR,KAMW 160455Z AUTO 36012KT 5SM BR SCT100 A2980 RMK MADISHF
AMW,2017-04-16 00:00,M,M,M,360.00,11.00,M,29.80,M,7.00,M,FEW,M,M,M,9000.00,M,M,M,M,KAMW 160500Z AUTO 36011KT 7SM FEW090 A2980 RMK MADISHF
AMW,2017-04-16 00:05,M,M,M,350.00,11.00,M,29.81,M,7.00,M,FEW,M,M,M,9000.00,M,M,M,M,KAMW 160505Z AUTO 35011KT 7SM FEW090 A2981 RMK MADISHF
AMW,2017-04-16 00:10,M,M,M,350.00,12.00,M,29.82,M,8.00,M,CLR,M,M,M,M,M,M,M,M,KAMW 160510Z AUTO 35012KT 8SM CLR A2982 RMK MADISHF
AMW,2017-04-16 00:15,M,M,M,350.00,13.00,M,29.82,M,8.00,M,CLR,M,M,M,M,M,M,M,M,KAMW 160515Z AUTO 35013KT 8SM CLR A2982 RMK MADISHF
AMW,2017-04-16 00:20,M,M,M,360.00,14.00,M,29.82,M,8.00,M,CLR,M,M,M,M,M,M,M,M,KAMW 160520Z AUTO 36014KT 8SM CLR A2982 RMK MADISHF
AMW,2017-04-16 00:25,M,M,M,M,M,M,29.82,M,8.00,M,CLR,M,M,M,M,M,M,M,M,KAMW 160525Z AUTO /////KT 8SM CLR A2982 RMK MADISHF
AMW,2017-04-16 00:30,M,M,M,M,M,M,29.83,M,9.00,M,CLR,M,M,M,M,M,M,M,M,KAMW 160530Z AUTO /////KT 9SM CLR A2983 RMK MADISHF
AMW,2017-04-16 00:35,M,M,M,340.00,12.00,M,29.84,M,9.00,M,CLR,M,M,M,M,M,M,M,M,KAMW 160535Z AUTO 34012KT 9SM CLR A2984 RMK MADISHF
AMW,2017-04-16 00:40,M,M,M,330.00,12.00,M,29.86,M,9.00,M,CLR,M,M,M,M,M,M,M,M,KAMW 160540Z AUTO 33012KT 9SM CLR A2986 RMK MADISHF
AMW,2017-04-16 00:45,M,M,M,M,M,M,29.86,M,9.00,M,CLR,M,M,M,M,M,M,M,M,KAMW 160545Z AUTO /////KT 9SM CLR A2986 RMK MADISHF
AMW,2017-04-16 00:50,M,M,M,M,M,M,29.87,M,8.00,M,CLR,M,M,M,M,M,M,M,M,KAMW 160550Z AUTO /////KT 8SM CLR A2987 RMK MADISHF
AMW,2017-04-16 00:53,60.10,57.90,92.43,340.00,13.00,0.00,29.88,1011.00,9.00,22.00,FEW,M,M,M,1200.00,M,M,M,M,KAMW 160553Z AUTO 34013G22KT 9SM FEW012 16/14 A2988 RMK AO2 PRESRR SLP110 60029 T01560144 10183 20150 402220150 53025
AMW,2017-04-16 00:55,M,M,M,340.00,16.00,M,29.88,M,9.00,M,FEW,M,M,M,1200.00,M,M,M,M,KAMW 160555Z AUTO 34016KT 9SM FEW012 A2988 RMK MADISHF
AMW,2017-04-16 01:00,M,M,M,M,M,M,29.89,M,9.00,M,FEW,M,M,M,1200.00,M,M,M,M,KAMW 160600Z AUTO /////KT 9SM FEW012 A2989 RMK MADISHF
AMW,2017-04-16 01:05,M,M,M,M,M,M,29.89,M,10.00,M,CLR,M,M,M,M,M,M,M,M,KAMW 160605Z AUTO /////KT 10SM CLR A2989 RMK MADISHF
AMW,2017-04-16 01:10,M,M,M,330.00,15.00,M,29.90,M,10.00,M,CLR,M,M,M,M,M,M,M,M,KAMW 160610Z AUTO 33015KT 10SM CLR A2990 RMK MADISHF
AMW,2017-04-16 01:15,M,M,M,330.00,13.00,M,29.90,M,10.00,19.00,CLR,M,M,M,M,M,M,M,M,KAMW 160615Z AUTO 33013G19KT 10SM CLR A2990 RMK MADISHF
AMW,2017-04-16 01:20,M,M,M,330.00,13.00,M,29.91,M,10.00,M,CLR,M,M,M,M,M,M,M,M,KAMW 160620Z AUTO 33013KT 10SM CLR A2991 RMK MADISHF
AMW,2017-04-16 01:25,M,M,M,320.00,11.00,M,29.92,M,10.00,M,CLR,M,M,M,M,M,M,M,M,KAMW 160625Z AUTO 32011KT 10SM CLR A2992 RMK MADISHF
AMW,2017-04-16 01:30,M,M,M,330.00,10.00,M,29.92,M,10.00,M,CLR,M,M,M,M,M,M,M,M,KAMW 160630Z AUTO 33010KT 10SM CLR A2992 RMK MADISHF
AMW,2017-04-16 01:35,M,M,M,320.00,9.00,M,29.92,M,10.00,M,CLR,M,M,M,M,M,M,M,M,KAMW 160635Z AUTO 32009KT 10SM CLR A2992 RMK MADISHF
AMW,2017-04-16 01:40,M,M,M,330.00,9.00,M,29.92,M,10.00,M,CLR,M,M,M,M,M,M,M,M,KAMW 160640Z AUTO 33009KT 10SM CLR A2992 RMK MADISHF
AMW,2017-04-16 01:45,M,M,M,330.00,7.00,M,29.92,M,10.00,M,CLR,M,M,M,M,M,M,M,M,KAMW 160645Z AUTO 33007KT 10SM CLR A2992 RMK MADISHF
AMW,2017-04-16 01:50,M,M,M,330.00,8.00,M,29.93,M,10.00,M,CLR,M,M,M,M,M,M,M,M,KAMW 160650Z AUTO 33008KT 10SM CLR A2993 RMK MADISHF
AMW,2017-04-16 01:53,55.90,54.00,93.32,320.00,8.00,0.00,29.93,1012.90,10.00,M,CLR,M,M,M,M,M,M,M,M,KAMW 160653Z AUTO 32008KT 10SM CLR 13/12 A2993 RMK AO2 SLP129 T01330122
AMW,2017-04-16 01:55,M,M,M,310.00,7.00,M,29.93,M,10.00,M,CLR,M,M,M,M,M,M,M,M,KAMW 160655Z AUTO 31007KT 10SM CLR A2993 RMK MADISHF
AMW,2017-04-16 02:00,M,M,M,310.00,7.00,M,29.94,M,10.00,M,CLR,M,M,M,M,M,M,M,M,KAMW 160700Z AUTO 31007KT 10SM CLR A2994 RMK MADISHF
AMW,2017-04-16 02:05,M,M,M,310.00,8.00,M,29.94,M,10.00,M,CLR,M,M,M,M,M,M,M,M,KAMW 160705Z AUTO 31008KT 10SM CLR A2994 RMK MADISHF
AMW,2017-04-16 02:10,M,M,M,310.00,7.00,M,29.94,M,10.00,M,CLR,M,M,M,M,M,M,M,M,KAMW 160710Z AUTO 31007KT 10SM CLR A2994 RMK MADISHF
AMW,2017-04-16 02:15,M,M,M,320.00,7.00,M,29.94,M,10.00,M,CLR,M,M,M,M,M,M,M,M,KAMW 160715Z AUTO 32007KT 10SM CLR A2994 RMK MADISHF
AMW,2017-04-16 02:20,M,M,M,330.00,9.00,M,29.94,M,10.00,M,CLR,M,M,M,M,M,M,M,M,KAMW 160720Z AUTO 33009KT 10SM CLR A2994 RMK MADISHF
AMW,2017-04-16 02:25,M,M,M,330.00,9.00,M,29.94,M,10.00,M,CLR,M,M,M,M,M,M,M,M,KAMW 160725Z AUTO 33009KT 10SM CLR A2994 RMK MADISHF
AMW,2017-04-16 02:30,M,M,M,320.00,7.00,M,29.94,M,10.00,M,CLR,M,M,M,M,M,M,M,M,KAMW 160730Z AUTO 32007KT 10SM CLR A2994 RMK MADISHF
AMW,2017-04-16 02:35,M,M,M,320.00,7.00,M,29.95,M,10.00,M,CLR,M,M,M,M,M,M,M,M,KAMW 160735Z AUTO 32007KT 10SM CLR A2995 RMK MADISHF
AMW,2017-04-16 02:40,M,M,M,320.00,7.00,M,29.95,M,10.00,M,CLR,M,M,M,M,M,M,M,M,KAMW 160740Z AUTO 32007KT 10SM CLR A2995 RMK MADISHF
AMW,2017-04-16 02:45,M,M,M,300.00,6.00,M,29.95,M,10.00,M,CLR,M,M,M,M,M,M,M,M,KAMW 160745Z AUTO 30006KT 10SM CLR A2995 RMK MADISHF
AMW,2017-04-16 02:50,M,M,M,310.00,7.00,M,29.95,M,10.00,M,CLR,M,M,M,M,M,M,M,M,KAMW 160750Z AUTO 31007KT 10SM CLR A2995 RMK MADISHF
AMW,2017-04-16 02:53,55.00,53.10,93.29,310.00,7.00,0.00,29.95,1013.70,10.00,M,CLR,M,M,M,M,M,M,M,M,KAMW 160753Z AUTO 31007KT 10SM CLR 13/12 A2995 RMK AO2 SLP137 T01280117
AMW,2017-04-16 02:55,M,M,M,300.00,7.00,M,29.95,M,10.00,M,CLR,M,M,M,M,M,M,M,M,KAMW 160755Z AUTO 30007KT 10SM CLR A2995 RMK MADISHF
AMW,2017-04-16 03:00,M,M,M,300.00,6.00,M,29.95,M,10.00,M,CLR,M,M,M,M,M,M,M,M,KAMW 160800Z AUTO 30006KT 10SM CLR A2995 RMK MADISHF
AMW,2017-04-16 03:05,M,M,M,300.00,6.00,M,29.96,M,10.00,M,CLR,M,M,M,M,M,M,M,M,KAMW 160805Z AUTO 30006KT 10SM CLR A2996 RMK MADISHF
AMW,2017-04-16 03:10,M,M,M,300.00,7.00,M,29.96,M,10.00,M,CLR,M,M,M,M,M,M,M,M,KAMW 160810Z AUTO 30007KT 10SM CLR A2996 RMK MADISHF
AMW,2017-04-16 03:15,M,M,M,300.00,7.00,M,29.96,M,10.00,M,FEW,M,M,M,5500.00,M,M,M,M,KAMW 160815Z AUTO 30007KT 10SM FEW055 A2996 RMK MADISHF
AMW,2017-04-16 03:20,M,M,M,310.00,9.00,M,29.96,M,10.00,M,SCT,M,M,M,5500.00,M,M,M,M,KAMW 160820Z AUTO 31009KT 10SM SCT055 A2996 RMK MADISHF
AMW,2017-04-16 03:25,M,M,M,320.00,10.00,M,29.97,M,10.00,M,BKN,M,M,M,5500.00,M,M,M,M,KAMW 160825Z AUTO 32010KT 10SM BKN055 A2997 RMK MADISHF
AMW,2017-04-16 03:30,M,M,M,320.00,12.00,M,29.97,M,10.00,M,SCT,M,M,M,5500.00,M,M,M,M,KAMW 160830Z AUTO 32012KT 10SM SCT055 A2997 RMK MADISHF
AMW,2017-04-16 03:35,M,M,M,320.00,10.00,M,29.97,M,10.00,M,SCT,M,M,M,5500.00,M,M,M,M,KAMW 160835Z AUTO 32010KT 10SM SCT055 A2997 RMK MADISHF
AMW,2017-04-16 03:40,M,M,M,320.00,11.00,M,29.97,M,10.00,M,SCT,M,M,M,5500.00,M,M,M,M,KAMW 160840Z AUTO 32011KT 10SM SCT055 A2997 RMK MADISHF
AMW,2017-04-16 03:45,M,M,M,330.00,12.00,M,29.97,M,10.00,M,FEW,M,M,M,5500.00,M,M,M,M,KAMW 160845Z AUTO 33012KT 10SM FEW055 A2997 RMK MADISHF
AMW,2017-04-16 03:50,M,M,M,330.00,11.00,M,29.96,M,10.00,M,FEW,M,M,M,5500.00,M,M,M,M,KAMW 160850Z AUTO 33011KT 10SM FEW055 A2996 RMK MADISHF
AMW,2017-04-16 03:53,53.10,48.90,85.59,330.00,13.00,0.00,29.97,1014.30,10.00,M,CLR,M,M,M,M,M,M,M,M,KAMW 160853Z AUTO 33013KT 10SM CLR 12/09 A2997 RMK AO2 SLP143 T01170094 51030
AMW,2017-04-16 03:55,M,M,M,330.00,13.00,M,29.97,M,10.00,M,CLR,M,M,M,M,M,M,M,M,KAMW 160855Z AUTO 33013KT 10SM CLR A2997 RMK MADISHF
AMW,2017-04-16 04:00,M,M,M,330.00,13.00,M,29.97,M,10.00,M,CLR,M,M,M,M,M,M,M,M,KAMW 160900Z AUTO 33013KT 10SM CLR A2997 RMK MADISHF
AMW,2017-04-16 04:05,M,M,M,330.00,13.00,M,29.97,M,10.00,M,CLR,M,M,M,M,M,M,M,M,KAMW 160905Z AUTO 33013KT 10SM CLR A2997 RMK MADISHF
AMW,2017-04-16 04:10,M,M,M,330.00,15.00,M,29.97,M,10.00,M,CLR,M,M,M,M,M,M,M,M,KAMW 160910Z AUTO 33015KT 10SM CLR A2997 RMK MADISHF
AMW,2017-04-16 04:15,M,M,M,330.00,15.00,M,29.97,M,10.00,M,CLR,M,M,M,M,M,M,M,M,KAMW 160915Z AUTO 33015KT 10SM CLR A2997 RMK MADISHF
AMW,2017-04-16 04:20,M,M,M,330.00,13.00,M,29.98,M,10.00,M,CLR,M,M,M,M,M,M,M,M,KAMW 160920Z AUTO 33013KT 10SM CLR A2998 RMK MADISHF
AMW,2017-04-16 04:25,M,M,M,330.00,11.00,M,29.98,M,10.00,M,CLR,M,M,M,M,M,M,M,M,KAMW 160925Z AUTO 33011KT 10SM CLR A2998 RMK MADISHF
AMW,2017-04-16 04:30,M,M,M,330.00,12.00,M,29.98,M,10.00,M,CLR,M,M,M,M,M,M,M,M,KAMW 160930Z AUTO 33012KT 10SM CLR A2998 RMK  LTG DSNT W! MADISHF
AMW,2017-04-16 04:35,M,M,M,330.00,12.00,M,29.98,M,10.00,M,CLR,M,M,M,M,M,M,M,M,KAMW 160935Z AUTO 33012KT 10SM CLR A2998 RMK  LTG DSNT W! MADISHF
AMW,2017-04-16 04:40,M,M,M,330.00,11.00,M,29.98,M,10.00,M,CLR,M,M,M,M,M,M,M,M,KAMW 160940Z AUTO 33011KT 10SM CLR A2998 RMK  LTG DSNT W! MADISHF
AMW,2017-04-16 04:45,M,M,M,330.00,13.00,M,29.98,M,10.00,M,CLR,M,M,M,M,M,M,M,M,KAMW 160945Z AUTO 33013KT 10SM CLR A2998 RMK MADISHF
AMW,2017-04-16 04:50,M,M,M,330.00,14.00,M,29.98,M,10.00,M,CLR,M,M,M,M,M,M,M,M,KAMW 160950Z AUTO 33014KT 10SM CLR A2998 RMK MADISHF
AMW,2017-04-16 04:53,53.10,48.90,85.59,330.00,13.00,0.00,29.98,1014.80,10.00,M,CLR,M,M,M,M,M,M,M,M,KAMW 160953Z AUTO 33013KT 10SM CLR 12/09 A2998 RMK AO2 SLP148 T01170094
AMW,2017-04-16 04:55,M,M,M,330.00,15.00,M,29.98,M,10.00,M,CLR,M,M,M,M,M,M,M,M,KAMW 160955Z AUTO 33015KT 10SM CLR A2998 RMK MADISHF
AMW,2017-04-16 05:00,M,M,M,330.00,11.00,M,29.98,M,10.00,M,CLR,M,M,M,M,M,M,M,M,KAMW 161000Z AUTO 33011KT 10SM CLR A2998 RMK MADISHF
AMW,2017-04-16 05:05,M,M,M,330.00,12.00,M,29.98,M,10.00,M,CLR,M,M,M,M,M,M,M,M,KAMW 161005Z AUTO 33012KT 10SM CLR A2998 RMK MADISHF
AMW,2017-04-16 05:10,M,M,M,330.00,13.00,M,29.98,M,10.00,M,CLR,M,M,M,M,M,M,M,M,KAMW 161010Z AUTO 33013KT 10SM CLR A2998 RMK MADISHF
AMW,2017-04-16 05:15,M,M,M,330.00,12.00,M,29.98,M,10.00,M,CLR,M,M,M,M,M,M,M,M,KAMW 161015Z AUTO 33012KT 10SM CLR A2998 RMK MADISHF
AMW,2017-04-16 05:20,M,M,M,330.00,14.00,M,29.98,M,10.00,M,CLR,M,M,M,M,M,M,M,M,KAMW 161020Z AUTO 33014KT 10SM CLR A2998 RMK MADISHF
AMW,2017-04-16 05:25,M,M,M,340.00,12.00,M,29.98,M,10.00,M,CLR,M,M,M,M,M,M,M,M,KAMW 161025Z AUTO 34012KT 10SM CLR A2998 RMK MADISHF
AMW,2017-04-16 05:30,M,M,M,330.00,12.00,M,29.99,M,10.00,M,CLR,M,M,M,M,M,M,M,M,KAMW 161030Z AUTO 33012KT 10SM CLR A2999 RMK MADISHF
AMW,2017-04-16 05:35,M,M,M,340.00,11.00,M,29.99,M,10.00,M,CLR,M,M,M,M,M,M,M,M,KAMW 161035Z AUTO 34011KT 10SM CLR A2999 RMK MADISHF
AMW,2017-04-16 05:40,M,M,M,340.00,13.00,M,29.99,M,10.00,M,CLR,M,M,M,M,M,M,M,M,KAMW 161040Z AUTO 34013KT 10SM CLR A2999 RMK MADISHF
AMW,2017-04-16 05:45,M,M,M,340.00,13.00,M,29.99,M,10.00,M,CLR,M,M,M,M,M,M,M,M,KAMW 161045Z AUTO 34013KT 10SM CLR A2999 RMK MADISHF
AMW,2017-04-16 05:50,M,M,M,340.00,13.00,M,29.99,M,10.00,M,CLR,M,M,M,M,M,M,M,M,KAMW 161050Z AUTO 34013KT 10SM CLR A2999 RMK MADISHF
AMW,2017-04-16 05:53,51.10,46.90,85.48,340.00,11.00,0.00,29.99,1015.20,10.00,M,CLR,M,M,M,M,M,M,M,M,KAMW 161053Z AUTO 34011KT 10SM CLR 11/08 A2999 RMK AO2 SLP152 T01060083
AMW,2017-04-16 05:55,M,M,M,340.00,12.00,M,29.99,M,10.00,M,CLR,M,M,M,M,M,M,M,M,KAMW 161055Z AUTO 34012KT 10SM CLR A2999 RMK MADISHF
AMW,2017-04-16 06:00,M,M,M,340.00,12.00,M,30.00,M,10.00,M,CLR,M,M,M,M,M,M,M,M,KAMW 161100Z AUTO 34012KT 10SM CLR A3000 RMK MADISHF
AMW,2017-04-16 06:05,M,M,M,340.00,9.00,M,30.00,M,10.00,M,CLR,M,M,M,M,M,M,M,M,KAMW 161105Z AUTO 34009KT 10SM CLR A3000 RMK MADISHF
AMW,2017-04-16 06:10,M,M,M,340.00,12.00,M,30.01,M,10.00,M,CLR,M,M,M,M,M,M,M,M,KAMW 161110Z AUTO 34012KT 10SM CLR A3001 RMK MADISHF
AMW,2017-04-16 06:15,M,M,M,340.00,14.00,M,30.01,M,10.00,M,CLR,M,M,M,M,M,M,M,M,KAMW 161115Z AUTO 34014KT 10SM CLR A3001 RMK MADISHF
AMW,2017-04-16 06:20,M,M,M,340.00,12.00,M,30.01,M,10.00,M,CLR,M,M,M,M,M,M,M,M,KAMW 161120Z AUTO 34012KT 10SM CLR A3001 RMK MADISHF
AMW,2017-04-16 06:25,M,M,M,340.00,11.00,M,30.00,M,10.00,M,CLR,M,M,M,M,M,M,M,M,KAMW 161125Z AUTO 34011KT 10SM CLR A3000 RMK MADISHF
AMW,2017-04-16 06:30,M,M,M,340.00,11.00,M,30.01,M,10.00,M,CLR,M,M,M,M,M,M,M,M,KAMW 161130Z AUTO 34011KT 10SM CLR A3001 RMK MADISHF
AMW,2017-04-16 06:35,M,M,M,350.00,9.00,M,30.01,M,10.00,M,CLR,M,M,M,M,M,M,M,M,KAMW 161135Z AUTO 35009KT 10SM CLR A3001 RMK MADISHF
AMW,2017-04-16 06:40,M,M,M,350.00,10.00,M,30.02,M,10.00,M,CLR,M,M,M,M,M,M,M,M,KAMW 161140Z AUTO 35010KT 10SM CLR A3002 RMK MADISHF
AMW,2017-04-16 06:45,M,M,M,350.00,7.00,M,30.02,M,10.00,M,CLR,M,M,M,M,M,M,M,M,KAMW 161145Z AUTO 35007KT 10SM CLR A3002 RMK MADISHF
AMW,2017-04-16 06:50,M,M,M,350.00,6.00,M,30.03,M,10.00,M,CLR,M,M,M,M,M,M,M,M,KAMW 161150Z AUTO 35006KT 10SM CLR A3003 RMK MADISHF
AMW,2017-04-16 06:53,50.00,45.00,82.86,340.00,5.00,0.00,30.03,1016.60,10.00,M,CLR,M,M,M,M,M,M,M,M,KAMW 161153Z AUTO 34005KT 10SM CLR 10/07 A3003 RMK AO2 PRESRR SLP166 70056 T01000072 10150 20100 53021
AMW,2017-04-16 06:55,M,M,M,350.00,5.00,M,30.03,M,10.00,M,CLR,M,M,M,M,M,M,M,M,KAMW 161155Z AUTO 35005KT 10SM CLR A3003 RMK MADISHF
AMW,2017-04-16 07:00,M,M,M,350.00,5.00,M,30.04,M,10.00,M,CLR,M,M,M,M,M,M,M,M,KAMW 161200Z AUTO 35005KT 10SM CLR A3004 RMK MADISHF
AMW,2017-04-16 07:05,M,M,M,350.00,4.00,M,30.04,M,10.00,M,CLR,M,M,M,M,M,M,M,M,KAMW 161205Z AUTO 35004KT 10SM CLR A3004 RMK MADISHF
AMW,2017-04-16 07:10,M,M,M,340.00,4.00,M,30.04,M,10.00,M,CLR,M,M,M,M,M,M,M,M,KAMW 161210Z AUTO 34004KT 10SM CLR A3004 RMK MADISHF
AMW,2017-04-16 07:15,M,M,M,330.00,3.00,M,30.05,M,10.00,M,CLR,M,M,M,M,M,M,M,M,KAMW 161215Z AUTO 33003KT 10SM CLR A3005 RMK MADISHF
AMW,2017-04-16 07:20,M,M,M,310.00,4.00,M,30.06,M,10.00,M,CLR,M,M,M,M,M,M,M,M,KAMW 161220Z AUTO 31004KT 10SM CLR A3006 RMK MADISHF
AMW,2017-04-16 07:25,M,M,M,310.00,5.00,M,30.06,M,10.00,M,CLR,M,M,M,M,M,M,M,M,KAMW 161225Z AUTO 31005KT 10SM CLR A3006 RMK MADISHF
AMW,2017-04-16 07:30,M,M,M,320.00,6.00,M,30.06,M,10.00,M,CLR,M,M,M,M,M,M,M,M,KAMW 161230Z AUTO 32006KT 10SM CLR A3006 RMK MADISHF
AMW,2017-04-16 07:35,M,M,M,330.00,8.00,M,30.06,M,10.00,M,CLR,M,M,M,M,M,M,M,M,KAMW 161235Z AUTO 33008KT 10SM CLR A3006 RMK MADISHF
AMW,2017-04-16 07:40,M,M,M,330.00,7.00,M,30.06,M,10.00,M,CLR,M,M,M,M,M,M,M,M,KAMW 161240Z AUTO 33007KT 10SM CLR A3006 RMK MADISHF
AMW,2017-04-16 07:45,M,M,M,330.00,8.00,M,30.06,M,10.00,M,CLR,M,M,M,M,M,M,M,M,KAMW 161245Z AUTO 33008KT 10SM CLR A3006 RMK MADISHF
AMW,2017-04-16 07:50,M,M,M,330.00,8.00,M,30.06,M,10.00,M,CLR,M,M,M,M,M,M,M,M,KAMW 161250Z AUTO 33008KT 10SM CLR A3006 RMK MADISHF
AMW,2017-04-16 07:53,51.10,46.00,82.62,340.00,10.00,0.00,30.06,1017.40,10.00,M,CLR,M,M,M,M,M,M,M,M,KAMW 161253Z AUTO 34010KT 10SM CLR 11/08 A3006 RMK AO2 SLP174 T01060078
AMW,2017-04-16 07:55,M,M,M,340.00,8.00,M,30.05,M,10.00,M,CLR,M,M,M,M,M,M,M,M,KAMW 161255Z AUTO 34008KT 10SM CLR A3005 RMK MADISHF
AMW,2017-04-16 08:00,M,M,M,340.00,9.00,M,30.05,M,10.00,M,CLR,M,M,M,M,M,M,M,M,KAMW 161300Z AUTO 34009KT 10SM CLR A3005 RMK MADISHF
AMW,2017-04-16 08:05,M,M,M,340.00,7.00,M,30.05,M,10.00,M,CLR,M,M,M,M,M,M,M,M,KAMW 161305Z AUTO 34007KT 10SM CLR A3005 RMK MADISHF
AMW,2017-04-16 08:10,M,M,M,330.00,7.00,M,30.05,M,10.00,M,CLR,M,M,M,M,M,M,M,M,KAMW 161310Z AUTO 33007KT 10SM CLR A3005 RMK MADISHF
AMW,2017-04-16 08:15,M,M,M,340.00,8.00,M,30.06,M,10.00,M,CLR,M,M,M,M,M,M,M,M,KAMW 161315Z AUTO 34008KT 10SM CLR A3006 RMK MADISHF
AMW,2017-04-16 08:20,M,M,M,330.00,8.00,M,30.06,M,10.00,M,CLR,M,M,M,M,M,M,M,M,KAMW 161320Z AUTO 33008KT 10SM CLR A3006 RMK MADISHF
AMW,2017-04-16 08:25,M,M,M,340.00,10.00,M,30.06,M,10.00,M,CLR,M,M,M,M,M,M,M,M,KAMW 161325Z AUTO 34010KT 10SM CLR A3006 RMK MADISHF
AMW,2017-04-16 08:30,M,M,M,340.00,10.00,M,30.07,M,10.00,M,CLR,M,M,M,M,M,M,M,M,KAMW 161330Z AUTO 34010KT 10SM CLR A3007 RMK MADISHF
AMW,2017-04-16 08:35,M,M,M,340.00,10.00,M,30.07,M,10.00,M,CLR,M,M,M,M,M,M,M,M,KAMW 161335Z AUTO 34010KT 10SM CLR A3007 RMK MADISHF
AMW,2017-04-16 08:40,M,M,M,340.00,11.00,M,30.07,M,10.00,M,CLR,M,M,M,M,M,M,M,M,KAMW 161340Z AUTO 34011KT 10SM CLR A3007 RMK MADISHF
AMW,2017-04-16 08:45,M,M,M,340.00,11.00,M,30.07,M,10.00,M,CLR,M,M,M,M,M,M,M,M,KAMW 161345Z AUTO 34011KT 10SM CLR A3007 RMK MADISHF
AMW,2017-04-16 08:50,M,M,M,340.00,11.00,M,30.07,M,10.00,M,CLR,M,M,M,M,M,M,M,M,KAMW 161350Z AUTO 34011KT 10SM CLR A3007 RMK MADISHF
AMW,2017-04-16 08:53,54.00,46.00,74.26,330.00,10.00,0.00,30.07,1018.10,10.00,M,CLR,M,M,M,M,M,M,M,M,KAMW 161353Z AUTO 33010KT 10SM CLR 12/08 A3007 RMK AO2 SLP181 T01220078
AMW,2017-04-16 08:55,M,M,M,340.00,12.00,M,30.08,M,10.00,M,CLR,M,M,M,M,M,M,M,M,KAMW 161355Z AUTO 34012KT 10SM CLR A3008 RMK MADISHF
AMW,2017-04-16 09:00,M,M,M,340.00,13.00,M,30.08,M,10.00,M,CLR,M,M,M,M,M,M,M,M,KAMW 161400Z AUTO 34013KT 10SM CLR A3008 RMK MADISHF
AMW,2017-04-16 09:05,M,M,M,340.00,13.00,M,30.07,M,10.00,M,CLR,M,M,M,M,M,M,M,M,KAMW 161405Z AUTO 34013KT 10SM CLR A3007 RMK MADISHF
AMW,2017-04-16 09:10,M,M,M,340.00,12.00,M,30.07,M,10.00,M,CLR,M,M,M,M,M,M,M,M,KAMW 161410Z AUTO 34012KT 10SM CLR A3007 RMK MADISHF
AMW,2017-04-16 09:15,M,M,M,340.00,12.00,M,30.07,M,10.00,M,CLR,M,M,M,M,M,M,M,M,KAMW 161415Z AUTO 34012KT 10SM CLR A3007 RMK MADISHF
AMW,2017-04-16 09:20,M,M,M,340.00,13.00,M,30.08,M,10.00,M,CLR,M,M,M,M,M,M,M,M,KAMW 161420Z AUTO 34013KT 10SM CLR A3008 RMK MADISHF
AMW,2017-04-16 09:25,M,M,M,340.00,14.00,M,30.08,M,10.00,20.00,CLR,M,M,M,M,M,M,M,M,KAMW 161425Z AUTO 34014G20KT 10SM CLR A3008 RMK MADISHF
AMW,2017-04-16 09:30,M,M,M,M,M,M,30.08,M,10.00,M,CLR,M,M,M,M,M,M,M,M,KAMW 161430Z AUTO /////KT 10SM CLR A3008 RMK MADISHF
AMW,2017-04-16 09:35,M,M,M,M,M,M,30.08,M,10.00,M,CLR,M,M,M,M,M,M,M,M,KAMW 161435Z AUTO /////KT 10SM CLR A3008 RMK MADISHF
AMW,2017-04-16 09:40,M,M,M,340.00,16.00,M,30.08,M,10.00,M,CLR,M,M,M,M,M,M,M,M,KAMW 161440Z AUTO 34016KT 10SM CLR A3008 RMK MADISHF
AMW,2017-04-16 09:45,M,M,M,340.00,16.00,M,30.08,M,10.00,M,CLR,M,M,M,M,M,M,M,M,KAMW 161445Z AUTO 34016KT 10SM CLR A3008 RMK MADISHF
AMW,2017-04-16 09:50,M,M,M,340.00,14.00,M,30.08,M,10.00,M,CLR,M,M,M,M,M,M,M,M,KAMW 161450Z AUTO 34014KT 10SM CLR A3008 RMK MADISHF
AMW,2017-04-16 09:53,57.00,48.00,71.81,330.00,17.00,0.00,30.08,1018.40,10.00,M,CLR,M,M,M,M,M,M,M,M,KAMW 161453Z AUTO 33017KT 10SM CLR 14/09 A3008 RMK AO2 SLP184 T01390089 51017
AMW,2017-04-16 09:55,M,M,M,340.00,15.00,M,30.09,M,10.00,M,CLR,M,M,M,M,M,M,M,M,KAMW 161455Z AUTO 34015KT 10SM CLR A3009 RMK MADISHF
AMW,2017-04-16 10:00,M,M,M,350.00,13.00,M,30.09,M,10.00,M,CLR,M,M,M,M,M,M,M,M,KAMW 161500Z AUTO 35013KT 10SM CLR A3009 RMK MADISHF
AMW,2017-04-16 10:05,M,M,M,350.00,12.00,M,30.09,M,10.00,M,CLR,M,M,M,M,M,M,M,M,KAMW 161505Z AUTO 35012KT 10SM CLR A3009 RMK MADISHF
AMW,2017-04-16 10:10,M,M,M,340.00,14.00,M,30.09,M,10.00,M,CLR,M,M,M,M,M,M,M,M,KAMW 161510Z AUTO 34014KT 10SM CLR A3009 RMK MADISHF
AMW,2017-04-16 10:15,M,M,M,330.00,12.00,M,30.09,M,10.00,M,CLR,M,M,M,M,M,M,M,M,KAMW 161515Z AUTO 33012KT 10SM CLR A3009 RMK MADISHF
AMW,2017-04-16 10:20,M,M,M,340.00,16.00,M,30.09,M,10.00,M,CLR,M,M,M,M,M,M,M,M,KAMW 161520Z AUTO 34016KT 10SM CLR A3009 RMK MADISHF
AMW,2017-04-16 10:25,M,M,M,350.00,16.00,M,30.09,M,10.00,M,CLR,M,M,M,M,M,M,M,M,KAMW 161525Z AUTO 35016KT 10SM CLR A3009 RMK MADISHF
AMW,2017-04-16 10:30,M,M,M,350.00,16.00,M,30.09,M,10.00,M,CLR,M,M,M,M,M,M,M,M,KAMW 161530Z AUTO 35016KT 10SM CLR A3009 RMK MADISHF
AMW,2017-04-16 10:35,M,M,M,340.00,12.00,M,30.10,M,10.00,20.00,CLR,M,M,M,M,M,M,M,M,KAMW 161535Z AUTO 34012G20KT 10SM CLR A3010 RMK MADISHF
AMW,2017-04-16 10:40,M,M,M,340.00,14.00,M,30.10,M,10.00,M,CLR,M,M,M,M,M,M,M,M,KAMW 161540Z AUTO 34014KT 10SM CLR A3010 RMK MADISHF
AMW,2017-04-16 10:45,M,M,M,330.00,13.00,M,30.10,M,10.00,M,CLR,M,M,M,M,M,M,M,M,KAMW 161545Z AUTO 33013KT 10SM CLR A3010 RMK MADISHF
AMW,2017-04-16 10:50,M,M,M,350.00,15.00,M,30.10,M,10.00,M,CLR,M,M,M,M,M,M,M,M,KAMW 161550Z AUTO 35015KT 10SM CLR A3010 RMK MADISHF
AMW,2017-04-16 10:53,61.00,46.90,59.71,350.00,15.00,0.00,30.10,1018.90,10.00,M,CLR,M,M,M,M,M,M,M,M,KAMW 161553Z AUTO 35015KT 10SM CLR 16/08 A3010 RMK AO2 SLP189 T01610083
AMW,2017-04-16 10:55,M,M,M,350.00,15.00,M,30.10,M,10.00,M,CLR,M,M,M,M,M,M,M,M,KAMW 161555Z AUTO 35015KT 10SM CLR A3010 RMK MADISHF
AMW,2017-04-16 11:00,M,M,M,340.00,18.00,M,30.11,M,10.00,M,CLR,M,M,M,M,M,M,M,M,KAMW 161600Z AUTO 34018KT 10SM CLR A3011 RMK MADISHF
AMW,2017-04-16 11:05,M,M,M,350.00,13.00,M,30.11,M,10.00,M,CLR,M,M,M,M,M,M,M,M,KAMW 161605Z AUTO 35013KT 10SM CLR A3011 RMK MADISHF
AMW,2017-04-16 11:10,M,M,M,340.00,16.00,M,30.11,M,10.00,M,CLR,M,M,M,M,M,M,M,M,KAMW 161610Z AUTO 34016KT 10SM CLR A3011 RMK MADISHF
AMW,2017-04-16 11:15,M,M,M,M,M,M,30.11,M,10.00,M,CLR,M,M,M,M,M,M,M,M,KAMW 161615Z AUTO /////KT 10SM CLR A3011 RMK MADISHF
AMW,2017-04-16 11:20,M,M,M,350.00,14.00,M,30.11,M,10.00,M,CLR,M,M,M,M,M,M,M,M,KAMW 161620Z AUTO 35014KT 10SM CLR A3011 RMK MADISHF
AMW,2017-04-16 11:25,M,M,M,350.00,15.00,M,30.11,M,10.00,M,CLR,M,M,M,M,M,M,M,M,KAMW 161625Z AUTO 35015KT 10SM CLR A3011 RMK MADISHF
AMW,2017-04-16 11:30,M,M,M,340.00,13.00,M,30.11,M,10.00,M,CLR,M,M,M,M,M,M,M,M,KAMW 161630Z AUTO 34013KT 10SM CLR A3011 RMK MADISHF
AMW,2017-04-16 11:35,M,M,M,350.00,15.00,M,30.11,M,10.00,M,CLR,M,M,M,M,M,M,M,M,KAMW 161635Z AUTO 35015KT 10SM CLR A3011 RMK MADISHF
AMW,2017-04-16 11:40,M,M,M,330.00,18.00,M,30.12,M,10.00,M,CLR,M,M,M,M,M,M,M,M,KAMW 161640Z AUTO 33018KT 10SM CLR A3012 RMK MADISHF
AMW,2017-04-16 11:45,M,M,M,340.00,16.00,M,30.12,M,10.00,M,CLR,M,M,M,M,M,M,M,M,KAMW 161645Z AUTO 34016KT 10SM CLR A3012 RMK MADISHF
AMW,2017-04-16 11:50,M,M,M,320.00,17.00,M,30.12,M,10.00,M,CLR,M,M,M,M,M,M,M,M,KAMW 161650Z AUTO 32017KT 10SM CLR A3012 RMK MADISHF
AMW,2017-04-16 11:53,64.00,39.90,41.09,340.00,14.00,0.00,30.12,1019.50,10.00,23.00,CLR,M,M,M,M,M,M,M,M,KAMW 161653Z AUTO 34014G23KT 10SM CLR 18/04 A3012 RMK AO2 SLP195 T01780044
AMW,2017-04-16 11:55,M,M,M,320.00,14.00,M,30.12,M,10.00,20.00,CLR,M,M,M,M,M,M,M,M,KAMW 161655Z AUTO 32014G20KT 10SM CLR A3012 RMK MADISHF
AMW,2017-04-16 12:00,M,M,M,330.00,16.00,M,30.13,M,10.00,M,CLR,M,M,M,M,M,M,M,M,KAMW 161700Z AUTO 33016KT 10SM CLR A3013 RMK MADISHF
AMW,2017-04-16 12:05,M,M,M,330.00,13.00,M,30.13,M,10.00,M,CLR,M,M,M,M,M,M,M,M,KAMW 161705Z AUTO 33013KT 10SM CLR A3013 RMK MADISHF
AMW,2017-04-16 12:10,M,M,M,330.00,16.00,M,30.13,M,10.00,M,CLR,M,M,M,M,M,M,M,M,KAMW 161710Z AUTO 33016KT 10SM CLR A3013 RMK MADISHF
AMW,2017-04-16 12:15,M,M,M,340.00,17.00,M,30.13,M,10.00,M,CLR,M,M,M,M,M,M,M,M,KAMW 161715Z AUTO 34017KT 10SM CLR A3013 RMK MADISHF
AMW,2017-04-16 12:20,M,M,M,350.00,16.00,M,30.13,M,10.00,M,CLR,M,M,M,M,M,M,M,M,KAMW 161720Z AUTO 35016KT 10SM CLR A3013 RMK MADISHF
AMW,2017-04-16 12:25,M,M,M,350.00,15.00,M,30.13,M,10.00,20.00,CLR,M,M,M,M,M,M,M,M,KAMW 161725Z AUTO 35015G20KT 10SM CLR A3013 RMK MADISHF
AMW,2017-04-16 12:30,M,M,M,340.00,16.00,M,30.13,M,10.00,M,CLR,M,M,M,M,M,M,M,M,KAMW 161730Z AUTO 34016KT 10SM CLR A3013 RMK MADISHF
AMW,2017-04-16 12:35,M,M,M,320.00,15.00,M,30.13,M,10.00,M,CLR,M,M,M,M,M,M,M,M,KAMW 161735Z AUTO 32015KT 10SM CLR A3013 RMK MADISHF
AMW,2017-04-16 12:40,M,M,M,330.00,11.00,M,30.13,M,10.00,M,CLR,M,M,M,M,M,M,M,M,KAMW 161740Z AUTO 33011KT 10SM CLR A3013 RMK MADISHF
AMW,2017-04-16 12:45,M,M,M,340.00,14.00,M,30.13,M,10.00,M,CLR,M,M,M,M,M,M,M,M,KAMW 161745Z AUTO 34014KT 10SM CLR A3013 RMK MADISHF
AMW,2017-04-16 12:50,M,M,M,340.00,13.00,M,30.13,M,10.00,M,CLR,M,M,M,M,M,M,M,M,KAMW 161750Z AUTO 34013KT 10SM CLR A3013 RMK MADISHF
AMW,2017-04-16 12:53,64.90,39.90,39.82,340.00,16.00,0.00,30.13,1019.90,10.00,21.00,CLR,M,M,M,M,M,M,M,M,KAMW 161753Z AUTO 34016G21KT 10SM CLR 18/04 A3013 RMK AO2 PK WND 34026/1715 SLP199 T01830044 10189 20094 51016
AMW,2017-04-16 12:55,M,M,M,340.00,15.00,M,30.13,M,10.00,M,CLR,M,M,M,M,M,M,M,M,KAMW 161755Z AUTO 34015KT 10SM CLR A3013 RMK MADISHF
AMW,2017-04-16 13:00,M,M,M,340.00,12.00,M,30.13,M,10.00,M,CLR,M,M,M,M,M,M,M,M,KAMW 161800Z AUTO 34012KT 10SM CLR A3013 RMK MADISHF
AMW,2017-04-16 13:05,M,M,M,340.00,14.00,M,30.13,M,10.00,19.00,CLR,M,M,M,M,M,M,M,M,KAMW 161805Z AUTO 34014G19KT 10SM CLR A3013 RMK MADISHF
AMW,2017-04-16 13:10,M,M,M,M,M,M,30.13,M,10.00,M,CLR,M,M,M,M,M,M,M,M,KAMW 161810Z AUTO /////KT 10SM CLR A3013 RMK MADISHF
AMW,2017-04-16 13:15,M,M,M,340.00,14.00,M,30.13,M,10.00,19.00,CLR,M,M,M,M,M,M,M,M,KAMW 161815Z AUTO 34014G19KT 10SM CLR A3013 RMK MADISHF
AMW,2017-04-16 13:20,M,M,M,350.00,14.00,M,30.13,M,10.00,M,CLR,M,M,M,M,M,M,M,M,KAMW 161820Z AUTO 35014KT 10SM CLR A3013 RMK MADISHF
AMW,2017-04-16 13:25,M,M,M,350.00,14.00,M,30.13,M,10.00,M,CLR,M,M,M,M,M,M,M,M,KAMW 161825Z AUTO 35014KT 10SM CLR A3013 RMK MADISHF
AMW,2017-04-16 13:30,M,M,M,360.00,12.00,M,30.14,M,10.00,M,CLR,M,M,M,M,M,M,M,M,KAMW 161830Z AUTO 36012KT 10SM CLR A3014 RMK MADISHF
AMW,2017-04-16 13:35,M,M,M,340.00,12.00,M,30.13,M,10.00,M,CLR,M,M,M,M,M,M,M,M,KAMW 161835Z AUTO 34012KT 10SM CLR A3013 RMK MADISHF
AMW,2017-04-16 13:40,M,M,M,340.00,12.00,M,30.13,M,10.00,M,CLR,M,M,M,M,M,M,M,M,KAMW 161840Z AUTO 34012KT 10SM CLR A3013 RMK MADISHF
AMW,2017-04-16 13:45,M,M,M,350.00,12.00,M,30.13,M,10.00,M,CLR,M,M,M,M,M,M,M,M,KAMW 161845Z AUTO 35012KT 10SM CLR A3013 RMK MADISHF
AMW,2017-04-16 13:50,M,M,M,350.00,14.00,M,30.13,M,10.00,M,CLR,M,M,M,M,M,M,M,M,KAMW 161850Z AUTO 35014KT 10SM CLR A3013 RMK MADISHF
AMW,2017-04-16 13:53,66.90,39.00,35.86,350.00,11.00,0.00,30.13,1019.90,10.00,M,CLR,M,M,M,M,M,M,M,M,KAMW 161853Z AUTO 35011KT 10SM CLR 19/04 A3013 RMK AO2 SLP199 T01940039
AMW,2017-04-16 13:55,M,M,M,360.00,14.00,M,30.13,M,10.00,M,CLR,M,M,M,M,M,M,M,M,KAMW 161855Z AUTO 36014KT 10SM CLR A3013 RMK MADISHF
AMW,2017-04-16 14:00,M,M,M,350.00,15.00,M,30.13,M,10.00,M,CLR,M,M,M,M,M,M,M,M,KAMW 161900Z AUTO 35015KT 10SM CLR A3013 RMK MADISHF
AMW,2017-04-16 14:05,M,M,M,360.00,12.00,M,30.13,M,10.00,M,CLR,M,M,M,M,M,M,M,M,KAMW 161905Z AUTO 36012KT 10SM CLR A3013 RMK MADISHF
AMW,2017-04-16 14:10,M,M,M,350.00,11.00,M,30.13,M,10.00,M,CLR,M,M,M,M,M,M,M,M,KAMW 161910Z AUTO 35011KT 10SM CLR A3013 RMK MADISHF
AMW,2017-04-16 14:15,M,M,M,340.00,15.00,M,30.13,M,10.00,M,CLR,M,M,M,M,M,M,M,M,KAMW 161915Z AUTO 34015KT 10SM CLR A3013 RMK MADISHF
AMW,2017-04-16 14:20,M,M,M,340.00,11.00,M,30.13,M,10.00,M,CLR,M,M,M,M,M,M,M,M,KAMW 161920Z AUTO 34011KT 10SM CLR A3013 RMK MADISHF
AMW,2017-04-16 14:25,M,M,M,360.00,11.00,M,30.13,M,10.00,M,CLR,M,M,M,M,M,M,M,M,KAMW 161925Z AUTO 36011KT 10SM CLR A3013 RMK MADISHF
AMW,2017-04-16 14:30,M,M,M,340.00,11.00,M,30.13,M,10.00,M,CLR,M,M,M,M,M,M,M,M,KAMW 161930Z AUTO 34011KT 10SM CLR A3013 RMK MADISHF
AMW,2017-04-16 14:35,M,M,M,340.00,9.00,M,30.13,M,10.00,M,CLR,M,M,M,M,M,M,M,M,KAMW 161935Z AUTO 34009KT 10SM CLR A3013 RMK MADISHF
AMW,2017-04-16 14:40,M,M,M,360.00,14.00,M,30.13,M,10.00,M,CLR,M,M,M,M,M,M,M,M,KAMW 161940Z AUTO 36014KT 10SM CLR A3013 RMK MADISHF
AMW,2017-04-16 14:45,M,M,M,10.00,8.00,M,30.13,M,10.00,M,CLR,M,M,M,M,M,M,M,M,KAMW 161945Z AUTO 01008KT 10SM CLR A3013 RMK MADISHF
AMW,2017-04-16 14:50,M,M,M,340.00,8.00,M,30.13,M,10.00,M,CLR,M,M,M,M,M,M,M,M,KAMW 161950Z AUTO 34008KT 10SM CLR A3013 RMK MADISHF
AMW,2017-04-16 14:53,68.00,37.90,33.07,350.00,8.00,0.00,30.13,1019.70,10.00,16.00,CLR,M,M,M,M,M,M,M,M,KAMW 161953Z AUTO 35008G16KT 10SM CLR 20/03 A3013 RMK AO2 SLP197 T02000033
AMW,2017-04-16 14:55,M,M,M,360.00,12.00,M,30.13,M,10.00,M,CLR,M,M,M,M,M,M,M,M,KAMW 161955Z AUTO 36012KT 10SM CLR A3013 RMK MADISHF
AMW,2017-04-16 15:00,M,M,M,320.00,10.00,M,30.13,M,10.00,M,CLR,M,M,M,M,M,M,M,M,KAMW 162000Z AUTO 32010KT 10SM CLR A3013 RMK MADISHF
AMW,2017-04-16 15:05,M,M,M,350.00,12.00,M,30.13,M,10.00,M,CLR,M,M,M,M,M,M,M,M,KAMW 162005Z AUTO 35012KT 10SM CLR A3013 RMK MADISHF
AMW,2017-04-16 15:10,M,M,M,330.00,9.00,M,30.13,M,10.00,M,CLR,M,M,M,M,M,M,M,M,KAMW 162010Z AUTO 33009KT 10SM CLR A3013 RMK MADISHF
AMW,2017-04-16 15:15,M,M,M,340.00,13.00,M,30.12,M,10.00,M,CLR,M,M,M,M,M,M,M,M,KAMW 162015Z AUTO 34013KT 10SM CLR A3012 RMK MADISHF
AMW,2017-04-16 15:20,M,M,M,350.00,12.00,M,30.12,M,10.00,M,CLR,M,M,M,M,M,M,M,M,KAMW 162020Z AUTO 35012KT 10SM CLR A3012 RMK MADISHF
AMW,2017-04-16 15:25,M,M,M,350.00,12.00,M,30.13,M,10.00,M,CLR,M,M,M,M,M,M,M,M,KAMW 162025Z AUTO 35012KT 10SM CLR A3013 RMK MADISHF
AMW,2017-04-16 15:30,M,M,M,350.00,12.00,M,30.12,M,10.00,M,CLR,M,M,M,M,M,M,M,M,KAMW 162030Z AUTO 35012KT 10SM CLR A3012 RMK MADISHF
AMW,2017-04-16 15:35,M,M,M,340.00,12.00,M,30.12,M,10.00,M,CLR,M,M,M,M,M,M,M,M,KAMW 162035Z AUTO 34012KT 10SM CLR A3012 RMK MADISHF
AMW,2017-04-16 15:40,M,M,M,360.00,11.00,M,30.12,M,10.00,M,CLR,M,M,M,M,M,M,M,M,KAMW 162040Z AUTO 36011KT 10SM CLR A3012 RMK MADISHF
AMW,2017-04-16 15:45,M,M,M,10.00,9.00,M,30.12,M,10.00,M,CLR,M,M,M,M,M,M,M,M,KAMW 162045Z AUTO 01009KT 10SM CLR A3012 RMK MADISHF
AMW,2017-04-16 15:50,M,M,M,360.00,9.00,M,30.12,M,10.00,M,CLR,M,M,M,M,M,M,M,M,KAMW 162050Z AUTO 36009KT 10SM CLR A3012 RMK MADISHF
AMW,2017-04-16 15:53,69.10,35.10,28.51,350.00,11.00,0.00,30.12,1019.40,10.00,M,CLR,M,M,M,M,M,M,M,M,KAMW 162053Z AUTO 35011KT 10SM CLR 21/02 A3012 RMK AO2 SLP194 T02060017 58005
AMW,2017-04-16 15:55,M,M,M,350.00,10.00,M,30.12,M,10.00,M,CLR,M,M,M,M,M,M,M,M,KAMW 162055Z AUTO 35010KT 10SM CLR A3012 RMK MADISHF
AMW,2017-04-16 16:00,M,M,M,340.00,11.00,M,30.12,M,10.00,16.00,CLR,M,M,M,M,M,M,M,M,KAMW 162100Z AUTO 34011G16KT 10SM CLR A3012 RMK MADISHF
AMW,2017-04-16 16:05,M,M,M,360.00,10.00,M,30.11,M,10.00,M,CLR,M,M,M,M,M,M,M,M,KAMW 162105Z AUTO 36010KT 10SM CLR A3011 RMK MADISHF
AMW,2017-04-16 16:10,M,M,M,330.00,10.00,M,30.11,M,10.00,M,CLR,M,M,M,M,M,M,M,M,KAMW 162110Z AUTO 33010KT 10SM CLR A3011 RMK MADISHF
AMW,2017-04-16 16:15,M,M,M,360.00,9.00,M,30.11,M,10.00,M,CLR,M,M,M,M,M,M,M,M,KAMW 162115Z AUTO 36009KT 10SM CLR A3011 RMK MADISHF
AMW,2017-04-16 16:20,M,M,M,10.00,8.00,M,30.11,M,10.00,M,CLR,M,M,M,M,M,M,M,M,KAMW 162120Z AUTO 01008KT 10SM CLR A3011 RMK MADISHF
AMW,2017-04-16 16:25,M,M,M,350.00,13.00,M,30.11,M,10.00,M,CLR,M,M,M,M,M,M,M,M,KAMW 162125Z AUTO 35013KT 10SM CLR A3011 RMK MADISHF
AMW,2017-04-16 16:30,M,M,M,330.00,10.00,M,30.11,M,10.00,M,CLR,M,M,M,M,M,M,M,M,KAMW 162130Z AUTO 33010KT 10SM CLR A3011 RMK MADISHF
AMW,2017-04-16 16:35,M,M,M,360.00,11.00,M,30.11,M,10.00,M,CLR,M,M,M,M,M,M,M,M,KAMW 162135Z AUTO 36011KT 10SM CLR A3011 RMK MADISHF
AMW,2017-04-16 16:40,M,M,M,10.00,9.00,M,30.10,M,10.00,M,CLR,M,M,M,M,M,M,M,M,KAMW 162140Z AUTO 01009KT 10SM CLR A3010 RMK MADISHF
AMW,2017-04-16 16:45,M,M,M,350.00,9.00,M,30.10,M,10.00,M,CLR,M,M,M,M,M,M,M,M,KAMW 162145Z AUTO 35009KT 10SM CLR A3010 RMK MADISHF
AMW,2017-04-16 16:50,M,M,M,350.00,8.00,M,30.11,M,10.00,M,CLR,M,M,M,M,M,M,M,M,KAMW 162150Z AUTO 35008KT 10SM CLR A3011 RMK MADISHF
AMW,2017-04-16 16:53,69.10,37.00,30.74,350.00,12.00,0.00,30.11,1019.00,10.00,M,CLR,M,M,M,M,M,M,M,M,KAMW 162153Z AUTO 35012KT 10SM CLR 21/03 A3011 RMK AO2 SLP190 T02060028
AMW,2017-04-16 16:55,M,M,M,350.00,11.00,M,30.11,M,10.00,M,CLR,M,M,M,M,M,M,M,M,KAMW 162155Z AUTO 35011KT 10SM CLR A3011 RMK MADISHF
AMW,2017-04-16 17:00,M,M,M,350.00,9.00,M,30.11,M,10.00,M,CLR,M,M,M,M,M,M,M,M,KAMW 162200Z AUTO 35009KT 10SM CLR A3011 RMK MADISHF
AMW,2017-04-16 17:05,M,M,M,350.00,6.00,M,30.11,M,10.00,M,CLR,M,M,M,M,M,M,M,M,KAMW 162205Z AUTO 35006KT 10SM CLR A3011 RMK MADISHF
AMW,2017-04-16 17:10,M,M,M,340.00,9.00,M,30.11,M,10.00,M,CLR,M,M,M,M,M,M,M,M,KAMW 162210Z AUTO 34009KT 10SM CLR A3011 RMK MADISHF
AMW,2017-04-16 17:15,M,M,M,340.00,5.00,M,30.10,M,10.00,M,CLR,M,M,M,M,M,M,M,M,KAMW 162215Z AUTO 34005KT 10SM CLR A3010 RMK MADISHF
AMW,2017-04-16 17:20,M,M,M,350.00,7.00,M,30.10,M,10.00,M,CLR,M,M,M,M,M,M,M,M,KAMW 162220Z AUTO 35007KT 10SM CLR A3010 RMK MADISHF
AMW,2017-04-16 17:25,M,M,M,350.00,8.00,M,30.10,M,10.00,M,CLR,M,M,M,M,M,M,M,M,KAMW 162225Z AUTO 35008KT 10SM CLR A3010 RMK MADISHF
AMW,2017-04-16 17:30,M,M,M,20.00,4.00,M,30.10,M,10.00,M,CLR,M,M,M,M,M,M,M,M,KAMW 162230Z AUTO 02004KT 10SM CLR A3010 RMK MADISHF
AMW,2017-04-16 17:35,M,M,M,350.00,10.00,M,30.10,M,10.00,M,CLR,M,M,M,M,M,M,M,M,KAMW 162235Z AUTO 35010KT 10SM CLR A3010 RMK MADISHF
AMW,2017-04-16 17:40,M,M,M,10.00,9.00,M,30.09,M,10.00,M,CLR,M,M,M,M,M,M,M,M,KAMW 162240Z AUTO 01009KT 10SM CLR A3009 RMK MADISHF
AMW,2017-04-16 17:45,M,M,M,360.00,9.00,M,30.10,M,10.00,M,CLR,M,M,M,M,M,M,M,M,KAMW 162245Z AUTO 36009KT 10SM CLR A3010 RMK MADISHF
AMW,2017-04-16 17:50,M,M,M,340.00,8.00,M,30.09,M,10.00,M,CLR,M,M,M,M,M,M,M,M,KAMW 162250Z AUTO 34008KT 10SM CLR A3009 RMK MADISHF
AMW,2017-04-16 17:53,68.00,36.00,30.69,10.00,9.00,0.00,30.09,1018.70,10.00,M,CLR,M,M,M,M,M,M,M,M,KAMW 162253Z AUTO 01009KT 10SM CLR 20/02 A3009 RMK AO2 SLP187 T02000022
AMW,2017-04-16 17:55,M,M,M,10.00,10.00,M,30.09,M,10.00,M,CLR,M,M,M,M,M,M,M,M,KAMW 162255Z AUTO 01010KT 10SM CLR A3009 RMK MADISHF
AMW,2017-04-16 18:00,M,M,M,20.00,7.00,M,30.09,M,10.00,M,CLR,M,M,M,M,M,M,M,M,KAMW 162300Z AUTO 02007KT 10SM CLR A3009 RMK MADISHF
AMW,2017-04-16 18:05,M,M,M,350.00,6.00,M,30.09,M,10.00,M,CLR,M,M,M,M,M,M,M,M,KAMW 162305Z AUTO 35006KT 10SM CLR A3009 RMK MADISHF
AMW,2017-04-16 18:10,M,M,M,10.00,8.00,M,30.09,M,10.00,M,CLR,M,M,M,M,M,M,M,M,KAMW 162310Z AUTO 01008KT 10SM CLR A3009 RMK MADISHF
AMW,2017-04-16 18:15,M,M,M,350.00,8.00,M,30.09,M,10.00,M,CLR,M,M,M,M,M,M,M,M,KAMW 162315Z AUTO 35008KT 10SM CLR A3009 RMK MADISHF
AMW,2017-04-16 18:20,M,M,M,10.00,7.00,M,30.09,M,10.00,M,CLR,M,M,M,M,M,M,M,M,KAMW 162320Z AUTO 01007KT 10SM CLR A3009 RMK MADISHF
AMW,2017-04-16 18:25,M,M,M,10.00,10.00,M,30.08,M,10.00,M,CLR,M,M,M,M,M,M,M,M,KAMW 162325Z AUTO 01010KT 10SM CLR A3008 RMK MADISHF
AMW,2017-04-16 18:30,M,M,M,360.00,9.00,M,30.08,M,10.00,M,CLR,M,M,M,M,M,M,M,M,KAMW 162330Z AUTO 36009KT 10SM CLR A3008 RMK MADISHF
AMW,2017-04-16 18:35,M,M,M,10.00,8.00,M,30.08,M,10.00,M,CLR,M,M,M,M,M,M,M,M,KAMW 162335Z AUTO 01008KT 10SM CLR A3008 RMK MADISHF
AMW,2017-04-16 18:40,M,M,M,20.00,5.00,M,30.08,M,10.00,M,CLR,M,M,M,M,M,M,M,M,KAMW 162340Z AUTO 02005KT 10SM CLR A3008 RMK MADISHF
AMW,2017-04-16 18:45,M,M,M,20.00,5.00,M,30.08,M,10.00,M,CLR,M,M,M,M,M,M,M,M,KAMW 162345Z AUTO 02005KT 10SM CLR A3008 RMK MADISHF
AMW,2017-04-16 18:50,M,M,M,10.00,6.00,M,30.08,M,10.00,M,CLR,M,M,M,M,M,M,M,M,KAMW 162350Z AUTO 01006KT 10SM CLR A3008 RMK MADISHF
AMW,2017-04-16 18:53,64.90,37.00,35.54,360.00,8.00,0.00,30.08,1018.40,10.00,M,CLR,M,M,M,M,M,M,M,M,KAMW 162353Z AUTO 36008KT 10SM CLR 18/03 A3008 RMK AO2 SLP184 T01830028 10206 20178 56011
AMW,2017-04-16 18:55,M,M,M,360.00,8.00,M,30.08,M,10.00,M,CLR,M,M,M,M,M,M,M,M,KAMW 162355Z AUTO 36008KT 10SM CLR A3008 RMK MADISHF
AMW,2017-04-16 19:00,M,M,M,350.00,6.00,M,30.09,M,10.00,M,CLR,M,M,M,M,M,M,M,M,KAMW 170000Z AUTO 35006KT 10SM CLR A3009 RMK MADISHF
AMW,2017-04-16 19:05,M,M,M,10.00,5.00,M,30.09,M,10.00,M,CLR,M,M,M,M,M,M,M,M,KAMW 170005Z AUTO 01005KT 10SM CLR A3009 RMK MADISHF
AMW,2017-04-16 19:10,M,M,M,10.00,5.00,M,30.09,M,10.00,M,CLR,M,M,M,M,M,M,M,M,KAMW 170010Z AUTO 01005KT 10SM CLR A3009 RMK MADISHF
AMW,2017-04-16 19:15,M,M,M,360.00,4.00,M,30.09,M,10.00,M,CLR,M,M,M,M,M,M,M,M,KAMW 170015Z AUTO 36004KT 10SM CLR A3009 RMK MADISHF
AMW,2017-04-16 19:20,M,M,M,360.00,4.00,M,30.09,M,10.00,M,CLR,M,M,M,M,M,M,M,M,KAMW 170020Z AUTO 36004KT 10SM CLR A3009 RMK MADISHF
AMW,2017-04-16 19:25,M,M,M,360.00,3.00,M,30.09,M,10.00,M,CLR,M,M,M,M,M,M,M,M,KAMW 170025Z AUTO 36003KT 10SM CLR A3009 RMK MADISHF
AMW,2017-04-16 19:30,M,M,M,360.00,3.00,M,30.09,M,10.00,M,CLR,M,M,M,M,M,M,M,M,KAMW 170030Z AUTO 36003KT 10SM CLR A3009 RMK MADISHF
AMW,2017-04-16 19:35,M,M,M,350.00,5.00,M,30.09,M,10.00,M,CLR,M,M,M,M,M,M,M,M,KAMW 170035Z AUTO 35005KT 10SM CLR A3009 RMK MADISHF
AMW,2017-04-16 19:40,M,M,M,340.00,4.00,M,30.09,M,10.00,M,CLR,M,M,M,M,M,M,M,M,KAMW 170040Z AUTO 34004KT 10SM CLR A3009 RMK MADISHF
AMW,2017-04-16 19:45,M,M,M,340.00,4.00,M,30.09,M,10.00,M,CLR,M,M,M,M,M,M,M,M,KAMW 170045Z AUTO 34004KT 10SM CLR A3009 RMK MADISHF
AMW,2017-04-16 19:50,M,M,M,340.00,3.00,M,30.09,M,10.00,M,CLR,M,M,M,M,M,M,M,M,KAMW 170050Z AUTO 34003KT 10SM CLR A3009 RMK MADISHF
AMW,2017-04-16 19:53,63.00,35.10,35.24,0.00,0.00,0.00,30.09,1018.60,10.00,M,CLR,M,M,M,M,M,M,M,M,KAMW 170053Z AUTO 00000KT 10SM CLR 17/02 A3009 RMK AO2 SLP186 T01720017
AMW,2017-04-16 19:55,M,M,M,0.00,0.00,M,30.09,M,10.00,M,CLR,M,M,M,M,M,M,M,M,KAMW 170055Z AUTO 00000KT 10SM CLR A3009 RMK MADISHF
AMW,2017-04-16 20:00,M,M,M,0.00,0.00,M,30.09,M,10.00,M,CLR,M,M,M,M,M,M,M,M,KAMW 170100Z AUTO 00000KT 10SM CLR A3009 RMK MADISHF
AMW,2017-04-16 20:05,M,M,M,0.00,0.00,M,30.09,M,10.00,M,CLR,M,M,M,M,M,M,M,M,KAMW 170105Z AUTO 00000KT 10SM CLR A3009 RMK MADISHF
AMW,2017-04-16 20:10,M,M,M,0.00,0.00,M,30.09,M,10.00,M,CLR,M,M,M,M,M,M,M,M,KAMW 170110Z AUTO 00000KT 10SM CLR A3009 RMK MADISHF
AMW,2017-04-16 20:15,M,M,M,0.00,0.00,M,30.09,M,10.00,M,CLR,M,M,M,M,M,M,M,M,KAMW 170115Z AUTO 00000KT 10SM CLR A3009 RMK MADISHF
AMW,2017-04-16 20:20,M,M,M,0.00,0.00,M,30.09,M,10.00,M,CLR,M,M,M,M,M,M,M,M,KAMW 170120Z AUTO 00000KT 10SM CLR A3009 RMK MADISHF
AMW,2017-04-16 20:25,M,M,M,0.00,0.00,M,30.10,M,10.00,M,CLR,M,M,M,M,M,M,M,M,KAMW 170125Z AUTO 00000KT 10SM CLR A3010 RMK MADISHF
AMW,2017-04-16 20:30,M,M,M,0.00,0.00,M,30.10,M,10.00,M,CLR,M,M,M,M,M,M,M,M,KAMW 170130Z AUTO 00000KT 10SM CLR A3010 RMK MADISHF
AMW,2017-04-16 20:35,M,M,M,0.00,0.00,M,30.10,M,10.00,M,CLR,M,M,M,M,M,M,M,M,KAMW 170135Z AUTO 00000KT 10SM CLR A3010 RMK MADISHF
AMW,2017-04-16 20:40,M,M,M,0.00,0.00,M,30.11,M,10.00,M,CLR,M,M,M,M,M,M,M,M,KAMW 170140Z AUTO 00000KT 10SM CLR A3011 RMK MADISHF
AMW,2017-04-16 20:45,M,M,M,0.00,0.00,M,30.11,M,10.00,M,CLR,M,M,M,M,M,M,M,M,KAMW 170145Z AUTO 00000KT 10SM CLR A3011 RMK MADISHF
AMW,2017-04-16 20:50,M,M,M,0.00,0.00,M,30.11,M,10.00,M,CLR,M,M,M,M,M,M,M,M,KAMW 170150Z AUTO 00000KT 10SM CLR A3011 RMK MADISHF
AMW,2017-04-16 20:53,55.90,39.90,54.83,0.00,0.00,0.00,30.11,1019.60,10.00,M,CLR,M,M,M,M,M,M,M,M,KAMW 170153Z AUTO 00000KT 10SM CLR 13/04 A3011 RMK AO2 SLP196 T01330044
AMW,2017-04-16 20:55,M,M,M,0.00,0.00,M,30.12,M,10.00,M,CLR,M,M,M,M,M,M,M,M,KAMW 170155Z AUTO 00000KT 10SM CLR A3012 RMK MADISHF
AMW,2017-04-16 21:00,M,M,M,180.00,3.00,M,30.12,M,10.00,M,CLR,M,M,M,M,M,M,M,M,KAMW 170200Z AUTO 18003KT 10SM CLR A3012 RMK MADISHF
AMW,2017-04-16 21:05,M,M,M,190.00,4.00,M,30.12,M,10.00,M,CLR,M,M,M,M,M,M,M,M,KAMW 170205Z AUTO 19004KT 10SM CLR A3012 RMK MADISHF
AMW,2017-04-16 21:10,M,M,M,190.00,4.00,M,30.12,M,10.00,M,CLR,M,M,M,M,M,M,M,M,KAMW 170210Z AUTO 19004KT 10SM CLR A3012 RMK MADISHF
AMW,2017-04-16 21:15,M,M,M,180.00,3.00,M,30.13,M,10.00,M,CLR,M,M,M,M,M,M,M,M,KAMW 170215Z AUTO 18003KT 10SM CLR A3013 RMK MADISHF
AMW,2017-04-16 21:20,M,M,M,180.00,3.00,M,30.13,M,10.00,M,CLR,M,M,M,M,M,M,M,M,KAMW 170220Z AUTO 18003KT 10SM CLR A3013 RMK MADISHF
AMW,2017-04-16 21:25,M,M,M,0.00,0.00,M,30.13,M,10.00,M,CLR,M,M,M,M,M,M,M,M,KAMW 170225Z AUTO 00000KT 10SM CLR A3013 RMK MADISHF
AMW,2017-04-16 21:30,M,M,M,180.00,3.00,M,30.13,M,10.00,M,CLR,M,M,M,M,M,M,M,M,KAMW 170230Z AUTO 18003KT 10SM CLR A3013 RMK MADISHF
AMW,2017-04-16 21:35,M,M,M,180.00,3.00,M,30.13,M,10.00,M,CLR,M,M,M,M,M,M,M,M,KAMW 170235Z AUTO 18003KT 10SM CLR A3013 RMK MADISHF
AMW,2017-04-16 21:40,M,M,M,190.00,3.00,M,30.13,M,10.00,M,CLR,M,M,M,M,M,M,M,M,KAMW 170240Z AUTO 19003KT 10SM CLR A3013 RMK MADISHF
AMW,2017-04-16 21:45,M,M,M,0.00,0.00,M,30.13,M,10.00,M,CLR,M,M,M,M,M,M,M,M,KAMW 170245Z AUTO 00000KT 10SM CLR A3013 RMK MADISHF
AMW,2017-04-16 21:50,M,M,M,0.00,0.00,M,30.13,M,10.00,M,CLR,M,M,M,M,M,M,M,M,KAMW 170250Z AUTO 00000KT 10SM CLR A3013 RMK MADISHF
AMW,2017-04-16 21:53,50.00,44.10,80.06,0.00,0.00,0.00,30.13,1020.20,10.00,M,CLR,M,M,M,M,M,M,M,M,KAMW 170253Z AUTO 00000KT 10SM CLR 10/07 A3013 RMK AO2 SLP202 T01000067 53016
AMW,2017-04-16 21:55,M,M,M,0.00,0.00,M,30.13,M,10.00,M,CLR,M,M,M,M,M,M,M,M,KAMW 170255Z AUTO 00000KT 10SM CLR A3013 RMK MADISHF
AMW,2017-04-16 22:00,M,M,M,0.00,0.00,M,30.13,M,10.00,M,CLR,M,M,M,M,M,M,M,M,KAMW 170300Z AUTO 00000KT 10SM CLR A3013 RMK MADISHF
AMW,2017-04-16 22:05,M,M,M,210.00,4.00,M,30.13,M,10.00,M,CLR,M,M,M,M,M,M,M,M,KAMW 170305Z AUTO 21004KT 10SM CLR A3013 RMK MADISHF
AMW,2017-04-16 22:10,M,M,M,190.00,3.00,M,30.13,M,10.00,M,CLR,M,M,M,M,M,M,M,M,KAMW 170310Z AUTO 19003KT 10SM CLR A3013 RMK MADISHF
AMW,2017-04-16 22:15,M,M,M,0.00,0.00,M,30.13,M,10.00,M,CLR,M,M,M,M,M,M,M,M,KAMW 170315Z AUTO 00000KT 10SM CLR A3013 RMK MADISHF
AMW,2017-04-16 22:20,M,M,M,0.00,0.00,M,30.13,M,10.00,M,CLR,M,M,M,M,M,M,M,M,KAMW 170320Z AUTO 00000KT 10SM CLR A3013 RMK MADISHF
AMW,2017-04-16 22:25,M,M,M,0.00,0.00,M,30.13,M,10.00,M,CLR,M,M,M,M,M,M,M,M,KAMW 170325Z AUTO 00000KT 10SM CLR A3013 RMK MADISHF
AMW,2017-04-16 22:30,M,M,M,190.00,3.00,M,30.13,M,10.00,M,CLR,M,M,M,M,M,M,M,M,KAMW 170330Z AUTO 19003KT 10SM CLR A3013 RMK MADISHF
AMW,2017-04-16 22:35,M,M,M,180.00,3.00,M,30.13,M,10.00,M,CLR,M,M,M,M,M,M,M,M,KAMW 170335Z AUTO 18003KT 10SM CLR A3013 RMK MADISHF
AMW,2017-04-16 22:40,M,M,M,190.00,3.00,M,30.13,M,10.00,M,CLR,M,M,M,M,M,M,M,M,KAMW 170340Z AUTO 19003KT 10SM CLR A3013 RMK MADISHF
AMW,2017-04-16 22:45,M,M,M,190.00,3.00,M,30.13,M,10.00,M,CLR,M,M,M,M,M,M,M,M,KAMW 170345Z AUTO 19003KT 10SM CLR A3013 RMK MADISHF
AMW,2017-04-16 22:50,M,M,M,190.00,3.00,M,30.12,M,10.00,M,CLR,M,M,M,M,M,M,M,M,KAMW 170350Z AUTO 19003KT 10SM CLR A3012 RMK MADISHF
AMW,2017-04-16 22:53,48.00,43.00,82.72,190.00,3.00,0.00,30.12,1019.90,10.00,M,CLR,M,M,M,M,M,M,M,M,KAMW 170353Z AUTO 19003KT 10SM CLR 09/06 A3012 RMK AO2 SLP199 T00890061
AMW,2017-04-16 22:55,M,M,M,180.00,3.00,M,30.12,M,10.00,M,CLR,M,M,M,M,M,M,M,M,KAMW 170355Z AUTO 18003KT 10SM CLR A3012 RMK MADISHF
AMW,2017-04-16 23:00,M,M,M,170.00,5.00,M,30.12,M,10.00,M,CLR,M,M,M,M,M,M,M,M,KAMW 170400Z AUTO 17005KT 10SM CLR A3012 RMK MADISHF
AMW,2017-04-16 23:05,M,M,M,160.00,5.00,M,30.12,M,10.00,M,CLR,M,M,M,M,M,M,M,M,KAMW 170405Z AUTO 16005KT 10SM CLR A3012 RMK MADISHF
AMW,2017-04-16 23:10,M,M,M,180.00,4.00,M,30.12,M,10.00,M,CLR,M,M,M,M,M,M,M,M,KAMW 170410Z AUTO 18004KT 10SM CLR A3012 RMK MADISHF
AMW,2017-04-16 23:15,M,M,M,180.00,5.00,M,30.12,M,10.00,M,CLR,M,M,M,M,M,M,M,M,KAMW 170415Z AUTO 18005KT 10SM CLR A3012 RMK MADISHF
AMW,2017-04-16 23:20,M,M,M,180.00,3.00,M,30.12,M,10.00,M,CLR,M,M,M,M,M,M,M,M,KAMW 170420Z AUTO 18003KT 10SM CLR A3012 RMK MADISHF
AMW,2017-04-16 23:25,M,M,M,0.00,0.00,M,30.12,M,10.00,M,CLR,M,M,M,M,M,M,M,M,KAMW 170425Z AUTO 00000KT 10SM CLR A3012 RMK MADISHF
AMW,2017-04-16 23:30,M,M,M,0.00,0.00,M,30.12,M,10.00,M,CLR,M,M,M,M,M,M,M,M,KAMW 170430Z AUTO 00000KT 10SM CLR A3012 RMK MADISHF
AMW,2017-04-16 23:35,M,M,M,210.00,3.00,M,30.12,M,10.00,M,CLR,M,M,M,M,M,M,M,M,KAMW 170435Z AUTO 21003KT 10SM CLR A3012 RMK MADISHF
AMW,2017-04-16 23:40,M,M,M,190.00,3.00,M,30.12,M,10.00,M,CLR,M,M,M,M,M,M,M,M,KAMW 170440Z AUTO 19003KT 10SM CLR A3012 RMK MADISHF
AMW,2017-04-16 23:45,M,M,M,0.00,0.00,M,30.12,M,10.00,M,CLR,M,M,M,M,M,M,M,M,KAMW 170445Z AUTO 00000KT 10SM CLR A3012 RMK MADISHF
AMW,2017-04-16 23:50,M,M,M,0.00,0.00,M,30.13,M,10.00,M,CLR,M,M,M,M,M,M,M,M,KAMW 170450Z AUTO 00000KT 10SM CLR A3013 RMK MADISHF
AMW,2017-04-16 23:53,48.90,42.10,77.26,0.00,0.00,0.00,30.13,1020.00,10.00,M,CLR,M,M,M,M,M,M,M,M,KAMW 170453Z AUTO 00000KT 10SM CLR 09/06 A3013 RMK AO2 SLP200 T00940056
AMW,2017-04-16 23:55,M,M,M,0.00,0.00,M,30.13,M,10.00,M,CLR,M,M,M,M,M,M,M,M,KAMW 170455Z AUTO 00000KT 10SM CLR A3013 RMK MADISHF
AMW,2017-04-17 00:00,M,M,M,0.00,0.00,M,30.13,M,10.00,M,CLR,M,M,M,M,M,M,M,M,KAMW 170500Z AUTO 00000KT 10SM CLR A3013 RMK MADISHF
AMW,2017-04-17 00:05,M,M,M,0.00,0.00,M,30.13,M,10.00,M,CLR,M,M,M,M,M,M,M,M,KAMW 170505Z AUTO 00000KT 10SM CLR A3013 RMK MADISHF
AMW,2017-04-17 00:10,M,M,M,0.00,0.00,M,30.13,M,10.00,M,CLR,M,M,M,M,M,M,M,M,KAMW 170510Z AUTO 00000KT 10SM CLR A3013 RMK MADISHF
AMW,2017-04-17 00:15,M,M,M,0.00,0.00,M,30.13,M,10.00,M,CLR,M,M,M,M,M,M,M,M,KAMW 170515Z AUTO 00000KT 10SM CLR A3013 RMK MADISHF
AMW,2017-04-17 00:20,M,M,M,0.00,0.00,M,30.13,M,10.00,M,CLR,M,M,M,M,M,M,M,M,KAMW 170520Z AUTO 00000KT 10SM CLR A3013 RMK MADISHF
AMW,2017-04-17 00:25,M,M,M,0.00,0.00,M,30.13,M,10.00,M,CLR,M,M,M,M,M,M,M,M,KAMW 170525Z AUTO 00000KT 10SM CLR A3013 RMK MADISHF
AMW,2017-04-17 00:30,M,M,M,0.00,0.00,M,30.13,M,10.00,M,CLR,M,M,M,M,M,M,M,M,KAMW 170530Z AUTO 00000KT 10SM CLR A3013 RMK MADISHF
AMW,2017-04-17 00:35,M,M,M,0.00,0.00,M,30.13,M,10.00,M,CLR,M,M,M,M,M,M,M,M,KAMW 170535Z AUTO 00000KT 10SM CLR A3013 RMK MADISHF
AMW,2017-04-17 00:40,M,M,M,0.00,0.00,M,30.14,M,10.00,M,CLR,M,M,M,M,M,M,M,M,KAMW 170540Z AUTO 00000KT 10SM CLR A3014 RMK MADISHF
AMW,2017-04-17 00:45,M,M,M,0.00,0.00,M,30.13,M,10.00,M,FEW,M,M,M,11000.00,M,M,M,M,KAMW 170545Z AUTO 00000KT 10SM FEW110 A3013 RMK MADISHF
AMW,2017-04-17 00:50,M,M,M,0.00,0.00,M,30.13,M,10.00,M,FEW,M,M,M,11000.00,M,M,M,M,KAMW 170550Z AUTO 00000KT 10SM FEW110 A3013 RMK MADISHF
AMW,2017-04-17 00:53,46.90,42.10,83.28,0.00,0.00,0.00,30.13,1020.10,10.00,M,FEW,M,M,M,11000.00,M,M,M,M,KAMW 170553Z AUTO 00000KT 10SM FEW110 08/06 A3013 RMK AO2 SLP201 T00830056 10189 20078 402060078 53000
AMW,2017-04-17 00:55,M,M,M,0.00,0.00,M,30.13,M,10.00,M,FEW,M,M,M,11000.00,M,M,M,M,KAMW 170555Z AUTO 00000KT 10SM FEW110 A3013 RMK MADISHF
AMW,2017-04-17 01:00,M,M,M,0.00,0.00,M,30.13,M,10.00,M,SCT,M,M,M,12000.00,M,M,M,M,KAMW 170600Z AUTO 00000KT 10SM SCT120 A3013 RMK MADISHF
AMW,2017-04-17 01:05,M,M,M,0.00,0.00,M,30.13,M,10.00,M,BKN,M,M,M,11000.00,M,M,M,M,KAMW 170605Z AUTO 00000KT 10SM BKN110 A3013 RMK MADISHF
AMW,2017-04-17 01:10,M,M,M,0.00,0.00,M,30.13,M,10.00,M,BKN,M,M,M,11000.00,M,M,M,M,KAMW 170610Z AUTO 00000KT 10SM BKN110 A3013 RMK MADISHF
AMW,2017-04-17 01:15,M,M,M,0.00,0.00,M,30.13,M,10.00,M,BKN,M,M,M,11000.00,M,M,M,M,KAMW 170615Z AUTO 00000KT 10SM BKN110 A3013 RMK MADISHF
AMW,2017-04-17 01:20,M,M,M,220.00,4.00,M,30.13,M,10.00,M,BKN,M,M,M,11000.00,M,M,M,M,KAMW 170620Z AUTO 22004KT 10SM BKN110 A3013 RMK MADISHF
AMW,2017-04-17 01:25,M,M,M,220.00,5.00,M,30.13,M,10.00,M,OVC,M,M,M,11000.00,M,M,M,M,KAMW 170625Z AUTO 22005KT 10SM OVC110 A3013 RMK MADISHF
AMW,2017-04-17 01:30,M,M,M,220.00,4.00,M,30.13,M,10.00,M,OVC,M,M,M,11000.00,M,M,M,M,KAMW 170630Z AUTO 22004KT 10SM OVC110 A3013 RMK MADISHF
AMW,2017-04-17 01:35,M,M,M,220.00,3.00,M,30.13,M,10.00,M,OVC,M,M,M,11000.00,M,M,M,M,KAMW 170635Z AUTO 22003KT 10SM OVC110 A3013 RMK MADISHF
AMW,2017-04-17 01:40,M,M,M,230.00,4.00,M,30.13,M,10.00,M,OVC,M,M,M,11000.00,M,M,M,M,KAMW 170640Z AUTO 23004KT 10SM OVC110 A3013 RMK MADISHF
AMW,2017-04-17 01:45,M,M,M,220.00,3.00,M,30.13,M,10.00,M,OVC,M,M,M,12000.00,M,M,M,M,KAMW 170645Z AUTO 22003KT 10SM OVC120 A3013 RMK MADISHF
AMW,2017-04-17 01:50,M,M,M,0.00,0.00,M,30.13,M,10.00,M,OVC,M,M,M,12000.00,M,M,M,M,KAMW 170650Z AUTO 00000KT 10SM OVC120 A3013 RMK MADISHF
AMW,2017-04-17 01:53,50.00,42.10,74.15,0.00,0.00,0.00,30.13,1020.10,10.00,M,OVC,M,M,M,12000.00,M,M,M,M,KAMW 170653Z AUTO 00000KT 10SM OVC120 10/06 A3013 RMK AO2 SLP201 T01000056
AMW,2017-04-17 01:55,M,M,M,0.00,0.00,M,30.13,M,10.00,M,OVC,M,M,M,12000.00,M,M,M,M,KAMW 170655Z AUTO 00000KT 10SM OVC120 A3013 RMK MADISHF
AMW,2017-04-17 02:00,M,M,M,0.00,0.00,M,30.13,M,10.00,M,OVC,M,M,M,12000.00,M,M,M,M,KAMW 170700Z AUTO 00000KT 10SM OVC120 A3013 RMK MADISHF
AMW,2017-04-17 02:05,M,M,M,0.00,0.00,M,30.13,M,10.00,M,OVC,M,M,M,12000.00,M,M,M,M,KAMW 170705Z AUTO 00000KT 10SM OVC120 A3013 RMK MADISHF
AMW,2017-04-17 02:10,M,M,M,200.00,3.00,M,30.13,M,10.00,M,OVC,M,M,M,12000.00,M,M,M,M,KAMW 170710Z AUTO 20003KT 10SM OVC120 A3013 RMK MADISHF
AMW,2017-04-17 02:15,M,M,M,180.00,4.00,M,30.12,M,10.00,M,OVC,M,M,M,12000.00,M,M,M,M,KAMW 170715Z AUTO 18004KT 10SM OVC120 A3012 RMK MADISHF
AMW,2017-04-17 02:20,M,M,M,150.00,5.00,M,30.12,M,10.00,M,OVC,M,M,M,12000.00,M,M,M,M,KAMW 170720Z AUTO 15005KT 10SM OVC120 A3012 RMK MADISHF
AMW,2017-04-17 02:25,M,M,M,160.00,4.00,M,30.12,M,10.00,M,OVC,M,M,M,12000.00,M,M,M,M,KAMW 170725Z AUTO 16004KT 10SM OVC120 A3012 RMK MADISHF
AMW,2017-04-17 02:30,M,M,M,0.00,0.00,M,30.12,M,10.00,M,BKN,M,M,M,12000.00,M,M,M,M,KAMW 170730Z AUTO 00000KT 10SM BKN120 A3012 RMK MADISHF
AMW,2017-04-17 02:35,M,M,M,220.00,5.00,M,30.12,M,10.00,M,BKN,M,M,M,12000.00,M,M,M,M,KAMW 170735Z AUTO 22005KT 10SM BKN120 A3012 RMK MADISHF
AMW,2017-04-17 02:40,M,M,M,200.00,5.00,M,30.11,M,10.00,M,SCT,M,M,M,12000.00,M,M,M,M,KAMW 170740Z AUTO 20005KT 10SM SCT120 A3011 RMK MADISHF
AMW,2017-04-17 02:45,M,M,M,200.00,7.00,M,30.11,M,10.00,M,SCT,M,M,M,12000.00,M,M,M,M,KAMW 170745Z AUTO 20007KT 10SM SCT120 A3011 RMK MADISHF
AMW,2017-04-17 02:50,M,M,M,210.00,6.00,M,30.12,M,10.00,M,SCT,M,M,M,12000.00,M,M,M,M,KAMW 170750Z AUTO 21006KT 10SM SCT120 A3012 RMK MADISHF
AMW,2017-04-17 02:53,51.10,43.00,73.69,200.00,6.00,0.00,30.11,1019.40,10.00,M,SCT,M,M,M,12000.00,M,M,M,M,KAMW 170753Z AUTO 20006KT 10SM SCT120 11/06 A3011 RMK AO2 SLP194 T01060061
AMW,2017-04-17 02:55,M,M,M,200.00,7.00,M,30.11,M,10.00,M,BKN,M,M,M,12000.00,M,M,M,M,KAMW 170755Z AUTO 20007KT 10SM BKN120 A3011 RMK MADISHF
AMW,2017-04-17 03:00,M,M,M,200.00,7.00,M,30.11,M,10.00,M,BKN,M,M,M,12000.00,M,M,M,M,KAMW 170800Z AUTO 20007KT 10SM BKN120 A3011 RMK MADISHF
AMW,2017-04-17 03:05,M,M,M,200.00,5.00,M,30.12,M,10.00,M,BKN,M,M,M,12000.00,M,M,M,M,KAMW 170805Z AUTO 20005KT 10SM BKN120 A3012 RMK MADISHF
AMW,2017-04-17 03:10,M,M,M,220.00,3.00,M,30.12,M,10.00,M,BKN,M,M,M,12000.00,M,M,M,M,KAMW 170810Z AUTO 22003KT 10SM BKN120 A3012 RMK MADISHF
AMW,2017-04-17 03:15,M,M,M,0.00,0.00,M,30.12,M,10.00,M,BKN,M,M,M,12000.00,M,M,M,M,KAMW 170815Z AUTO 00000KT 10SM BKN120 A3012 RMK MADISHF
AMW,2017-04-17 03:20,M,M,M,0.00,0.00,M,30.12,M,10.00,M,BKN,M,M,M,11000.00,M,M,M,M,KAMW 170820Z AUTO 00000KT 10SM BKN110 A3012 RMK MADISHF
AMW,2017-04-17 03:25,M,M,M,0.00,0.00,M,30.12,M,10.00,M,BKN,M,M,M,11000.00,M,M,M,M,KAMW 170825Z AUTO 00000KT 10SM BKN110 A3012 RMK MADISHF
AMW,2017-04-17 03:30,M,M,M,0.00,0.00,M,30.13,M,10.00,M,BKN,M,M,M,11000.00,M,M,M,M,KAMW 170830Z AUTO 00000KT 10SM BKN110 A3013 RMK MADISHF
AMW,2017-04-17 03:35,M,M,M,0.00,0.00,M,30.13,M,10.00,M,BKN,M,M,M,11000.00,M,M,M,M,KAMW 170835Z AUTO 00000KT 10SM BKN110 A3013 RMK MADISHF
AMW,2017-04-17 03:40,M,M,M,0.00,0.00,M,30.14,M,10.00,M,BKN,M,M,M,11000.00,M,M,M,M,KAMW 170840Z AUTO 00000KT 10SM BKN110 A3014 RMK MADISHF
AMW,2017-04-17 03:45,M,M,M,260.00,4.00,M,30.14,M,10.00,M,BKN,M,M,M,11000.00,M,M,M,M,KAMW 170845Z AUTO 26004KT 10SM BKN110 A3014 RMK MADISHF
AMW,2017-04-17 03:50,M,M,M,260.00,6.00,M,30.14,M,10.00,M,BKN,M,M,M,11000.00,M,M,M,M,KAMW 170850Z AUTO 26006KT 10SM BKN110 A3014 RMK MADISHF
AMW,2017-04-17 03:53,50.00,43.00,76.76,270.00,6.00,0.00,30.14,1020.30,10.00,M,OVC,M,M,M,11000.00,M,M,M,M,KAMW 170853Z AUTO 27006KT 10SM OVC110 10/06 A3014 RMK AO2 SLP203 T01000061 53003
AMW,2017-04-17 03:55,M,M,M,260.00,7.00,M,30.14,M,10.00,M,OVC,M,M,M,11000.00,M,M,M,M,KAMW 170855Z AUTO 26007KT 10SM OVC110 A3014 RMK MADISHF
AMW,2017-04-17 04:00,M,M,M,250.00,6.00,M,30.14,M,10.00,M,OVC,M,M,M,11000.00,M,M,M,M,KAMW 170900Z AUTO 25006KT 10SM OVC110 A3014 RMK MADISHF
AMW,2017-04-17 04:05,M,M,M,260.00,9.00,M,30.14,M,10.00,M,OVC,M,M,M,11000.00,M,M,M,M,KAMW 170905Z AUTO 26009KT 10SM OVC110 A3014 RMK MADISHF
AMW,2017-04-17 04:10,M,M,M,250.00,7.00,M,30.14,M,10.00,M,BKN,M,M,M,11000.00,M,M,M,M,KAMW 170910Z AUTO 25007KT 10SM BKN110 A3014 RMK MADISHF
AMW,2017-04-17 04:15,M,M,M,230.00,5.00,M,30.15,M,10.00,M,BKN,M,M,M,11000.00,M,M,M,M,KAMW 170915Z AUTO 23005KT 10SM BKN110 A3015 RMK MADISHF
AMW,2017-04-17 04:20,M,M,M,210.00,3.00,M,30.15,M,10.00,M,BKN,M,M,M,11000.00,M,M,M,M,KAMW 170920Z AUTO 21003KT 10SM BKN110 A3015 RMK MADISHF
AMW,2017-04-17 04:25,M,M,M,210.00,3.00,M,30.15,M,10.00,M,BKN,M,M,M,11000.00,M,M,M,M,KAMW 170925Z AUTO 21003KT 10SM BKN110 A3015 RMK MADISHF
AMW,2017-04-17 04:30,M,M,M,200.00,3.00,M,30.15,M,10.00,M,SCT,M,M,M,11000.00,M,M,M,M,KAMW 170930Z AUTO 20003KT 10SM SCT110 A3015 RMK MADISHF
AMW,2017-04-17 04:35,M,M,M,240.00,3.00,M,30.15,M,10.00,M,FEW,M,M,M,11000.00,M,M,M,M,KAMW 170935Z AUTO 24003KT 10SM FEW110 A3015 RMK MADISHF
AMW,2017-04-17 04:40,M,M,M,0.00,0.00,M,30.15,M,10.00,M,FEW,M,M,M,11000.00,M,M,M,M,KAMW 170940Z AUTO 00000KT 10SM FEW110 A3015 RMK MADISHF
AMW,2017-04-17 04:45,M,M,M,0.00,0.00,M,30.15,M,10.00,M,FEW,M,M,M,11000.00,M,M,M,M,KAMW 170945Z AUTO 00000KT 10SM FEW110 A3015 RMK MADISHF
AMW,2017-04-17 04:50,M,M,M,270.00,3.00,M,30.15,M,10.00,M,CLR,M,M,M,M,M,M,M,M,KAMW 170950Z AUTO 27003KT 10SM CLR A3015 RMK MADISHF
AMW,2017-04-17 04:53,46.00,42.10,86.16,310.00,4.00,0.00,30.16,1020.80,10.00,M,CLR,M,M,M,M,M,M,M,M,KAMW 170953Z AUTO 31004KT 10SM CLR 08/06 A3016 RMK AO2 SLP208 T00780056
AMW,2017-04-17 04:55,M,M,M,340.00,4.00,M,30.16,M,10.00,M,CLR,M,M,M,M,M,M,M,M,KAMW 170955Z AUTO 34004KT 10SM CLR A3016 RMK MADISHF
AMW,2017-04-17 05:00,M,M,M,330.00,7.00,M,30.16,M,10.00,M,CLR,M,M,M,M,M,M,M,M,KAMW 171000Z AUTO 33007KT 10SM CLR A3016 RMK MADISHF
AMW,2017-04-17 05:05,M,M,M,0.00,0.00,M,30.16,M,10.00,M,CLR,M,M,M,M,M,M,M,M,KAMW 171005Z AUTO 00000KT 10SM CLR A3016 RMK MADISHF
AMW,2017-04-17 05:10,M,M,M,0.00,0.00,M,30.16,M,10.00,M,CLR,M,M,M,M,M,M,M,M,KAMW 171010Z AUTO 00000KT 10SM CLR A3016 RMK MADISHF
AMW,2017-04-17 05:15,M,M,M,0.00,0.00,M,30.16,M,10.00,M,CLR,M,M,M,M,M,M,M,M,KAMW 171015Z AUTO 00000KT 10SM CLR A3016 RMK MADISHF
AMW,2017-04-17 05:20,M,M,M,0.00,0.00,M,30.17,M,10.00,M,CLR,M,M,M,M,M,M,M,M,KAMW 171020Z AUTO 00000KT 10SM CLR A3017 RMK MADISHF
AMW,2017-04-17 05:25,M,M,M,300.00,4.00,M,30.17,M,10.00,M,CLR,M,M,M,M,M,M,M,M,KAMW 171025Z AUTO 30004KT 10SM CLR A3017 RMK MADISHF
AMW,2017-04-17 05:30,M,M,M,0.00,0.00,M,30.17,M,10.00,M,CLR,M,M,M,M,M,M,M,M,KAMW 171030Z AUTO 00000KT 10SM CLR A3017 RMK MADISHF
AMW,2017-04-17 05:35,M,M,M,0.00,0.00,M,30.17,M,10.00,M,CLR,M,M,M,M,M,M,M,M,KAMW 171035Z AUTO 00000KT 10SM CLR A3017 RMK MADISHF
AMW,2017-04-17 05:40,M,M,M,0.00,0.00,M,30.17,M,10.00,M,CLR,M,M,M,M,M,M,M,M,KAMW 171040Z AUTO 00000KT 10SM CLR A3017 RMK MADISHF
AMW,2017-04-17 05:45,M,M,M,0.00,0.00,M,30.17,M,10.00,M,CLR,M,M,M,M,M,M,M,M,KAMW 171045Z AUTO 00000KT 10SM CLR A3017 RMK MADISHF
AMW,2017-04-17 05:50,M,M,M,0.00,0.00,M,30.17,M,10.00,M,CLR,M,M,M,M,M,M,M,M,KAMW 171050Z AUTO 00000KT 10SM CLR A3017 RMK MADISHF
AMW,2017-04-17 05:53,45.00,41.00,85.77,0.00,0.00,0.00,30.17,1021.40,10.00,M,CLR,M,M,M,M,M,M,M,M,KAMW 171053Z AUTO 00000KT 10SM CLR 07/05 A3017 RMK AO2 SLP214 T00720050
AMW,2017-04-17 05:55,M,M,M,0.00,0.00,M,30.17,M,10.00,M,CLR,M,M,M,M,M,M,M,M,KAMW 171055Z AUTO 00000KT 10SM CLR A3017 RMK MADISHF
AMW,2017-04-17 06:00,M,M,M,0.00,0.00,M,30.17,M,10.00,M,FEW,M,M,M,12000.00,M,M,M,M,KAMW 171100Z AUTO 00000KT 10SM FEW120 A3017 RMK MADISHF
AMW,2017-04-17 06:05,M,M,M,260.00,3.00,M,30.17,M,10.00,M,FEW,M,M,M,12000.00,M,M,M,M,KAMW 171105Z AUTO 26003KT 10SM FEW120 A3017 RMK MADISHF
AMW,2017-04-17 06:10,M,M,M,300.00,3.00,M,30.17,M,10.00,M,CLR,M,M,M,M,M,M,M,M,KAMW 171110Z AUTO 30003KT 10SM CLR A3017 RMK MADISHF
AMW,2017-04-17 06:15,M,M,M,310.00,3.00,M,30.17,M,10.00,M,CLR,M,M,M,M,M,M,M,M,KAMW 171115Z AUTO 31003KT 10SM CLR A3017 RMK MADISHF
AMW,2017-04-17 06:20,M,M,M,310.00,4.00,M,30.17,M,10.00,M,CLR,M,M,M,M,M,M,M,M,KAMW 171120Z AUTO 31004KT 10SM CLR A3017 RMK MADISHF
AMW,2017-04-17 06:25,M,M,M,320.00,4.00,M,30.17,M,10.00,M,FEW,M,M,M,12000.00,M,M,M,M,KAMW 171125Z AUTO 32004KT 10SM FEW120 A3017 RMK MADISHF
AMW,2017-04-17 06:30,M,M,M,310.00,3.00,M,30.17,M,10.00,M,FEW,M,M,M,12000.00,M,M,M,M,KAMW 171130Z AUTO 31003KT 10SM FEW120 A3017 RMK MADISHF
AMW,2017-04-17 06:35,M,M,M,320.00,3.00,M,30.17,M,10.00,M,CLR,M,M,M,M,M,M,M,M,KAMW 171135Z AUTO 32003KT 10SM CLR A3017 RMK MADISHF
AMW,2017-04-17 06:40,M,M,M,350.00,4.00,M,30.17,M,10.00,M,CLR,M,M,M,M,M,M,M,M,KAMW 171140Z AUTO 35004KT 10SM CLR A3017 RMK MADISHF
AMW,2017-04-17 06:45,M,M,M,360.00,4.00,M,30.17,M,10.00,M,FEW,M,M,M,12000.00,M,M,M,M,KAMW 171145Z AUTO 36004KT 10SM FEW120 A3017 RMK MADISHF
AMW,2017-04-17 06:50,M,M,M,230.00,3.00,M,30.17,M,10.00,M,FEW,M,M,M,12000.00,M,M,M,M,KAMW 171150Z AUTO 23003KT 10SM FEW120 A3017 RMK VRB03KT  MADISHF
AMW,2017-04-17 06:53,46.90,41.00,79.82,0.00,0.00,0.00,30.17,1021.40,10.00,M,FEW,M,M,M,12000.00,M,M,M,M,KAMW 171153Z AUTO 00000KT 10SM FEW120 08/05 A3017 RMK AO2 SLP214 T00830050 10117 20056 51010
AMW,2017-04-17 06:55,M,M,M,0.00,0.00,M,30.17,M,10.00,M,FEW,M,M,M,12000.00,M,M,M,M,KAMW 171155Z AUTO 00000KT 10SM FEW120 A3017 RMK MADISHF
AMW,2017-04-17 07:00,M,M,M,350.00,4.00,M,30.17,M,10.00,M,FEW,M,M,M,12000.00,M,M,M,M,KAMW 171200Z AUTO 35004KT 10SM FEW120 A3017 RMK MADISHF
AMW,2017-04-17 07:05,M,M,M,350.00,5.00,M,30.17,M,10.00,M,FEW,M,M,M,12000.00,M,M,M,M,KAMW 171205Z AUTO 35005KT 10SM FEW120 A3017 RMK MADISHF
AMW,2017-04-17 07:10,M,M,M,350.00,5.00,M,30.17,M,10.00,M,FEW,M,M,M,12000.00,M,M,M,M,KAMW 171210Z AUTO 35005KT 10SM FEW120 A3017 RMK MADISHF
AMW,2017-04-17 07:15,M,M,M,0.00,0.00,M,30.17,M,10.00,M,SCT,M,M,M,12000.00,M,M,M,M,KAMW 171215Z AUTO 00000KT 10SM SCT120 A3017 RMK MADISHF
AMW,2017-04-17 07:20,M,M,M,350.00,3.00,M,30.17,M,10.00,M,FEW,M,M,M,12000.00,M,M,M,M,KAMW 171220Z AUTO 35003KT 10SM FEW120 A3017 RMK MADISHF
AMW,2017-04-17 07:25,M,M,M,350.00,4.00,M,30.17,M,10.00,M,SCT,M,M,M,12000.00,M,M,M,M,KAMW 171225Z AUTO 35004KT 10SM SCT120 A3017 RMK MADISHF
AMW,2017-04-17 07:30,M,M,M,10.00,4.00,M,30.17,M,10.00,M,SCT,M,M,M,12000.00,M,M,M,M,KAMW 171230Z AUTO 01004KT 10SM SCT120 A3017 RMK MADISHF
AMW,2017-04-17 07:35,M,M,M,10.00,3.00,M,30.17,M,10.00,M,SCT,M,M,M,12000.00,M,M,M,M,KAMW 171235Z AUTO 01003KT 10SM SCT120 A3017 RMK MADISHF
AMW,2017-04-17 07:40,M,M,M,350.00,3.00,M,30.17,M,10.00,M,FEW,M,M,M,12000.00,M,M,M,M,KAMW 171240Z AUTO 35003KT 10SM FEW120 A3017 RMK MADISHF
AMW,2017-04-17 07:45,M,M,M,0.00,0.00,M,30.17,M,10.00,M,FEW,M,M,M,12000.00,M,M,M,M,KAMW 171245Z AUTO 00000KT 10SM FEW120 A3017 RMK MADISHF
AMW,2017-04-17 07:50,M,M,M,0.00,0.00,M,30.17,M,10.00,M,FEW,M,M,M,12000.00,M,M,M,M,KAMW 171250Z AUTO 00000KT 10SM FEW120 A3017 RMK MADISHF
AMW,2017-04-17 07:53,52.00,45.00,76.94,0.00,0.00,0.00,30.17,1021.30,10.00,M,FEW,M,M,M,12000.00,M,M,M,M,KAMW 171253Z AUTO 00000KT 10SM FEW120 11/07 A3017 RMK AO2 SLP213 T01110072
AMW,2017-04-17 07:55,M,M,M,0.00,0.00,M,30.17,M,10.00,M,SCT,M,M,M,12000.00,M,M,M,M,KAMW 171255Z AUTO 00000KT 10SM SCT120 A3017 RMK MADISHF
AMW,2017-04-17 08:00,M,M,M,0.00,0.00,M,30.17,M,10.00,M,SCT,M,M,M,12000.00,M,M,M,M,KAMW 171300Z AUTO 00000KT 10SM SCT120 A3017 RMK MADISHF
AMW,2017-04-17 08:05,M,M,M,20.00,3.00,M,30.17,M,10.00,M,SCT,M,M,M,12000.00,M,M,M,M,KAMW 171305Z AUTO 02003KT 10SM SCT120 A3017 RMK MADISHF
AMW,2017-04-17 08:10,M,M,M,40.00,3.00,M,30.17,M,10.00,M,SCT,M,M,M,12000.00,M,M,M,M,KAMW 171310Z AUTO 04003KT 10SM SCT120 A3017 RMK MADISHF
AMW,2017-04-17 08:15,M,M,M,40.00,3.00,M,30.17,M,10.00,M,SCT,M,M,M,12000.00,M,M,M,M,KAMW 171315Z AUTO 04003KT 10SM SCT120 A3017 RMK MADISHF
AMW,2017-04-17 08:20,M,M,M,20.00,4.00,M,30.17,M,10.00,M,FEW,M,M,M,12000.00,M,M,M,M,KAMW 171320Z AUTO 02004KT 10SM FEW120 A3017 RMK MADISHF
AMW,2017-04-17 08:25,M,M,M,10.00,4.00,M,30.17,M,10.00,M,FEW,M,M,M,12000.00,M,M,M,M,KAMW 171325Z AUTO 01004KT 10SM FEW120 A3017 RMK MADISHF
AMW,2017-04-17 08:30,M,M,M,30.00,5.00,M,30.17,M,10.00,M,CLR,M,M,M,M,M,M,M,M,KAMW 171330Z AUTO 03005KT 10SM CLR A3017 RMK MADISHF
AMW,2017-04-17 08:35,M,M,M,40.00,4.00,M,30.17,M,10.00,M,CLR,M,M,M,M,M,M,M,M,KAMW 171335Z AUTO 04004KT 10SM CLR A3017 RMK MADISHF
AMW,2017-04-17 08:40,M,M,M,30.00,5.00,M,30.17,M,10.00,M,FEW,M,M,M,11000.00,M,M,M,M,KAMW 171340Z AUTO 03005KT 10SM FEW110 A3017 RMK MADISHF
AMW,2017-04-17 08:45,M,M,M,60.00,5.00,M,30.17,M,10.00,M,FEW,M,M,M,11000.00,M,M,M,M,KAMW 171345Z AUTO 06005KT 10SM FEW110 A3017 RMK MADISHF
AMW,2017-04-17 08:50,M,M,M,50.00,7.00,M,30.17,M,10.00,M,FEW,M,M,M,11000.00,M,M,M,M,KAMW 171350Z AUTO 05007KT 10SM FEW110 A3017 RMK MADISHF
AMW,2017-04-17 08:53,57.00,42.10,57.38,60.00,6.00,0.00,30.17,1021.50,10.00,M,SCT,M,M,M,11000.00,M,M,M,M,KAMW 171353Z AUTO 06006KT 10SM SCT110 14/06 A3017 RMK AO2 SLP215 T01390056
AMW,2017-04-17 08:55,M,M,M,60.00,8.00,M,30.17,M,10.00,M,SCT,M,M,M,11000.00,M,M,M,M,KAMW 171355Z AUTO 06008KT 10SM SCT110 A3017 RMK MADISHF
AMW,2017-04-17 09:00,M,M,M,60.00,6.00,M,30.17,M,10.00,M,SCT,M,M,M,11000.00,M,M,M,M,KAMW 171400Z AUTO 06006KT 10SM SCT110 A3017 RMK MADISHF
AMW,2017-04-17 09:05,M,M,M,80.00,7.00,M,30.17,M,10.00,M,FEW,M,M,M,11000.00,M,M,M,M,KAMW 171405Z AUTO 08007KT 10SM FEW110 A3017 RMK MADISHF
AMW,2017-04-17 09:10,M,M,M,60.00,5.00,M,30.18,M,10.00,M,FEW,M,M,M,11000.00,M,M,M,M,KAMW 171410Z AUTO 06005KT 10SM FEW110 A3018 RMK MADISHF
AMW,2017-04-17 09:15,M,M,M,80.00,5.00,M,30.18,M,10.00,M,FEW,M,M,M,11000.00,M,M,M,M,KAMW 171415Z AUTO 08005KT 10SM FEW110 A3018 RMK MADISHF
AMW,2017-04-17 09:20,M,M,M,50.00,5.00,M,30.18,M,10.00,M,FEW,M,M,M,11000.00,M,M,M,M,KAMW 171420Z AUTO 05005KT 10SM FEW110 A3018 RMK MADISHF
AMW,2017-04-17 09:25,M,M,M,60.00,6.00,M,30.18,M,10.00,M,CLR,M,M,M,M,M,M,M,M,KAMW 171425Z AUTO 06006KT 10SM CLR A3018 RMK MADISHF
AMW,2017-04-17 09:30,M,M,M,70.00,4.00,M,30.18,M,10.00,M,CLR,M,M,M,M,M,M,M,M,KAMW 171430Z AUTO 07004KT 10SM CLR A3018 RMK MADISHF
AMW,2017-04-17 09:35,M,M,M,70.00,5.00,M,30.17,M,10.00,M,CLR,M,M,M,M,M,M,M,M,KAMW 171435Z AUTO 07005KT 10SM CLR A3017 RMK MADISHF
AMW,2017-04-17 09:40,M,M,M,50.00,7.00,M,30.17,M,10.00,M,CLR,M,M,M,M,M,M,M,M,KAMW 171440Z AUTO 05007KT 10SM CLR A3017 RMK MADISHF
AMW,2017-04-17 09:45,M,M,M,90.00,6.00,M,30.18,M,10.00,M,CLR,M,M,M,M,M,M,M,M,KAMW 171445Z AUTO 09006KT 10SM CLR A3018 RMK MADISHF
AMW,2017-04-17 09:50,M,M,M,60.00,6.00,M,30.18,M,10.00,M,FEW,M,M,M,10000.00,M,M,M,M,KAMW 171450Z AUTO 06006KT 10SM FEW100 A3018 RMK MADISHF
AMW,2017-04-17 09:53,61.00,43.00,51.48,70.00,5.00,0.00,30.18,1021.60,10.00,M,FEW,M,M,M,10000.00,M,M,M,M,KAMW 171453Z AUTO 07005KT 10SM FEW100 16/06 A3018 RMK AO2 SLP216 T01610061 53002
AMW,2017-04-17 09:55,M,M,M,80.00,5.00,M,30.17,M,10.00,M,FEW,M,M,M,10000.00,M,M,M,M,KAMW 171455Z AUTO 08005KT 10SM FEW100 A3017 RMK MADISHF
AMW,2017-04-17 10:00,M,M,M,50.00,7.00,M,30.17,M,10.00,M,FEW,M,M,M,10000.00,M,M,M,M,KAMW 171500Z AUTO 05007KT 10SM FEW100 A3017 RMK MADISHF
AMW,2017-04-17 10:05,M,M,M,80.00,6.00,M,30.17,M,10.00,M,FEW,M,M,M,10000.00,M,M,M,M,KAMW 171505Z AUTO 08006KT 10SM FEW100 A3017 RMK MADISHF
AMW,2017-04-17 10:10,M,M,M,60.00,6.00,M,30.17,M,10.00,M,FEW,M,M,M,11000.00,M,M,M,M,KAMW 171510Z AUTO 06006KT 10SM FEW110 A3017 RMK MADISHF
AMW,2017-04-17 10:15,M,M,M,80.00,6.00,M,30.17,M,10.00,M,FEW,M,M,M,11000.00,M,M,M,M,KAMW 171515Z AUTO 08006KT 10SM FEW110 A3017 RMK MADISHF
AMW,2017-04-17 10:20,M,M,M,100.00,4.00,M,30.18,M,10.00,M,CLR,M,M,M,M,M,M,M,M,KAMW 171520Z AUTO 10004KT 10SM CLR A3018 RMK MADISHF
AMW,2017-04-17 10:25,M,M,M,100.00,5.00,M,30.18,M,10.00,M,CLR,M,M,M,M,M,M,M,M,KAMW 171525Z AUTO 10005KT 10SM CLR A3018 RMK MADISHF
AMW,2017-04-17 10:30,M,M,M,100.00,5.00,M,30.18,M,10.00,M,CLR,M,M,M,M,M,M,M,M,KAMW 171530Z AUTO 10005KT 10SM CLR A3018 RMK VRB05KT  MADISHF
AMW,2017-04-17 10:35,M,M,M,80.00,5.00,M,30.18,M,10.00,M,CLR,M,M,M,M,M,M,M,M,KAMW 171535Z AUTO 08005KT 10SM CLR A3018 RMK MADISHF
AMW,2017-04-17 10:40,M,M,M,90.00,4.00,M,30.18,M,10.00,M,CLR,M,M,M,M,M,M,M,M,KAMW 171540Z AUTO 09004KT 10SM CLR A3018 RMK MADISHF
AMW,2017-04-17 10:45,M,M,M,80.00,3.00,M,30.18,M,10.00,M,CLR,M,M,M,M,M,M,M,M,KAMW 171545Z AUTO 08003KT 10SM CLR A3018 RMK MADISHF
AMW,2017-04-17 10:50,M,M,M,60.00,4.00,M,30.17,M,10.00,M,CLR,M,M,M,M,M,M,M,M,KAMW 171550Z AUTO 06004KT 10SM CLR A3017 RMK MADISHF
AMW,2017-04-17 10:53,64.90,41.00,41.55,0.00,0.00,0.00,30.17,1021.60,10.00,M,CLR,M,M,M,M,M,M,M,M,KAMW 171553Z AUTO 00000KT 10SM CLR 18/05 A3017 RMK AO2 SLP216 T01830050
AMW,2017-04-17 10:55,M,M,M,0.00,0.00,M,30.17,M,10.00,M,CLR,M,M,M,M,M,M,M,M,KAMW 171555Z AUTO 00000KT 10SM CLR A3017 RMK MADISHF
AMW,2017-04-17 11:00,M,M,M,40.00,4.00,M,30.17,M,10.00,M,CLR,M,M,M,M,M,M,M,M,KAMW 171600Z AUTO 04004KT 10SM CLR A3017 RMK VRB04KT  MADISHF
AMW,2017-04-17 11:05,M,M,M,10.00,3.00,M,30.17,M,10.00,M,CLR,M,M,M,M,M,M,M,M,KAMW 171605Z AUTO 01003KT 10SM CLR A3017 RMK VRB03KT  MADISHF
AMW,2017-04-17 11:10,M,M,M,80.00,3.00,M,30.17,M,10.00,M,CLR,M,M,M,M,M,M,M,M,KAMW 171610Z AUTO 08003KT 10SM CLR A3017 RMK VRB03KT  MADISHF
AMW,2017-04-17 11:15,M,M,M,160.00,4.00,M,30.17,M,10.00,M,CLR,M,M,M,M,M,M,M,M,KAMW 171615Z AUTO 16004KT 10SM CLR A3017 RMK MADISHF
AMW,2017-04-17 11:20,M,M,M,150.00,5.00,M,30.17,M,10.00,M,CLR,M,M,M,M,M,M,M,M,KAMW 171620Z AUTO 15005KT 10SM CLR A3017 RMK MADISHF
AMW,2017-04-17 11:25,M,M,M,170.00,4.00,M,30.17,M,10.00,M,CLR,M,M,M,M,M,M,M,M,KAMW 171625Z AUTO 17004KT 10SM CLR A3017 RMK MADISHF
AMW,2017-04-17 11:30,M,M,M,160.00,3.00,M,30.17,M,10.00,M,FEW,M,M,M,5500.00,M,M,M,M,KAMW 171630Z AUTO 16003KT 10SM FEW055 A3017 RMK MADISHF
AMW,2017-04-17 11:35,M,M,M,230.00,4.00,M,30.17,M,10.00,M,SCT,M,M,M,5500.00,M,M,M,M,KAMW 171635Z AUTO 23004KT 10SM SCT055 A3017 RMK VRB04KT  MADISHF
AMW,2017-04-17 11:40,M,M,M,260.00,6.00,M,30.17,M,10.00,M,SCT,M,M,M,5500.00,M,M,M,M,KAMW 171640Z AUTO 26006KT 10SM SCT055 A3017 RMK MADISHF
AMW,2017-04-17 11:45,M,M,M,260.00,5.00,M,30.17,M,10.00,M,FEW,M,M,M,5500.00,M,M,M,M,KAMW 171645Z AUTO 26005KT 10SM FEW055 A3017 RMK VRB05KT  MADISHF
AMW,2017-04-17 11:50,M,M,M,280.00,5.00,M,30.17,M,10.00,M,FEW,M,M,M,5500.00,M,M,M,M,KAMW 171650Z AUTO 28005KT 10SM FEW055 A3017 RMK MADISHF
AMW,2017-04-17 11:53,66.90,44.10,43.67,270.00,5.00,0.00,30.17,1021.30,10.00,M,FEW,M,M,M,5500.00,M,M,M,M,KAMW 171653Z AUTO 27005KT 10SM FEW055 19/07 A3017 RMK AO2 SLP213 T01940067
AMW,2017-04-17 11:55,M,M,M,270.00,5.00,M,30.17,M,10.00,M,FEW,M,M,M,5500.00,M,M,M,M,KAMW 171655Z AUTO 27005KT 10SM FEW055 A3017 RMK MADISHF
AMW,2017-04-17 12:00,M,M,M,260.00,5.00,M,30.17,M,10.00,M,FEW,M,M,M,5500.00,M,M,M,M,KAMW 171700Z AUTO 26005KT 10SM FEW055 A3017 RMK MADISHF
AMW,2017-04-17 12:05,M,M,M,260.00,4.00,M,30.17,M,10.00,M,CLR,M,M,M,M,M,M,M,M,KAMW 171705Z AUTO 26004KT 10SM CLR A3017 RMK VRB04KT  MADISHF
AMW,2017-04-17 12:10,M,M,M,0.00,0.00,M,30.16,M,10.00,M,CLR,M,M,M,M,M,M,M,M,KAMW 171710Z AUTO 00000KT 10SM CLR A3016 RMK MADISHF
AMW,2017-04-17 12:15,M,M,M,270.00,5.00,M,30.16,M,10.00,M,CLR,M,M,M,M,M,M,M,M,KAMW 171715Z AUTO 27005KT 10SM CLR A3016 RMK MADISHF
AMW,2017-04-17 12:20,M,M,M,0.00,0.00,M,30.16,M,10.00,M,CLR,M,M,M,M,M,M,M,M,KAMW 171720Z AUTO 00000KT 10SM CLR A3016 RMK MADISHF
AMW,2017-04-17 12:25,M,M,M,300.00,7.00,M,30.16,M,10.00,M,CLR,M,M,M,M,M,M,M,M,KAMW 171725Z AUTO 30007KT 10SM CLR A3016 RMK MADISHF
AMW,2017-04-17 12:30,M,M,M,280.00,7.00,M,30.16,M,10.00,M,CLR,M,M,M,M,M,M,M,M,KAMW 171730Z AUTO 28007KT 10SM CLR A3016 RMK MADISHF
AMW,2017-04-17 12:35,M,M,M,280.00,6.00,M,30.16,M,10.00,M,CLR,M,M,M,M,M,M,M,M,KAMW 171735Z AUTO 28006KT 10SM CLR A3016 RMK VRB06KT  MADISHF
AMW,2017-04-17 12:40,M,M,M,150.00,4.00,M,30.16,M,10.00,M,CLR,M,M,M,M,M,M,M,M,KAMW 171740Z AUTO 15004KT 10SM CLR A3016 RMK VRB04KT  MADISHF
AMW,2017-04-17 12:45,M,M,M,200.00,4.00,M,30.15,M,10.00,M,CLR,M,M,M,M,M,M,M,M,KAMW 171745Z AUTO 20004KT 10SM CLR A3015 RMK MADISHF
AMW,2017-04-17 12:50,M,M,M,220.00,7.00,M,30.15,M,10.00,M,CLR,M,M,M,M,M,M,M,M,KAMW 171750Z AUTO 22007KT 10SM CLR A3015 RMK WND 18V26  MADISHF
AMW,2017-04-17 12:53,68.00,45.00,43.51,260.00,7.00,0.00,30.15,1020.70,10.00,M,CLR,M,M,M,M,M,M,M,M,KAMW 171753Z AUTO 26007KT 10SM CLR 20/07 A3015 RMK AO2 SLP207 T02000072 10200 20089 58007
AMW,2017-04-17 12:55,M,M,M,240.00,7.00,M,30.15,M,10.00,M,CLR,M,M,M,M,M,M,M,M,KAMW 171755Z AUTO 24007KT 10SM CLR A3015 RMK MADISHF
AMW,2017-04-17 13:00,M,M,M,M,M,M,30.15,M,10.00,M,CLR,M,M,M,M,M,M,M,M,KAMW 171800Z AUTO /////KT 10SM CLR A3015 RMK MADISHF
AMW,2017-04-17 13:05,M,M,M,240.00,6.00,M,30.15,M,10.00,M,CLR,M,M,M,M,M,M,M,M,KAMW 171805Z AUTO 24006KT 10SM CLR A3015 RMK MADISHF
AMW,2017-04-17 13:10,M,M,M,250.00,9.00,M,30.15,M,10.00,M,CLR,M,M,M,M,M,M,M,M,KAMW 171810Z AUTO 25009KT 10SM CLR A3015 RMK MADISHF
AMW,2017-04-17 13:15,M,M,M,210.00,8.00,M,30.15,M,10.00,M,FEW,M,M,M,6000.00,M,M,M,M,KAMW 171815Z AUTO 21008KT 10SM FEW060 A3015 RMK MADISHF
AMW,2017-04-17 13:20,M,M,M,250.00,8.00,M,30.15,M,10.00,M,FEW,M,M,M,6000.00,M,M,M,M,KAMW 171820Z AUTO 25008KT 10SM FEW060 A3015 RMK MADISHF
AMW,2017-04-17 13:25,M,M,M,270.00,9.00,M,30.15,M,10.00,M,CLR,M,M,M,M,M,M,M,M,KAMW 171825Z AUTO 27009KT 10SM CLR A3015 RMK MADISHF
AMW,2017-04-17 13:30,M,M,M,290.00,6.00,M,30.15,M,10.00,M,CLR,M,M,M,M,M,M,M,M,KAMW 171830Z AUTO 29006KT 10SM CLR A3015 RMK MADISHF
AMW,2017-04-17 13:35,M,M,M,M,M,M,30.14,M,10.00,M,CLR,M,M,M,M,M,M,M,M,KAMW 171835Z AUTO /////KT 10SM CLR A3014 RMK MADISHF
AMW,2017-04-17 13:40,M,M,M,190.00,3.00,M,30.14,M,10.00,M,CLR,M,M,M,M,M,M,M,M,KAMW 171840Z AUTO 19003KT 10SM CLR A3014 RMK MADISHF
AMW,2017-04-17 13:45,M,M,M,240.00,9.00,M,30.14,M,10.00,M,FEW,M,M,M,6000.00,M,M,M,M,KAMW 171845Z AUTO 24009KT 10SM FEW060 A3014 RMK WND 17V28  MADISHF
AMW,2017-04-17 13:50,M,M,M,220.00,10.00,M,30.14,M,10.00,M,FEW,M,M,M,6000.00,M,M,M,M,KAMW 171850Z AUTO 22010KT 10SM FEW060 A3014 RMK MADISHF
AMW,2017-04-17 13:53,70.00,46.00,42.20,230.00,9.00,0.00,30.14,1020.20,10.00,M,FEW,M,M,M,6000.00,M,M,M,M,KAMW 171853Z AUTO 23009KT 10SM FEW060 21/08 A3014 RMK AO2 SLP202 T02110078
AMW,2017-04-17 13:55,M,M,M,220.00,10.00,M,30.14,M,10.00,M,FEW,M,M,M,6000.00,M,M,M,M,KAMW 171855Z AUTO 22010KT 10SM FEW060 A3014 RMK MADISHF
AMW,2017-04-17 14:00,M,M,M,230.00,11.00,M,30.14,M,10.00,M,FEW,M,M,M,6000.00,M,M,M,M,KAMW 171900Z AUTO 23011KT 10SM FEW060 A3014 RMK MADISHF
AMW,2017-04-17 14:05,M,M,M,280.00,6.00,M,30.14,M,10.00,M,FEW,M,M,M,6000.00,M,M,M,M,KAMW 171905Z AUTO 28006KT 10SM FEW060 A3014 RMK MADISHF
AMW,2017-04-17 14:10,M,M,M,230.00,8.00,M,30.13,M,10.00,M,FEW,M,M,M,6000.00,M,M,M,M,KAMW 171910Z AUTO 23008KT 10SM FEW060 A3013 RMK MADISHF
AMW,2017-04-17 14:15,M,M,M,270.00,5.00,M,30.13,M,10.00,M,CLR,M,M,M,M,M,M,M,M,KAMW 171915Z AUTO 27005KT 10SM CLR A3013 RMK MADISHF
AMW,2017-04-17 14:20,M,M,M,0.00,0.00,M,30.13,M,10.00,M,FEW,M,M,M,6000.00,M,M,M,M,KAMW 171920Z AUTO 00000KT 10SM FEW060 A3013 RMK MADISHF
AMW,2017-04-17 14:25,M,M,M,280.00,3.00,M,30.13,M,10.00,M,FEW,M,M,M,6000.00,M,M,M,M,KAMW 171925Z AUTO 28003KT 10SM FEW060 A3013 RMK VRB03KT  MADISHF
AMW,2017-04-17 14:30,M,M,M,250.00,8.00,M,30.13,M,10.00,M,FEW,M,M,M,6000.00,M,M,M,M,KAMW 171930Z AUTO 25008KT 10SM FEW060 A3013 RMK MADISHF
AMW,2017-04-17 14:35,M,M,M,180.00,7.00,M,30.12,M,10.00,M,FEW,M,M,M,6000.00,M,M,M,M,KAMW 171935Z AUTO 18007KT 10SM FEW060 A3012 RMK MADISHF
AMW,2017-04-17 14:40,M,M,M,190.00,9.00,M,30.12,M,10.00,M,FEW,M,M,M,6000.00,M,M,M,M,KAMW 171940Z AUTO 19009KT 10SM FEW060 A3012 RMK WND 16V23  MADISHF
AMW,2017-04-17 14:45,M,M,M,220.00,7.00,M,30.12,M,10.00,M,SCT,M,M,M,6000.00,M,M,M,M,KAMW 171945Z AUTO 22007KT 10SM SCT060 A3012 RMK WND 19V28  MADISHF
AMW,2017-04-17 14:50,M,M,M,190.00,5.00,M,30.12,M,10.00,M,SCT,M,M,M,6000.00,M,M,M,M,KAMW 171950Z AUTO 19005KT 10SM SCT060 A3012 RMK VRB05KT  MADISHF
AMW,2017-04-17 14:53,71.10,46.90,42.05,M,4.00,0.00,30.12,1019.50,10.00,M,FEW,M,M,M,6000.00,M,M,M,M,KAMW 171953Z AUTO VRB04KT 10SM FEW060 22/08 A3012 RMK AO2 SLP195 T02170083
AMW,2017-04-17 14:55,M,M,M,230.00,6.00,M,30.12,M,10.00,M,FEW,M,M,M,6000.00,M,M,M,M,KAMW 171955Z AUTO 23006KT 10SM FEW060 A3012 RMK VRB06KT  MADISHF
AMW,2017-04-17 15:00,M,M,M,250.00,6.00,M,30.12,M,10.00,M,FEW,M,M,M,6000.00,M,M,M,M,KAMW 172000Z AUTO 25006KT 10SM FEW060 A3012 RMK VRB06KT  MADISHF
AMW,2017-04-17 15:05,M,M,M,230.00,10.00,M,30.11,M,10.00,16.00,FEW,M,M,M,6000.00,M,M,M,M,KAMW 172005Z AUTO 23010G16KT 10SM FEW060 A3011 RMK WND 17V27  MADISHF
AMW,2017-04-17 15:10,M,M,M,240.00,8.00,M,30.11,M,10.00,M,FEW,M,M,M,6000.00,M,M,M,M,KAMW 172010Z AUTO 24008KT 10SM FEW060 A3011 RMK MADISHF
AMW,2017-04-17 15:15,M,M,M,210.00,6.00,M,30.11,M,10.00,M,FEW,M,M,M,6000.00,M,M,M,M,KAMW 172015Z AUTO 21006KT 10SM FEW060 A3011 RMK MADISHF
AMW,2017-04-17 15:20,M,M,M,160.00,3.00,M,30.11,M,10.00,M,CLR,M,M,M,M,M,M,M,M,KAMW 172020Z AUTO 16003KT 10SM CLR A3011 RMK VRB03KT  MADISHF
AMW,2017-04-17 15:25,M,M,M,170.00,5.00,M,30.10,M,10.00,M,CLR,M,M,M,M,M,M,M,M,KAMW 172025Z AUTO 17005KT 10SM CLR A3010 RMK MADISHF
AMW,2017-04-17 15:30,M,M,M,220.00,7.00,M,30.10,M,10.00,M,FEW,M,M,M,6000.00,M,M,M,M,KAMW 172030Z AUTO 22007KT 10SM FEW060 A3010 RMK WND 18V26  MADISHF
AMW,2017-04-17 15:35,M,M,M,250.00,10.00,M,30.10,M,10.00,M,SCT,M,M,M,6000.00,M,M,M,M,KAMW 172035Z AUTO 25010KT 10SM SCT060 A3010 RMK MADISHF
AMW,2017-04-17 15:40,M,M,M,230.00,7.00,M,30.09,M,10.00,M,SCT,M,M,M,6000.00,M,M,M,M,KAMW 172040Z AUTO 23007KT 10SM SCT060 A3009 RMK MADISHF
AMW,2017-04-17 15:45,M,M,M,230.00,7.00,M,30.09,M,10.00,M,SCT,M,M,M,6000.00,M,M,M,M,KAMW 172045Z AUTO 23007KT 10SM SCT060 A3009 RMK MADISHF
AMW,2017-04-17 15:50,M,M,M,260.00,4.00,M,30.09,M,10.00,M,FEW,M,M,M,6000.00,M,M,M,M,KAMW 172050Z AUTO 26004KT 10SM FEW060 A3009 RMK MADISHF
AMW,2017-04-17 15:53,71.10,46.00,40.65,M,3.00,0.00,30.09,1018.40,10.00,M,FEW,M,M,M,6000.00,M,M,M,M,KAMW 172053Z AUTO VRB03KT 10SM FEW060 22/08 A3009 RMK AO2 SLP184 T02170078 58022 TSNO
AMW,2017-04-17 15:55,M,M,M,240.00,6.00,M,30.09,M,10.00,M,FEW,M,M,M,6000.00,M,M,M,M,KAMW 172055Z AUTO 24006KT 10SM FEW060 A3009 RMK VRB06KT  MADISHF
AMW,2017-04-17 16:00,M,M,M,0.00,0.00,M,30.08,M,10.00,M,FEW,M,M,M,6000.00,M,M,M,M,KAMW 172100Z AUTO 00000KT 10SM FEW060 A3008 RMK MADISHF
AMW,2017-04-17 16:05,M,M,M,210.00,8.00,M,30.08,M,10.00,M,FEW,M,M,M,6500.00,M,M,M,M,KAMW 172105Z AUTO 21008KT 10SM FEW065 A3008 RMK MADISHF
AMW,2017-04-17 16:10,M,M,M,210.00,4.00,M,30.08,M,10.00,M,CLR,M,M,M,M,M,M,M,M,KAMW 172110Z AUTO 21004KT 10SM CLR A3008 RMK MADISHF
AMW,2017-04-17 16:15,M,M,M,0.00,0.00,M,30.08,M,10.00,M,CLR,M,M,M,M,M,M,M,M,KAMW 172115Z AUTO 00000KT 10SM CLR A3008 RMK MADISHF
AMW,2017-04-17 16:20,M,M,M,230.00,4.00,M,30.08,M,10.00,M,CLR,M,M,M,M,M,M,M,M,KAMW 172120Z AUTO 23004KT 10SM CLR A3008 RMK VRB04KT  MADISHF
AMW,2017-04-17 16:25,M,M,M,260.00,3.00,M,30.07,M,10.00,M,FEW,M,M,M,6000.00,M,M,M,M,KAMW 172125Z AUTO 26003KT 10SM FEW060 A3007 RMK MADISHF
AMW,2017-04-17 16:30,M,M,M,230.00,6.00,M,30.07,M,10.00,M,FEW,M,M,M,6000.00,M,M,M,M,KAMW 172130Z AUTO 23006KT 10SM FEW060 A3007 RMK MADISHF
AMW,2017-04-17 16:35,M,M,M,260.00,5.00,M,30.07,M,10.00,M,FEW,M,M,M,6000.00,M,M,M,M,KAMW 172135Z AUTO 26005KT 10SM FEW060 A3007 RMK MADISHF
AMW,2017-04-17 16:40,M,M,M,250.00,7.00,M,30.07,M,10.00,M,FEW,M,M,M,6000.00,M,M,M,M,KAMW 172140Z AUTO 25007KT 10SM FEW060 A3007 RMK MADISHF
AMW,2017-04-17 16:45,M,M,M,270.00,8.00,M,30.07,M,10.00,M,FEW,M,M,M,6000.00,M,M,M,M,KAMW 172145Z AUTO 27008KT 10SM FEW060 A3007 RMK MADISHF
AMW,2017-04-17 16:50,M,M,M,260.00,7.00,M,30.07,M,10.00,M,FEW,M,M,M,6000.00,M,M,M,M,KAMW 172150Z AUTO 26007KT 10SM FEW060 A3007 RMK MADISHF
AMW,2017-04-17 16:53,71.10,46.00,40.65,280.00,4.00,0.00,30.07,1017.90,10.00,M,CLR,M,M,M,M,M,M,M,M,KAMW 172153Z AUTO 28004KT 10SM CLR 22/08 A3007 RMK AO2 SLP179 T02170078 TSNO
AMW,2017-04-17 16:55,M,M,M,240.00,5.00,M,30.07,M,10.00,M,CLR,M,M,M,M,M,M,M,M,KAMW 172155Z AUTO 24005KT 10SM CLR A3007 RMK VRB05KT  MADISHF
AMW,2017-04-17 17:00,M,M,M,210.00,4.00,M,30.07,M,10.00,M,CLR,M,M,M,M,M,M,M,M,KAMW 172200Z AUTO 21004KT 10SM CLR A3007 RMK VRB04KT  MADISHF
AMW,2017-04-17 17:05,M,M,M,190.00,4.00,M,30.07,M,10.00,M,CLR,M,M,M,M,M,M,M,M,KAMW 172205Z AUTO 19004KT 10SM CLR A3007 RMK MADISHF
AMW,2017-04-17 17:10,M,M,M,170.00,5.00,M,30.07,M,10.00,M,CLR,M,M,M,M,M,M,M,M,KAMW 172210Z AUTO 17005KT 10SM CLR A3007 RMK MADISHF
AMW,2017-04-17 17:15,M,M,M,150.00,3.00,M,30.07,M,10.00,M,SCT,M,M,M,6500.00,M,M,M,M,KAMW 172215Z AUTO 15003KT 10SM SCT065 A3007 RMK VRB03KT  MADISHF
AMW,2017-04-17 17:20,M,M,M,230.00,6.00,M,30.07,M,10.00,M,BKN,M,M,M,6000.00,M,M,M,M,KAMW 172220Z AUTO 23006KT 10SM BKN060 A3007 RMK MADISHF
AMW,2017-04-17 17:25,M,M,M,210.00,6.00,M,30.07,M,10.00,M,BKN,M,M,M,6500.00,M,M,M,M,KAMW 172225Z AUTO 21006KT 10SM BKN065 A3007 RMK MADISHF
AMW,2017-04-17 17:30,M,M,M,210.00,6.00,M,30.07,M,10.00,M,BKN,M,M,M,6500.00,M,M,M,M,KAMW 172230Z AUTO 21006KT 10SM BKN065 A3007 RMK MADISHF
AMW,2017-04-17 17:35,M,M,M,220.00,5.00,M,30.07,M,10.00,M,SCT,M,M,M,6500.00,M,M,M,M,KAMW 172235Z AUTO 22005KT 10SM SCT065 A3007 RMK MADISHF
AMW,2017-04-17 17:40,M,M,M,190.00,4.00,M,30.07,M,10.00,M,SCT,M,M,M,7000.00,M,M,M,M,KAMW 172240Z AUTO 19004KT 10SM SCT070 A3007 RMK MADISHF
AMW,2017-04-17 17:45,M,M,M,230.00,5.00,M,30.06,M,10.00,M,SCT,M,M,M,7000.00,M,M,M,M,KAMW 172245Z AUTO 23005KT 10SM SCT070 A3006 RMK MADISHF
AMW,2017-04-17 17:50,M,M,M,200.00,3.00,M,30.06,M,10.00,M,FEW,M,M,M,7500.00,M,M,M,M,KAMW 172250Z AUTO 20003KT 10SM FEW075 A3006 RMK MADISHF
AMW,2017-04-17 17:53,71.10,46.00,40.65,0.00,0.00,0.00,30.06,1017.70,10.00,M,FEW,M,M,M,7500.00,M,M,M,M,KAMW 172253Z AUTO 00000KT 10SM FEW075 22/08 A3006 RMK AO2 SLP177 T02170078 TSNO
AMW,2017-04-17 17:55,M,M,M,140.00,3.00,M,30.06,M,10.00,M,FEW,M,M,M,7500.00,M,M,M,M,KAMW 172255Z AUTO 14003KT 10SM FEW075 A3006 RMK MADISHF
AMW,2017-04-17 18:00,M,M,M,150.00,4.00,M,30.06,M,10.00,M,FEW,SCT,M,M,6500.00,7500.00,M,M,M,KAMW 172300Z AUTO 15004KT 10SM FEW065 SCT075 A3006 RMK MADISHF
AMW,2017-04-17 18:05,M,M,M,180.00,7.00,M,30.06,M,10.00,M,SCT,BKN,M,M,6500.00,7500.00,M,M,M,KAMW 172305Z AUTO 18007KT 10SM SCT065 BKN075 A3006 RMK MADISHF
AMW,2017-04-17 18:10,M,M,M,210.00,6.00,M,30.06,M,10.00,M,BKN,M,M,M,6500.00,M,M,M,M,KAMW 172310Z AUTO 21006KT 10SM BKN065 A3006 RMK MADISHF
AMW,2017-04-17 18:15,M,M,M,170.00,7.00,M,30.06,M,10.00,M,BKN,M,M,M,6500.00,M,M,M,M,KAMW 172315Z AUTO 17007KT 10SM BKN065 A3006 RMK MADISHF
AMW,2017-04-17 18:20,M,M,M,170.00,8.00,M,30.06,M,10.00,M,BKN,M,M,M,6500.00,M,M,M,M,KAMW 172320Z AUTO 17008KT 10SM BKN065 A3006 RMK MADISHF
AMW,2017-04-17 18:25,M,M,M,180.00,6.00,M,30.06,M,10.00,M,OVC,M,M,M,7000.00,M,M,M,M,KAMW 172325Z AUTO 18006KT 10SM OVC070 A3006 RMK MADISHF
AMW,2017-04-17 18:30,M,M,M,180.00,6.00,M,30.06,M,10.00,M,BKN,M,M,M,7000.00,M,M,M,M,KAMW 172330Z AUTO 18006KT 10SM BKN070 A3006 RMK MADISHF
AMW,2017-04-17 18:35,M,M,M,170.00,5.00,M,30.06,M,10.00,M,BKN,M,M,M,7000.00,M,M,M,M,KAMW 172335Z AUTO 17005KT 10SM BKN070 A3006 RMK MADISHF
AMW,2017-04-17 18:40,M,M,M,150.00,7.00,M,30.06,M,10.00,M,BKN,M,M,M,7000.00,M,M,M,M,KAMW 172340Z AUTO 15007KT 10SM BKN070 A3006 RMK MADISHF
AMW,2017-04-17 18:45,M,M,M,180.00,8.00,M,30.06,M,10.00,M,BKN,M,M,M,6500.00,M,M,M,M,KAMW 172345Z AUTO 18008KT 10SM BKN065 A3006 RMK MADISHF
AMW,2017-04-17 18:50,M,M,M,190.00,6.00,M,30.06,M,10.00,M,SCT,M,M,M,6500.00,M,M,M,M,KAMW 172350Z AUTO 19006KT 10SM SCT065 A3006 RMK MADISHF
AMW,2017-04-17 18:53,69.10,48.90,48.53,180.00,8.00,0.00,30.06,1017.50,10.00,M,FEW,SCT,M,M,6000.00,7500.00,M,M,M,KAMW 172353Z AUTO 18008KT 10SM FEW060 SCT075 21/09 A3006 RMK AO2 SLP175 T02060094 10222 20200 56009 TSNO
AMW,2017-04-17 18:55,M,M,M,180.00,7.00,M,30.06,M,10.00,M,FEW,M,M,M,6500.00,M,M,M,M,KAMW 172355Z AUTO 18007KT 10SM FEW065 A3006 RMK MADISHF
AMW,2017-04-17 19:00,M,M,M,170.00,6.00,M,30.06,M,10.00,M,FEW,M,M,M,6000.00,M,M,M,M,KAMW 180000Z AUTO 17006KT 10SM FEW060 A3006 RMK MADISHF
AMW,2017-04-17 19:05,M,M,M,170.00,6.00,M,30.06,M,10.00,M,FEW,M,M,M,6000.00,M,M,M,M,KAMW 180005Z AUTO 17006KT 10SM FEW060 A3006 RMK MADISHF
AMW,2017-04-17 19:10,M,M,M,170.00,5.00,M,30.06,M,10.00,M,FEW,M,M,M,6000.00,M,M,M,M,KAMW 180010Z AUTO 17005KT 10SM FEW060 A3006 RMK MADISHF
AMW,2017-04-17 19:15,M,M,M,170.00,4.00,M,30.06,M,10.00,M,CLR,M,M,M,M,M,M,M,M,KAMW 180015Z AUTO 17004KT 10SM CLR A3006 RMK MADISHF
AMW,2017-04-17 19:20,M,M,M,180.00,4.00,M,30.06,M,10.00,M,CLR,M,M,M,M,M,M,M,M,KAMW 180020Z AUTO 18004KT 10SM CLR A3006 RMK MADISHF
AMW,2017-04-17 19:25,M,M,M,180.00,4.00,M,30.06,M,10.00,M,CLR,M,M,M,M,M,M,M,M,KAMW 180025Z AUTO 18004KT 10SM CLR A3006 RMK MADISHF
AMW,2017-04-17 19:30,M,M,M,180.00,3.00,M,30.06,M,10.00,M,CLR,M,M,M,M,M,M,M,M,KAMW 180030Z AUTO 18003KT 10SM CLR A3006 RMK MADISHF
AMW,2017-04-17 19:35,M,M,M,190.00,3.00,M,30.06,M,10.00,M,CLR,M,M,M,M,M,M,M,M,KAMW 180035Z AUTO 19003KT 10SM CLR A3006 RMK MADISHF
AMW,2017-04-17 19:40,M,M,M,160.00,3.00,M,30.06,M,10.00,M,CLR,M,M,M,M,M,M,M,M,KAMW 180040Z AUTO 16003KT 10SM CLR A3006 RMK MADISHF
AMW,2017-04-17 19:45,M,M,M,150.00,4.00,M,30.06,M,10.00,M,CLR,M,M,M,M,M,M,M,M,KAMW 180045Z AUTO 15004KT 10SM CLR A3006 RMK MADISHF
AMW,2017-04-17 19:50,M,M,M,130.00,4.00,M,30.06,M,10.00,M,CLR,M,M,M,M,M,M,M,M,KAMW 180050Z AUTO 13004KT 10SM CLR A3006 RMK MADISHF
AMW,2017-04-17 19:53,62.10,50.00,64.50,140.00,4.00,0.00,30.06,1017.60,10.00,M,CLR,M,M,M,M,M,M,M,M,KAMW 180053Z AUTO 14004KT 10SM CLR 17/10 A3006 RMK AO2 SLP176 T01670100 TSNO
AMW,2017-04-17 19:55,M,M,M,150.00,4.00,M,30.06,M,10.00,M,CLR,M,M,M,M,M,M,M,M,KAMW 180055Z AUTO 15004KT 10SM CLR A3006 RMK MADISHF
AMW,2017-04-17 20:00,M,M,M,150.00,4.00,M,30.06,M,10.00,M,CLR,M,M,M,M,M,M,M,M,KAMW 180100Z AUTO 15004KT 10SM CLR A3006 RMK MADISHF
AMW,2017-04-17 20:05,M,M,M,150.00,4.00,M,30.06,M,10.00,M,CLR,M,M,M,M,M,M,M,M,KAMW 180105Z AUTO 15004KT 10SM CLR A3006 RMK MADISHF
AMW,2017-04-17 20:10,M,M,M,150.00,4.00,M,30.06,M,10.00,M,CLR,M,M,M,M,M,M,M,M,KAMW 180110Z AUTO 15004KT 10SM CLR A3006 RMK MADISHF
AMW,2017-04-17 20:15,M,M,M,150.00,4.00,M,30.06,M,10.00,M,CLR,M,M,M,M,M,M,M,M,KAMW 180115Z AUTO 15004KT 10SM CLR A3006 RMK MADISHF
AMW,2017-04-17 20:20,M,M,M,140.00,4.00,M,30.06,M,10.00,M,CLR,M,M,M,M,M,M,M,M,KAMW 180120Z AUTO 14004KT 10SM CLR A3006 RMK MADISHF
AMW,2017-04-17 20:25,M,M,M,140.00,3.00,M,30.06,M,10.00,M,CLR,M,M,M,M,M,M,M,M,KAMW 180125Z AUTO 14003KT 10SM CLR A3006 RMK MADISHF
AMW,2017-04-17 20:30,M,M,M,150.00,4.00,M,30.06,M,10.00,M,CLR,M,M,M,M,M,M,M,M,KAMW 180130Z AUTO 15004KT 10SM CLR A3006 RMK MADISHF
AMW,2017-04-17 20:35,M,M,M,160.00,4.00,M,30.06,M,10.00,M,CLR,M,M,M,M,M,M,M,M,KAMW 180135Z AUTO 16004KT 10SM CLR A3006 RMK MADISHF
AMW,2017-04-17 20:40,M,M,M,140.00,3.00,M,30.06,M,10.00,M,CLR,M,M,M,M,M,M,M,M,KAMW 180140Z AUTO 14003KT 10SM CLR A3006 RMK MADISHF
AMW,2017-04-17 20:45,M,M,M,140.00,3.00,M,30.06,M,10.00,M,CLR,M,M,M,M,M,M,M,M,KAMW 180145Z AUTO 14003KT 10SM CLR A3006 RMK MADISHF
AMW,2017-04-17 20:50,M,M,M,150.00,4.00,M,30.06,M,10.00,M,CLR,M,M,M,M,M,M,M,M,KAMW 180150Z AUTO 15004KT 10SM CLR A3006 RMK MADISHF
AMW,2017-04-17 20:53,60.10,48.90,66.46,140.00,4.00,0.00,30.06,1017.60,10.00,M,CLR,M,M,M,M,M,M,M,M,KAMW 180153Z AUTO 14004KT 10SM CLR 16/09 A3006 RMK AO2 SLP176 T01560094 TSNO
AMW,2017-04-17 20:55,M,M,M,140.00,5.00,M,30.06,M,10.00,M,CLR,M,M,M,M,M,M,M,M,KAMW 180155Z AUTO 14005KT 10SM CLR A3006 RMK MADISHF
AMW,2017-04-17 21:00,M,M,M,140.00,5.00,M,30.06,M,10.00,M,CLR,M,M,M,M,M,M,M,M,KAMW 180200Z AUTO 14005KT 10SM CLR A3006 RMK MADISHF
AMW,2017-04-17 21:05,M,M,M,150.00,5.00,M,30.06,M,10.00,M,CLR,M,M,M,M,M,M,M,M,KAMW 180205Z AUTO 15005KT 10SM CLR A3006 RMK MADISHF
AMW,2017-04-17 21:10,M,M,M,150.00,5.00,M,30.07,M,10.00,M,CLR,M,M,M,M,M,M,M,M,KAMW 180210Z AUTO 15005KT 10SM CLR A3007 RMK MADISHF
AMW,2017-04-17 21:15,M,M,M,150.00,4.00,M,30.07,M,10.00,M,CLR,M,M,M,M,M,M,M,M,KAMW 180215Z AUTO 15004KT 10SM CLR A3007 RMK MADISHF
AMW,2017-04-17 21:20,M,M,M,150.00,4.00,M,30.07,M,10.00,M,CLR,M,M,M,M,M,M,M,M,KAMW 180220Z AUTO 15004KT 10SM CLR A3007 RMK MADISHF
AMW,2017-04-17 21:25,M,M,M,150.00,5.00,M,30.07,M,10.00,M,CLR,M,M,M,M,M,M,M,M,KAMW 180225Z AUTO 15005KT 10SM CLR A3007 RMK MADISHF
AMW,2017-04-17 21:30,M,M,M,150.00,6.00,M,30.07,M,10.00,M,CLR,M,M,M,M,M,M,M,M,KAMW 180230Z AUTO 15006KT 10SM CLR A3007 RMK MADISHF
AMW,2017-04-17 21:35,M,M,M,150.00,6.00,M,30.07,M,10.00,M,CLR,M,M,M,M,M,M,M,M,KAMW 180235Z AUTO 15006KT 10SM CLR A3007 RMK MADISHF
AMW,2017-04-17 21:40,M,M,M,150.00,6.00,M,30.07,M,10.00,M,CLR,M,M,M,M,M,M,M,M,KAMW 180240Z AUTO 15006KT 10SM CLR A3007 RMK MADISHF
AMW,2017-04-17 21:45,M,M,M,150.00,6.00,M,30.07,M,10.00,M,CLR,M,M,M,M,M,M,M,M,KAMW 180245Z AUTO 15006KT 10SM CLR A3007 RMK MADISHF
AMW,2017-04-17 21:50,M,M,M,150.00,6.00,M,30.08,M,10.00,M,CLR,M,M,M,M,M,M,M,M,KAMW 180250Z AUTO 15006KT 10SM CLR A3008 RMK MADISHF
AMW,2017-04-17 21:53,57.00,46.90,68.90,150.00,7.00,0.00,30.08,1018.10,10.00,M,CLR,M,M,M,M,M,M,M,M,KAMW 180253Z AUTO 15007KT 10SM CLR 14/08 A3008 RMK AO2 SLP181 T01390083 53005 TSNO
AMW,2017-04-17 21:55,M,M,M,140.00,6.00,M,30.07,M,10.00,M,CLR,M,M,M,M,M,M,M,M,KAMW 180255Z AUTO 14006KT 10SM CLR A3007 RMK MADISHF
AMW,2017-04-17 22:00,M,M,M,150.00,6.00,M,30.07,M,10.00,M,CLR,M,M,M,M,M,M,M,M,KAMW 180300Z AUTO 15006KT 10SM CLR A3007 RMK MADISHF
AMW,2017-04-17 22:05,M,M,M,140.00,6.00,M,30.07,M,10.00,M,CLR,M,M,M,M,M,M,M,M,KAMW 180305Z AUTO 14006KT 10SM CLR A3007 RMK MADISHF
AMW,2017-04-17 22:10,M,M,M,150.00,5.00,M,30.07,M,10.00,M,CLR,M,M,M,M,M,M,M,M,KAMW 180310Z AUTO 15005KT 10SM CLR A3007 RMK MADISHF
AMW,2017-04-17 22:15,M,M,M,150.00,5.00,M,30.08,M,10.00,M,CLR,M,M,M,M,M,M,M,M,KAMW 180315Z AUTO 15005KT 10SM CLR A3008 RMK MADISHF
AMW,2017-04-17 22:20,M,M,M,150.00,5.00,M,30.07,M,10.00,M,CLR,M,M,M,M,M,M,M,M,KAMW 180320Z AUTO 15005KT 10SM CLR A3007 RMK MADISHF
AMW,2017-04-17 22:25,M,M,M,160.00,6.00,M,30.08,M,10.00,M,CLR,M,M,M,M,M,M,M,M,KAMW 180325Z AUTO 16006KT 10SM CLR A3008 RMK MADISHF
AMW,2017-04-17 22:30,M,M,M,160.00,7.00,M,30.08,M,10.00,M,CLR,M,M,M,M,M,M,M,M,KAMW 180330Z AUTO 16007KT 10SM CLR A3008 RMK MADISHF
AMW,2017-04-17 22:35,M,M,M,160.00,7.00,M,30.08,M,10.00,M,CLR,M,M,M,M,M,M,M,M,KAMW 180335Z AUTO 16007KT 10SM CLR A3008 RMK MADISHF
AMW,2017-04-17 22:40,M,M,M,150.00,7.00,M,30.08,M,10.00,M,CLR,M,M,M,M,M,M,M,M,KAMW 180340Z AUTO 15007KT 10SM CLR A3008 RMK MADISHF
AMW,2017-04-17 22:45,M,M,M,150.00,6.00,M,30.08,M,10.00,M,CLR,M,M,M,M,M,M,M,M,KAMW 180345Z AUTO 15006KT 10SM CLR A3008 RMK MADISHF
AMW,2017-04-17 22:50,M,M,M,150.00,5.00,M,30.08,M,10.00,M,CLR,M,M,M,M,M,M,M,M,KAMW 180350Z AUTO 15005KT 10SM CLR A3008 RMK MADISHF
AMW,2017-04-17 22:53,55.90,46.00,69.30,150.00,5.00,0.00,30.08,1018.00,10.00,M,CLR,M,M,M,M,M,M,M,M,KAMW 180353Z AUTO 15005KT 10SM CLR 13/08 A3008 RMK AO2 SLP180 T01330078 TSNO
AMW,2017-04-17 22:55,M,M,M,150.00,5.00,M,30.07,M,10.00,M,CLR,M,M,M,M,M,M,M,M,KAMW 180355Z AUTO 15005KT 10SM CLR A3007 RMK MADISHF
AMW,2017-04-17 23:00,M,M,M,150.00,5.00,M,30.07,M,10.00,M,CLR,M,M,M,M,M,M,M,M,KAMW 180400Z AUTO 15005KT 10SM CLR A3007 RMK MADISHF
AMW,2017-04-17 23:05,M,M,M,150.00,5.00,M,30.07,M,10.00,M,CLR,M,M,M,M,M,M,M,M,KAMW 180405Z AUTO 15005KT 10SM CLR A3007 RMK MADISHF
AMW,2017-04-17 23:10,M,M,M,140.00,6.00,M,30.07,M,10.00,M,CLR,M,M,M,M,M,M,M,M,KAMW 180410Z AUTO 14006KT 10SM CLR A3007 RMK MADISHF
AMW,2017-04-17 23:15,M,M,M,150.00,6.00,M,30.07,M,10.00,M,CLR,M,M,M,M,M,M,M,M,KAMW 180415Z AUTO 15006KT 10SM CLR A3007 RMK MADISHF
AMW,2017-04-17 23:20,M,M,M,150.00,6.00,M,30.07,M,10.00,M,CLR,M,M,M,M,M,M,M,M,KAMW 180420Z AUTO 15006KT 10SM CLR A3007 RMK MADISHF
AMW,2017-04-17 23:25,M,M,M,150.00,6.00,M,30.07,M,10.00,M,CLR,M,M,M,M,M,M,M,M,KAMW 180425Z AUTO 15006KT 10SM CLR A3007 RMK MADISHF
AMW,2017-04-17 23:30,M,M,M,150.00,5.00,M,30.07,M,10.00,M,CLR,M,M,M,M,M,M,M,M,KAMW 180430Z AUTO 15005KT 10SM CLR A3007 RMK MADISHF
AMW,2017-04-17 23:35,M,M,M,150.00,5.00,M,30.07,M,10.00,M,CLR,M,M,M,M,M,M,M,M,KAMW 180435Z AUTO 15005KT 10SM CLR A3007 RMK MADISHF
AMW,2017-04-17 23:40,M,M,M,150.00,5.00,M,30.07,M,10.00,M,CLR,M,M,M,M,M,M,M,M,KAMW 180440Z AUTO 15005KT 10SM CLR A3007 RMK MADISHF
AMW,2017-04-17 23:45,M,M,M,150.00,5.00,M,30.06,M,10.00,M,CLR,M,M,M,M,M,M,M,M,KAMW 180445Z AUTO 15005KT 10SM CLR A3006 RMK MADISHF
AMW,2017-04-17 23:50,M,M,M,150.00,5.00,M,30.06,M,10.00,M,CLR,M,M,M,M,M,M,M,M,KAMW 180450Z AUTO 15005KT 10SM CLR A3006 RMK MADISHF
AMW,2017-04-17 23:53,54.00,45.00,71.50,150.00,5.00,0.00,30.06,1017.60,10.00,M,CLR,M,M,M,M,M,M,M,M,KAMW 180453Z AUTO 15005KT 10SM CLR 12/07 A3006 RMK AO2 SLP176 T01220072 TSNO
AMW,2017-04-17 23:55,M,M,M,140.00,6.00,M,30.06,M,10.00,M,CLR,M,M,M,M,M,M,M,M,KAMW 180455Z AUTO 14006KT 10SM CLR A3006 RMK MADISHF
AMW,2017-04-18 00:00,M,M,M,140.00,6.00,M,30.06,M,10.00,M,CLR,M,M,M,M,M,M,M,M,KAMW 180500Z AUTO 14006KT 10SM CLR A3006 RMK MADISHF
AMW,2017-04-18 00:05,M,M,M,140.00,7.00,M,30.06,M,10.00,M,CLR,M,M,M,M,M,M,M,M,KAMW 180505Z AUTO 14007KT 10SM CLR A3006 RMK MADISHF
AMW,2017-04-18 00:10,M,M,M,140.00,7.00,M,30.06,M,10.00,M,CLR,M,M,M,M,M,M,M,M,KAMW 180510Z AUTO 14007KT 10SM CLR A3006 RMK MADISHF
AMW,2017-04-18 00:15,M,M,M,140.00,7.00,M,30.06,M,10.00,M,CLR,M,M,M,M,M,M,M,M,KAMW 180515Z AUTO 14007KT 10SM CLR A3006 RMK MADISHF
AMW,2017-04-18 00:20,M,M,M,150.00,7.00,M,30.06,M,10.00,M,CLR,M,M,M,M,M,M,M,M,KAMW 180520Z AUTO 15007KT 10SM CLR A3006 RMK MADISHF
AMW,2017-04-18 00:25,M,M,M,140.00,6.00,M,30.05,M,10.00,M,CLR,M,M,M,M,M,M,M,M,KAMW 180525Z AUTO 14006KT 10SM CLR A3005 RMK MADISHF
AMW,2017-04-18 00:30,M,M,M,150.00,6.00,M,30.05,M,10.00,M,CLR,M,M,M,M,M,M,M,M,KAMW 180530Z AUTO 15006KT 10SM CLR A3005 RMK MADISHF
AMW,2017-04-18 00:35,M,M,M,150.00,7.00,M,30.05,M,10.00,M,CLR,M,M,M,M,M,M,M,M,KAMW 180535Z AUTO 15007KT 10SM CLR A3005 RMK MADISHF
AMW,2017-04-18 00:40,M,M,M,150.00,6.00,M,30.05,M,10.00,M,CLR,M,M,M,M,M,M,M,M,KAMW 180540Z AUTO 15006KT 10SM CLR A3005 RMK MADISHF
AMW,2017-04-18 00:45,M,M,M,140.00,6.00,M,30.05,M,10.00,M,CLR,M,M,M,M,M,M,M,M,KAMW 180545Z AUTO 14006KT 10SM CLR A3005 RMK MADISHF
AMW,2017-04-18 00:50,M,M,M,130.00,7.00,M,30.05,M,10.00,M,CLR,M,M,M,M,M,M,M,M,KAMW 180550Z AUTO 13007KT 10SM CLR A3005 RMK MADISHF
AMW,2017-04-18 00:53,54.00,45.00,71.50,140.00,7.00,0.00,30.05,1017.10,10.00,M,CLR,M,M,M,M,M,M,M,M,KAMW 180553Z AUTO 14007KT 10SM CLR 12/07 A3005 RMK AO2 SLP171 T01220072 10206 20117 402220056 58009 TSNO
AMW,2017-04-18 00:55,M,M,M,140.00,7.00,M,30.05,M,10.00,M,CLR,M,M,M,M,M,M,M,M,KAMW 180555Z AUTO 14007KT 10SM CLR A3005 RMK MADISHF
AMW,2017-04-18 01:00,M,M,M,150.00,7.00,M,30.05,M,10.00,M,CLR,M,M,M,M,M,M,M,M,KAMW 180600Z AUTO 15007KT 10SM CLR A3005 RMK MADISHF
AMW,2017-04-18 01:05,M,M,M,160.00,7.00,M,30.05,M,10.00,M,CLR,M,M,M,M,M,M,M,M,KAMW 180605Z AUTO 16007KT 10SM CLR A3005 RMK MADISHF
AMW,2017-04-18 01:10,M,M,M,160.00,8.00,M,30.05,M,10.00,M,CLR,M,M,M,M,M,M,M,M,KAMW 180610Z AUTO 16008KT 10SM CLR A3005 RMK MADISHF
AMW,2017-04-18 01:15,M,M,M,160.00,9.00,M,30.05,M,10.00,M,CLR,M,M,M,M,M,M,M,M,KAMW 180615Z AUTO 16009KT 10SM CLR A3005 RMK MADISHF
AMW,2017-04-18 01:20,M,M,M,160.00,8.00,M,30.05,M,10.00,M,CLR,M,M,M,M,M,M,M,M,KAMW 180620Z AUTO 16008KT 10SM CLR A3005 RMK MADISHF
AMW,2017-04-18 01:25,M,M,M,160.00,7.00,M,30.05,M,10.00,M,CLR,M,M,M,M,M,M,M,M,KAMW 180625Z AUTO 16007KT 10SM CLR A3005 RMK MADISHF
AMW,2017-04-18 01:30,M,M,M,160.00,10.00,M,30.05,M,10.00,M,CLR,M,M,M,M,M,M,M,M,KAMW 180630Z AUTO 16010KT 10SM CLR A3005 RMK MADISHF
AMW,2017-04-18 01:35,M,M,M,160.00,9.00,M,30.05,M,10.00,M,CLR,M,M,M,M,M,M,M,M,KAMW 180635Z AUTO 16009KT 10SM CLR A3005 RMK MADISHF
AMW,2017-04-18 01:40,M,M,M,160.00,8.00,M,30.05,M,10.00,M,CLR,M,M,M,M,M,M,M,M,KAMW 180640Z AUTO 16008KT 10SM CLR A3005 RMK MADISHF
AMW,2017-04-18 01:45,M,M,M,150.00,8.00,M,30.05,M,10.00,M,CLR,M,M,M,M,M,M,M,M,KAMW 180645Z AUTO 15008KT 10SM CLR A3005 RMK MADISHF
AMW,2017-04-18 01:50,M,M,M,170.00,6.00,M,30.05,M,10.00,M,CLR,M,M,M,M,M,M,M,M,KAMW 180650Z AUTO 17006KT 10SM CLR A3005 RMK MADISHF
AMW,2017-04-18 01:53,54.00,45.00,71.50,170.00,6.00,0.00,30.05,1017.30,10.00,M,CLR,M,M,M,M,M,M,M,M,KAMW 180653Z AUTO 17006KT 10SM CLR 12/07 A3005 RMK AO2 SLP173 T01220072 TSNO
AMW,2017-04-18 01:55,M,M,M,160.00,6.00,M,30.05,M,10.00,M,CLR,M,M,M,M,M,M,M,M,KAMW 180655Z AUTO 16006KT 10SM CLR A3005 RMK MADISHF
AMW,2017-04-18 02:00,M,M,M,170.00,5.00,M,30.05,M,10.00,M,CLR,M,M,M,M,M,M,M,M,KAMW 180700Z AUTO 17005KT 10SM CLR A3005 RMK MADISHF
AMW,2017-04-18 02:05,M,M,M,170.00,5.00,M,30.05,M,10.00,M,CLR,M,M,M,M,M,M,M,M,KAMW 180705Z AUTO 17005KT 10SM CLR A3005 RMK MADISHF
AMW,2017-04-18 02:10,M,M,M,170.00,5.00,M,30.05,M,10.00,M,CLR,M,M,M,M,M,M,M,M,KAMW 180710Z AUTO 17005KT 10SM CLR A3005 RMK MADISHF
AMW,2017-04-18 02:15,M,M,M,160.00,6.00,M,30.05,M,10.00,M,CLR,M,M,M,M,M,M,M,M,KAMW 180715Z AUTO 16006KT 10SM CLR A3005 RMK MADISHF
AMW,2017-04-18 02:20,M,M,M,160.00,6.00,M,30.05,M,10.00,M,CLR,M,M,M,M,M,M,M,M,KAMW 180720Z AUTO 16006KT 10SM CLR A3005 RMK MADISHF
AMW,2017-04-18 02:25,M,M,M,140.00,5.00,M,30.05,M,10.00,M,CLR,M,M,M,M,M,M,M,M,KAMW 180725Z AUTO 14005KT 10SM CLR A3005 RMK MADISHF
AMW,2017-04-18 02:30,M,M,M,140.00,5.00,M,30.05,M,10.00,M,CLR,M,M,M,M,M,M,M,M,KAMW 180730Z AUTO 14005KT 10SM CLR A3005 RMK MADISHF
AMW,2017-04-18 02:35,M,M,M,140.00,6.00,M,30.05,M,10.00,M,CLR,M,M,M,M,M,M,M,M,KAMW 180735Z AUTO 14006KT 10SM CLR A3005 RMK MADISHF
AMW,2017-04-18 02:40,M,M,M,140.00,5.00,M,30.05,M,10.00,M,CLR,M,M,M,M,M,M,M,M,KAMW 180740Z AUTO 14005KT 10SM CLR A3005 RMK MADISHF
AMW,2017-04-18 02:45,M,M,M,150.00,5.00,M,30.05,M,10.00,M,CLR,M,M,M,M,M,M,M,M,KAMW 180745Z AUTO 15005KT 10SM CLR A3005 RMK MADISHF
AMW,2017-04-18 02:50,M,M,M,160.00,6.00,M,30.05,M,10.00,M,CLR,M,M,M,M,M,M,M,M,KAMW 180750Z AUTO 16006KT 10SM CLR A3005 RMK MADISHF
AMW,2017-04-18 02:53,51.10,45.00,79.54,160.00,5.00,0.00,30.05,1017.20,10.00,M,CLR,M,M,M,M,M,M,M,M,KAMW 180753Z AUTO 16005KT 10SM CLR 11/07 A3005 RMK AO2 SLP172 T01060072 TSNO
AMW,2017-04-18 02:55,M,M,M,150.00,5.00,M,30.05,M,10.00,M,CLR,M,M,M,M,M,M,M,M,KAMW 180755Z AUTO 15005KT 10SM CLR A3005 RMK MADISHF
AMW,2017-04-18 03:00,M,M,M,150.00,5.00,M,30.05,M,10.00,M,CLR,M,M,M,M,M,M,M,M,KAMW 180800Z AUTO 15005KT 10SM CLR A3005 RMK MADISHF
AMW,2017-04-18 03:05,M,M,M,150.00,5.00,M,30.05,M,10.00,M,CLR,M,M,M,M,M,M,M,M,KAMW 180805Z AUTO 15005KT 10SM CLR A3005 RMK MADISHF
AMW,2017-04-18 03:10,M,M,M,150.00,5.00,M,30.05,M,10.00,M,CLR,M,M,M,M,M,M,M,M,KAMW 180810Z AUTO 15005KT 10SM CLR A3005 RMK MADISHF
AMW,2017-04-18 03:15,M,M,M,140.00,6.00,M,30.05,M,10.00,M,CLR,M,M,M,M,M,M,M,M,KAMW 180815Z AUTO 14006KT 10SM CLR A3005 RMK MADISHF
AMW,2017-04-18 03:20,M,M,M,140.00,7.00,M,30.04,M,10.00,M,CLR,M,M,M,M,M,M,M,M,KAMW 180820Z AUTO 14007KT 10SM CLR A3004 RMK MADISHF
AMW,2017-04-18 03:25,M,M,M,140.00,6.00,M,30.04,M,10.00,M,CLR,M,M,M,M,M,M,M,M,KAMW 180825Z AUTO 14006KT 10SM CLR A3004 RMK MADISHF
AMW,2017-04-18 03:30,M,M,M,150.00,6.00,M,30.04,M,10.00,M,CLR,M,M,M,M,M,M,M,M,KAMW 180830Z AUTO 15006KT 10SM CLR A3004 RMK MADISHF
AMW,2017-04-18 03:35,M,M,M,150.00,6.00,M,30.04,M,10.00,M,CLR,M,M,M,M,M,M,M,M,KAMW 180835Z AUTO 15006KT 10SM CLR A3004 RMK MADISHF
AMW,2017-04-18 03:40,M,M,M,150.00,6.00,M,30.04,M,10.00,M,CLR,M,M,M,M,M,M,M,M,KAMW 180840Z AUTO 15006KT 10SM CLR A3004 RMK MADISHF
AMW,2017-04-18 03:45,M,M,M,150.00,5.00,M,30.04,M,10.00,M,CLR,M,M,M,M,M,M,M,M,KAMW 180845Z AUTO 15005KT 10SM CLR A3004 RMK MADISHF
AMW,2017-04-18 03:50,M,M,M,140.00,6.00,M,30.04,M,10.00,M,CLR,M,M,M,M,M,M,M,M,KAMW 180850Z AUTO 14006KT 10SM CLR A3004 RMK MADISHF
AMW,2017-04-18 03:53,51.10,45.00,79.54,150.00,6.00,0.00,30.03,1016.60,10.00,M,CLR,M,M,M,M,M,M,M,M,KAMW 180853Z AUTO 15006KT 10SM CLR 11/07 A3003 RMK AO2 SLP166 T01060072 58004 TSNO
AMW,2017-04-18 03:55,M,M,M,150.00,7.00,M,30.03,M,10.00,M,CLR,M,M,M,M,M,M,M,M,KAMW 180855Z AUTO 15007KT 10SM CLR A3003 RMK MADISHF
AMW,2017-04-18 04:00,M,M,M,150.00,7.00,M,30.03,M,10.00,M,CLR,M,M,M,M,M,M,M,M,KAMW 180900Z AUTO 15007KT 10SM CLR A3003 RMK MADISHF
AMW,2017-04-18 04:05,M,M,M,150.00,6.00,M,30.04,M,10.00,M,CLR,M,M,M,M,M,M,M,M,KAMW 180905Z AUTO 15006KT 10SM CLR A3004 RMK MADISHF
AMW,2017-04-18 04:10,M,M,M,160.00,6.00,M,30.04,M,10.00,M,CLR,M,M,M,M,M,M,M,M,KAMW 180910Z AUTO 16006KT 10SM CLR A3004 RMK MADISHF
AMW,2017-04-18 04:15,M,M,M,160.00,6.00,M,30.03,M,10.00,M,CLR,M,M,M,M,M,M,M,M,KAMW 180915Z AUTO 16006KT 10SM CLR A3003 RMK MADISHF
AMW,2017-04-18 04:20,M,M,M,160.00,7.00,M,30.03,M,10.00,M,CLR,M,M,M,M,M,M,M,M,KAMW 180920Z AUTO 16007KT 10SM CLR A3003 RMK MADISHF
AMW,2017-04-18 04:25,M,M,M,170.00,6.00,M,30.03,M,10.00,M,CLR,M,M,M,M,M,M,M,M,KAMW 180925Z AUTO 17006KT 10SM CLR A3003 RMK MADISHF
AMW,2017-04-18 04:30,M,M,M,170.00,6.00,M,30.03,M,10.00,M,CLR,M,M,M,M,M,M,M,M,KAMW 180930Z AUTO 17006KT 10SM CLR A3003 RMK MADISHF
AMW,2017-04-18 04:35,M,M,M,160.00,7.00,M,30.03,M,10.00,M,CLR,M,M,M,M,M,M,M,M,KAMW 180935Z AUTO 16007KT 10SM CLR A3003 RMK MADISHF
AMW,2017-04-18 04:40,M,M,M,160.00,8.00,M,30.02,M,10.00,M,CLR,M,M,M,M,M,M,M,M,KAMW 180940Z AUTO 16008KT 10SM CLR A3002 RMK MADISHF
AMW,2017-04-18 04:45,M,M,M,160.00,9.00,M,30.02,M,10.00,M,CLR,M,M,M,M,M,M,M,M,KAMW 180945Z AUTO 16009KT 10SM CLR A3002 RMK MADISHF
AMW,2017-04-18 04:50,M,M,M,150.00,8.00,M,30.01,M,10.00,M,CLR,M,M,M,M,M,M,M,M,KAMW 180950Z AUTO 15008KT 10SM CLR A3001 RMK MADISHF
AMW,2017-04-18 04:53,52.00,46.00,79.92,150.00,8.00,0.00,30.01,1015.80,10.00,M,CLR,M,M,M,M,M,M,M,M,KAMW 180953Z AUTO 15008KT 10SM CLR 11/08 A3001 RMK AO2 SLP158 T01110078 TSNO
AMW,2017-04-18 04:55,M,M,M,150.00,7.00,M,30.01,M,10.00,M,CLR,M,M,M,M,M,M,M,M,KAMW 180955Z AUTO 15007KT 10SM CLR A3001 RMK MADISHF
AMW,2017-04-18 05:00,M,M,M,150.00,8.00,M,30.01,M,10.00,M,CLR,M,M,M,M,M,M,M,M,KAMW 181000Z AUTO 15008KT 10SM CLR A3001 RMK MADISHF
AMW,2017-04-18 05:05,M,M,M,160.00,8.00,M,30.00,M,10.00,M,CLR,M,M,M,M,M,M,M,M,KAMW 181005Z AUTO 16008KT 10SM CLR A3000 RMK MADISHF
AMW,2017-04-18 05:10,M,M,M,160.00,9.00,M,30.00,M,10.00,M,CLR,M,M,M,M,M,M,M,M,KAMW 181010Z AUTO 16009KT 10SM CLR A3000 RMK MADISHF
AMW,2017-04-18 05:15,M,M,M,150.00,8.00,M,30.00,M,10.00,M,CLR,M,M,M,M,M,M,M,M,KAMW 181015Z AUTO 15008KT 10SM CLR A3000 RMK MADISHF
AMW,2017-04-18 05:20,M,M,M,150.00,8.00,M,30.00,M,10.00,M,CLR,M,M,M,M,M,M,M,M,KAMW 181020Z AUTO 15008KT 10SM CLR A3000 RMK MADISHF
AMW,2017-04-18 05:25,M,M,M,150.00,8.00,M,30.00,M,10.00,M,CLR,M,M,M,M,M,M,M,M,KAMW 181025Z AUTO 15008KT 10SM CLR A3000 RMK MADISHF
AMW,2017-04-18 05:30,M,M,M,150.00,8.00,M,30.00,M,10.00,M,CLR,M,M,M,M,M,M,M,M,KAMW 181030Z AUTO 15008KT 10SM CLR A3000 RMK MADISHF
AMW,2017-04-18 05:35,M,M,M,160.00,9.00,M,30.00,M,10.00,M,CLR,M,M,M,M,M,M,M,M,KAMW 181035Z AUTO 16009KT 10SM CLR A3000 RMK MADISHF
AMW,2017-04-18 05:40,M,M,M,160.00,9.00,M,30.00,M,10.00,M,CLR,M,M,M,M,M,M,M,M,KAMW 181040Z AUTO 16009KT 10SM CLR A3000 RMK MADISHF
AMW,2017-04-18 05:45,M,M,M,160.00,8.00,M,30.00,M,10.00,M,CLR,M,M,M,M,M,M,M,M,KAMW 181045Z AUTO 16008KT 10SM CLR A3000 RMK MADISHF
AMW,2017-04-18 05:50,M,M,M,150.00,8.00,M,29.99,M,10.00,M,CLR,M,M,M,M,M,M,M,M,KAMW 181050Z AUTO 15008KT 10SM CLR A2999 RMK MADISHF
AMW,2017-04-18 05:53,51.10,46.90,85.48,150.00,9.00,0.00,29.99,1015.20,10.00,M,CLR,M,M,M,M,M,M,M,M,KAMW 181053Z AUTO 15009KT 10SM CLR 11/08 A2999 RMK AO2 SLP152 T01060083 TSNO
AMW,2017-04-18 05:55,M,M,M,150.00,9.00,M,29.99,M,10.00,M,CLR,M,M,M,M,M,M,M,M,KAMW 181055Z AUTO 15009KT 10SM CLR A2999 RMK MADISHF
AMW,2017-04-18 06:00,M,M,M,150.00,8.00,M,29.99,M,10.00,M,CLR,M,M,M,M,M,M,M,M,KAMW 181100Z AUTO 15008KT 10SM CLR A2999 RMK MADISHF
AMW,2017-04-18 06:05,M,M,M,160.00,8.00,M,29.99,M,10.00,M,CLR,M,M,M,M,M,M,M,M,KAMW 181105Z AUTO 16008KT 10SM CLR A2999 RMK MADISHF
AMW,2017-04-18 06:10,M,M,M,150.00,8.00,M,29.99,M,10.00,M,CLR,M,M,M,M,M,M,M,M,KAMW 181110Z AUTO 15008KT 10SM CLR A2999 RMK MADISHF
AMW,2017-04-18 06:15,M,M,M,150.00,7.00,M,29.99,M,10.00,M,CLR,M,M,M,M,M,M,M,M,KAMW 181115Z AUTO 15007KT 10SM CLR A2999 RMK MADISHF
AMW,2017-04-18 06:20,M,M,M,150.00,8.00,M,29.98,M,10.00,M,CLR,M,M,M,M,M,M,M,M,KAMW 181120Z AUTO 15008KT 10SM CLR A2998 RMK MADISHF
AMW,2017-04-18 06:25,M,M,M,150.00,8.00,M,29.98,M,10.00,M,CLR,M,M,M,M,M,M,M,M,KAMW 181125Z AUTO 15008KT 10SM CLR A2998 RMK MADISHF
AMW,2017-04-18 06:30,M,M,M,150.00,10.00,M,29.97,M,10.00,M,CLR,M,M,M,M,M,M,M,M,KAMW 181130Z AUTO 15010KT 10SM CLR A2997 RMK MADISHF
AMW,2017-04-18 06:35,M,M,M,160.00,11.00,M,29.97,M,10.00,M,CLR,M,M,M,M,M,M,M,M,KAMW 181135Z AUTO 16011KT 10SM CLR A2997 RMK MADISHF
AMW,2017-04-18 06:40,M,M,M,150.00,11.00,M,29.97,M,10.00,M,CLR,M,M,M,M,M,M,M,M,KAMW 181140Z AUTO 15011KT 10SM CLR A2997 RMK MADISHF
AMW,2017-04-18 06:45,M,M,M,150.00,10.00,M,29.97,M,10.00,M,CLR,M,M,M,M,M,M,M,M,KAMW 181145Z AUTO 15010KT 10SM CLR A2997 RMK MADISHF
AMW,2017-04-18 06:50,M,M,M,160.00,9.00,M,29.97,M,10.00,M,CLR,M,M,M,M,M,M,M,M,KAMW 181150Z AUTO 16009KT 10SM CLR A2997 RMK MADISHF
AMW,2017-04-18 06:53,52.00,46.90,82.68,160.00,10.00,0.00,29.98,1014.70,10.00,M,CLR,M,M,M,M,M,M,M,M,KAMW 181153Z AUTO 16010KT 10SM CLR 11/08 A2998 RMK AO2 SLP147 T01110083 10139 20106 56019 TSNO
AMW,2017-04-18 06:55,M,M,M,160.00,9.00,M,29.98,M,10.00,M,CLR,M,M,M,M,M,M,M,M,KAMW 181155Z AUTO 16009KT 10SM CLR A2998 RMK MADISHF
AMW,2017-04-18 07:00,M,M,M,170.00,9.00,M,29.98,M,10.00,M,CLR,M,M,M,M,M,M,M,M,KAMW 181200Z AUTO 17009KT 10SM CLR A2998 RMK MADISHF
AMW,2017-04-18 07:05,M,M,M,160.00,12.00,M,29.97,M,10.00,M,FEW,M,M,M,12000.00,M,M,M,M,KAMW 181205Z AUTO 16012KT 10SM FEW120 A2997 RMK MADISHF
AMW,2017-04-18 07:10,M,M,M,170.00,12.00,M,29.98,M,10.00,M,SCT,M,M,M,12000.00,M,M,M,M,KAMW 181210Z AUTO 17012KT 10SM SCT120 A2998 RMK MADISHF
AMW,2017-04-18 07:15,M,M,M,170.00,13.00,M,29.98,M,10.00,M,SCT,M,M,M,12000.00,M,M,M,M,KAMW 181215Z AUTO 17013KT 10SM SCT120 A2998 RMK MADISHF
AMW,2017-04-18 07:20,M,M,M,170.00,12.00,M,29.98,M,10.00,M,SCT,M,M,M,11000.00,M,M,M,M,KAMW 181220Z AUTO 17012KT 10SM SCT110 A2998 RMK MADISHF
AMW,2017-04-18 07:25,M,M,M,170.00,11.00,M,29.98,M,10.00,M,BKN,M,M,M,11000.00,M,M,M,M,KAMW 181225Z AUTO 17011KT 10SM BKN110 A2998 RMK MADISHF
AMW,2017-04-18 07:30,M,M,M,160.00,10.00,M,29.97,M,10.00,M,BKN,M,M,M,11000.00,M,M,M,M,KAMW 181230Z AUTO 16010KT 10SM BKN110 A2997 RMK MADISHF
AMW,2017-04-18 07:35,M,M,M,160.00,10.00,M,29.97,M,10.00,M,BKN,M,M,M,11000.00,M,M,M,M,KAMW 181235Z AUTO 16010KT 10SM BKN110 A2997 RMK MADISHF
AMW,2017-04-18 07:40,M,M,M,160.00,12.00,M,29.97,M,10.00,M,BKN,M,M,M,11000.00,M,M,M,M,KAMW 181240Z AUTO 16012KT 10SM BKN110 A2997 RMK MADISHF
AMW,2017-04-18 07:45,M,M,M,160.00,11.00,M,29.97,M,10.00,M,BKN,M,M,M,11000.00,M,M,M,M,KAMW 181245Z AUTO 16011KT 10SM BKN110 A2997 RMK MADISHF
AMW,2017-04-18 07:50,M,M,M,160.00,11.00,M,29.97,M,10.00,M,BKN,M,M,M,11000.00,M,M,M,M,KAMW 181250Z AUTO 16011KT 10SM BKN110 A2997 RMK MADISHF
AMW,2017-04-18 07:53,55.00,46.00,71.60,170.00,10.00,0.00,29.97,1014.60,10.00,M,BKN,M,M,M,11000.00,M,M,M,M,KAMW 181253Z AUTO 17010KT 10SM BKN110 13/08 A2997 RMK AO2 SLP146 T01280078 TSNO
AMW,2017-04-18 07:55,M,M,M,160.00,10.00,M,29.97,M,10.00,M,BKN,M,M,M,11000.00,M,M,M,M,KAMW 181255Z AUTO 16010KT 10SM BKN110 A2997 RMK MADISHF
AMW,2017-04-18 08:00,M,M,M,170.00,9.00,M,29.98,M,10.00,M,BKN,M,M,M,11000.00,M,M,M,M,KAMW 181300Z AUTO 17009KT 10SM BKN110 A2998 RMK MADISHF
AMW,2017-04-18 08:05,M,M,M,170.00,10.00,M,29.98,M,10.00,M,OVC,M,M,M,11000.00,M,M,M,M,KAMW 181305Z AUTO 17010KT 10SM OVC110 A2998 RMK MADISHF
AMW,2017-04-18 08:10,M,M,M,170.00,10.00,M,29.98,M,10.00,M,OVC,M,M,M,10000.00,M,M,M,M,KAMW 181310Z AUTO 17010KT 10SM OVC100 A2998 RMK MADISHF
AMW,2017-04-18 08:15,M,M,M,170.00,11.00,M,29.98,M,10.00,M,OVC,M,M,M,10000.00,M,M,M,M,KAMW 181315Z AUTO 17011KT 10SM OVC100 A2998 RMK MADISHF
AMW,2017-04-18 08:20,M,M,M,160.00,11.00,M,29.98,M,10.00,M,OVC,M,M,M,11000.00,M,M,M,M,KAMW 181320Z AUTO 16011KT 10SM OVC110 A2998 RMK MADISHF
AMW,2017-04-18 08:25,M,M,M,160.00,12.00,M,29.97,M,10.00,17.00,OVC,M,M,M,11000.00,M,M,M,M,KAMW 181325Z AUTO 16012G17KT 10SM OVC110 A2997 RMK MADISHF
AMW,2017-04-18 08:30,M,M,M,160.00,12.00,M,29.97,M,10.00,M,OVC,M,M,M,11000.00,M,M,M,M,KAMW 181330Z AUTO 16012KT 10SM OVC110 A2997 RMK MADISHF
AMW,2017-04-18 08:35,M,M,M,170.00,10.00,M,29.98,M,10.00,M,OVC,M,M,M,10000.00,M,M,M,M,KAMW 181335Z AUTO 17010KT 10SM OVC100 A2998 RMK MADISHF
AMW,2017-04-18 08:40,M,M,M,170.00,11.00,M,29.98,M,10.00,M,OVC,M,M,M,10000.00,M,M,M,M,KAMW 181340Z AUTO 17011KT 10SM OVC100 A2998 RMK MADISHF
AMW,2017-04-18 08:45,M,M,M,170.00,8.00,M,29.99,M,10.00,M,OVC,M,M,M,10000.00,M,M,M,M,KAMW 181345Z AUTO 17008KT 10SM OVC100 A2999 RMK MADISHF
AMW,2017-04-18 08:50,M,M,M,200.00,5.00,M,30.01,M,10.00,M,OVC,M,M,M,10000.00,M,M,M,M,KAMW 181350Z AUTO 20005KT 10SM OVC100 A3001 RMK MADISHF
AMW,2017-04-18 08:53,57.00,46.00,66.59,M,6.00,0.00,30.03,1016.50,10.00,M,OVC,M,M,M,11000.00,M,M,M,M,KAMW 181353Z AUTO VRB06KT 10SM OVC110 14/08 A3003 RMK AO2 PRESRR SLP165 T01390078 TSNO
AMW,2017-04-18 08:55,M,M,M,230.00,6.00,M,30.04,M,10.00,M,OVC,M,M,M,11000.00,M,M,M,M,KAMW 181355Z AUTO 23006KT 10SM OVC110 A3004 RMK MADISHF
AMW,2017-04-18 09:00,M,M,M,260.00,10.00,M,30.07,M,10.00,M,BKN,M,M,M,11000.00,M,M,M,M,KAMW 181400Z AUTO 26010KT 10SM BKN110 A3007 RMK MADISHF
AMW,2017-04-18 09:05,M,M,M,270.00,9.00,M,30.08,M,10.00,M,BKN,M,M,M,11000.00,M,M,M,M,KAMW 181405Z AUTO 27009KT 10SM BKN110 A3008 RMK MADISHF
AMW,2017-04-18 09:10,M,M,M,270.00,8.00,M,30.07,M,10.00,M,FEW,FEW,BKN,M,7000.00,9000.00,11000.00,M,M,KAMW 181410Z AUTO 27008KT 10SM FEW070 FEW090 BKN110 A3007 RMK MADISHF
AMW,2017-04-18 09:15,M,M,M,270.00,7.00,M,30.07,M,10.00,M,SCT,BKN,M,M,9500.00,11000.00,M,M,M,KAMW 181415Z AUTO 27007KT 10SM SCT095 BKN110 A3007 RMK MADISHF
AMW,2017-04-18 09:20,M,M,M,260.00,5.00,M,30.07,M,10.00,M,SCT,BKN,M,M,10000.00,12000.00,M,M,M,KAMW 181420Z AUTO 26005KT 10SM SCT100 BKN120 A3007 RMK MADISHF
AMW,2017-04-18 09:25,M,M,M,260.00,7.00,M,30.08,M,10.00,M,SCT,BKN,M,M,9000.00,11000.00,M,M,M,KAMW 181425Z AUTO 26007KT 10SM SCT090 BKN110 A3008 RMK MADISHF
AMW,2017-04-18 09:30,M,M,M,250.00,6.00,M,30.08,M,10.00,M,SCT,OVC,M,M,9000.00,11000.00,M,M,M,KAMW 181430Z AUTO 25006KT 10SM SCT090 OVC110 A3008 RMK MADISHF
AMW,2017-04-18 09:35,M,M,M,210.00,5.00,M,30.07,M,10.00,M,SCT,OVC,M,M,9000.00,11000.00,M,M,M,KAMW 181435Z AUTO 21005KT 10SM SCT090 OVC110 A3007 RMK MADISHF
AMW,2017-04-18 09:40,M,M,M,230.00,5.00,M,30.08,M,10.00,M,BKN,OVC,M,M,10000.00,12000.00,M,M,M,KAMW 181440Z AUTO 23005KT 10SM BKN100 OVC120 A3008 RMK MADISHF
AMW,2017-04-18 09:45,M,M,M,200.00,5.00,M,30.07,M,10.00,M,FEW,FEW,OVC,M,6500.00,7999.00,11000.00,M,-RA,KAMW 181445Z AUTO 20005KT 10SM -RA FEW065 FEW079 OVC110 A3007 RMK MADISHF
AMW,2017-04-18 09:50,M,M,M,170.00,6.00,M,30.06,M,9.00,M,FEW,SCT,OVC,M,6500.00,8500.00,11000.00,M,-RA,KAMW 181450Z AUTO 17006KT 9SM -RA FEW065 SCT085 OVC110 A3006 RMK MADISHF
AMW,2017-04-18 09:53,54.00,48.90,82.82,160.00,8.00,0.00,30.06,1017.80,9.00,M,FEW,SCT,OVC,M,6000.00,8500.00,11000.00,M,-RA,KAMW 181453Z AUTO 16008KT 9SM -RA FEW060 SCT085 OVC110 12/09 A3006 RMK AO2 RAB45 SLP178 P0000 60000 T01220094 53028 TSNO
AMW,2017-04-18 09:55,M,M,M,160.00,8.00,M,30.06,M,10.00,M,FEW,SCT,OVC,M,6000.00,7500.00,11000.00,M,-RA,KAMW 181455Z AUTO 16008KT 10SM -RA FEW060 SCT075 OVC110 A3006 RMK MADISHF
AMW,2017-04-18 10:00,M,M,M,160.00,9.00,M,30.05,M,10.00,M,SCT,BKN,OVC,M,7000.00,9000.00,11000.00,M,-RA,KAMW 181500Z AUTO 16009KT 10SM -RA SCT070 BKN090 OVC110 A3005 RMK MADISHF
AMW,2017-04-18 10:05,M,M,M,160.00,12.00,M,30.04,M,10.00,M,SCT,BKN,OVC,M,6500.00,7999.00,11000.00,M,-RA,KAMW 181505Z AUTO 16012KT 10SM -RA SCT065 BKN079 OVC110 A3004 RMK MADISHF
AMW,2017-04-18 10:10,M,M,M,170.00,12.00,M,30.03,M,10.00,M,BKN,OVC,M,M,7000.00,9000.00,M,M,-RA,KAMW 181510Z AUTO 17012KT 10SM -RA BKN070 OVC090 A3003 RMK MADISHF
AMW,2017-04-18 10:15,M,M,M,160.00,13.00,M,30.02,M,10.00,M,SCT,BKN,OVC,M,6500.00,7500.00,9000.00,M,-RA,KAMW 181515Z AUTO 16013KT 10SM -RA SCT065 BKN075 OVC090 A3002 RMK MADISHF
AMW,2017-04-18 10:25,M,M,M,180.00,12.00,0.04,30.03,M,4.00,M,BKN,OVC,M,M,7000.00,9000.00,M,M,RA,KAMW 181525Z AUTO 18012KT 4SM RA BKN070 OVC090 A3003 RMK P0004 MADISHF
AMW,2017-04-18 10:30,M,M,M,180.00,9.00,0.06,30.03,M,4.00,M,BKN,OVC,M,M,7000.00,9000.00,M,M,RA,KAMW 181530Z AUTO 18009KT 4SM RA BKN070 OVC090 A3003 RMK P0006 MADISHF
AMW,2017-04-18 10:35,M,M,M,150.00,9.00,0.10,30.01,M,3.00,M,SCT,OVC,M,M,6500.00,7999.00,M,M,RA BR,KAMW 181535Z AUTO 15009KT 3SM RA BR SCT065 OVC079 A3001 RMK P0010 MADISHF
AMW,2017-04-18 10:40,M,M,M,140.00,11.00,0.12,29.99,M,3.00,17.00,SCT,BKN,OVC,M,5500.00,7000.00,8500.00,M,RA BR,KAMW 181540Z AUTO 14011G17KT 3SM RA BR SCT055 BKN070 OVC085 A2999 RMK P0012 MADISHF
AMW,2017-04-18 10:45,M,M,M,140.00,12.00,0.13,29.99,M,4.00,M,FEW,BKN,OVC,M,5500.00,7000.00,9000.00,M,RA BR,KAMW 181545Z AUTO 14012KT 4SM RA BR FEW055 BKN070 OVC090 A2999 RMK P0013 MADISHF
AMW,2017-04-18 10:50,M,M,M,140.00,10.00,0.13,29.98,M,6.00,M,FEW,BKN,OVC,M,3700.00,7500.00,10000.00,M,-RA BR,KAMW 181550Z AUTO 14010KT 6SM -RA BR FEW037 BKN075 OVC100 A2998 RMK P0013 MADISHF
AMW,2017-04-18 10:53,54.00,52.00,92.92,150.00,11.00,0.13,29.98,1015.00,9.00,M,FEW,BKN,OVC,M,3700.00,7000.00,9000.00,M,-RA,KAMW 181553Z AUTO 15011KT 9SM -RA FEW037 BKN070 OVC090 12/11 A2998 RMK AO2 SLP150 P0013 T01220111
AMW,2017-04-18 10:55,M,M,M,150.00,12.00,M,29.98,M,10.00,M,FEW,BKN,OVC,M,3399.00,4500.00,9000.00,M,-RA,KAMW 181555Z AUTO 15012KT 10SM -RA FEW033 BKN045 OVC090 A2998 RMK MADISHF
AMW,2017-04-18 11:00,M,M,M,150.00,12.00,M,29.97,M,10.00,M,FEW,BKN,OVC,M,3399.00,7999.00,11000.00,M,-RA,KAMW 181600Z AUTO 15012KT 10SM -RA FEW033 BKN079 OVC110 A2997 RMK MADISHF
AMW,2017-04-18 11:05,M,M,M,160.00,12.00,M,29.96,M,10.00,M,FEW,SCT,BKN,M,3399.00,4700.00,11000.00,M,M,KAMW 181605Z AUTO 16012KT 10SM FEW033 SCT047 BKN110 A2996 RMK MADISHF
AMW,2017-04-18 11:10,M,M,M,170.00,15.00,M,29.96,M,10.00,M,FEW,BKN,BKN,M,3900.00,10000.00,12000.00,M,M,KAMW 181610Z AUTO 17015KT 10SM FEW039 BKN100 BKN120 A2996 RMK MADISHF
AMW,2017-04-18 11:15,M,M,M,170.00,14.00,M,29.95,M,10.00,M,FEW,BKN,M,M,3900.00,9500.00,M,M,M,KAMW 181615Z AUTO 17014KT 10SM FEW039 BKN095 A2995 RMK MADISHF
AMW,2017-04-18 11:20,M,M,M,170.00,15.00,M,29.96,M,10.00,M,FEW,BKN,M,M,3300.00,9500.00,M,M,M,KAMW 181620Z AUTO 17015KT 10SM FEW033 BKN095 A2996 RMK MADISHF
AMW,2017-04-18 11:25,M,M,M,M,M,M,29.96,M,10.00,M,BKN,M,M,M,9500.00,M,M,M,M,KAMW 181625Z AUTO /////KT 10SM BKN095 A2996 RMK MADISHF
AMW,2017-04-18 11:30,M,M,M,M,M,M,29.95,M,10.00,M,SCT,M,M,M,9500.00,M,M,M,M,KAMW 181630Z AUTO /////KT 10SM SCT095 A2995 RMK MADISHF
AMW,2017-04-18 11:35,M,M,M,170.00,19.00,M,29.94,M,10.00,M,BKN,M,M,M,9500.00,M,M,M,M,KAMW 181635Z AUTO 17019KT 10SM BKN095 A2994 RMK MADISHF
AMW,2017-04-18 11:40,M,M,M,M,M,M,29.95,M,10.00,25.00,BKN,M,M,M,9500.00,M,M,M,M,KAMW 181640Z AUTO /////G25KT 10SM BKN095 A2995 RMK MADISHF
AMW,2017-04-18 11:45,M,M,M,M,M,M,29.95,M,10.00,M,FEW,SCT,M,M,7999.00,9500.00,M,M,M,KAMW 181645Z AUTO /////KT 10SM FEW079 SCT095 A2995 RMK MADISHF
AMW,2017-04-18 11:50,M,M,M,180.00,21.00,M,29.95,M,10.00,M,SCT,BKN,M,M,7500.00,9000.00,M,M,M,KAMW 181650Z AUTO 18021KT 10SM SCT075 BKN090 A2995 RMK MADISHF
AMW,2017-04-18 11:53,62.10,55.90,80.11,180.00,17.00,0.00,29.94,1013.50,10.00,28.00,SCT,BKN,M,M,7500.00,9000.00,M,M,M,KAMW 181653Z AUTO 18017G28KT 10SM SCT075 BKN090 17/13 A2994 RMK AO2 PK WND 18028/1650 RAE02 SLP135 P0000 T01670133
AMW,2017-04-18 11:55,M,M,M,M,M,M,29.94,M,10.00,M,BKN,BKN,M,M,7500.00,9000.00,M,M,M,KAMW 181655Z AUTO /////KT 10SM BKN075 BKN090 A2994 RMK MADISHF
AMW,2017-04-18 12:00,M,M,M,180.00,20.00,M,29.93,M,10.00,M,BKN,BKN,M,M,7500.00,9000.00,M,M,M,KAMW 181700Z AUTO 18020KT 10SM BKN075 BKN090 A2993 RMK MADISHF
AMW,2017-04-18 12:05,M,M,M,M,M,M,29.93,M,10.00,M,BKN,M,M,M,7500.00,M,M,M,M,KAMW 181705Z AUTO /////KT 10SM BKN075 A2993 RMK MADISHF
AMW,2017-04-18 12:10,M,M,M,M,M,M,29.93,M,10.00,M,SCT,BKN,M,M,6500.00,7999.00,M,M,M,KAMW 181710Z AUTO /////KT 10SM SCT065 BKN079 A2993 RMK MADISHF
AMW,2017-04-18 12:15,M,M,M,180.00,22.00,M,29.93,M,10.00,M,SCT,BKN,M,M,6500.00,7999.00,M,M,M,KAMW 181715Z AUTO 18022KT 10SM SCT065 BKN079 A2993 RMK MADISHF
AMW,2017-04-18 12:20,M,M,M,190.00,20.00,M,29.93,M,10.00,M,BKN,BKN,M,M,6000.00,7999.00,M,M,M,KAMW 181720Z AUTO 19020KT 10SM BKN060 BKN079 A2993 RMK MADISHF
AMW,2017-04-18 12:25,M,M,M,180.00,18.00,M,29.93,M,10.00,M,BKN,BKN,M,M,6000.00,7999.00,M,M,M,KAMW 181725Z AUTO 18018KT 10SM BKN060 BKN079 A2993 RMK MADISHF
AMW,2017-04-18 12:30,M,M,M,190.00,18.00,M,29.92,M,10.00,M,BKN,M,M,M,6000.00,M,M,M,M,KAMW 181730Z AUTO 19018KT 10SM BKN060 A2992 RMK MADISHF
AMW,2017-04-18 12:35,M,M,M,180.00,19.00,M,29.91,M,10.00,M,BKN,M,M,M,6000.00,M,M,M,M,KAMW 181735Z AUTO 18019KT 10SM BKN060 A2991 RMK MADISHF
AMW,2017-04-18 12:40,M,M,M,M,M,M,29.91,M,10.00,M,BKN,M,M,M,6000.00,M,M,M,M,KAMW 181740Z AUTO /////KT 10SM BKN060 A2991 RMK MADISHF
AMW,2017-04-18 12:45,M,M,M,M,M,M,29.91,M,10.00,27.00,BKN,M,M,M,6000.00,M,M,M,M,KAMW 181745Z AUTO /////G27KT 10SM BKN060 A2991 RMK MADISHF
AMW,2017-04-18 12:50,M,M,M,190.00,14.00,M,29.91,M,10.00,M,BKN,M,M,M,6000.00,M,M,M,M,KAMW 181750Z AUTO 19014KT 10SM BKN060 A2991 RMK MADISHF
AMW,2017-04-18 12:53,66.90,59.00,75.74,190.00,20.00,0.00,29.91,1012.40,10.00,27.00,BKN,M,M,M,6000.00,M,M,M,M,KAMW 181753Z AUTO 19020G27KT 10SM BKN060 19/15 A2991 RMK AO2 PK WND 19031/1705 SLP124 60013 T01940150 10194 20111 56050
AMW,2017-04-18 12:55,M,M,M,190.00,20.00,M,29.91,M,10.00,M,OVC,M,M,M,6000.00,M,M,M,M,KAMW 181755Z AUTO 19020KT 10SM OVC060 A2991 RMK MADISHF
AMW,2017-04-18 13:00,M,M,M,200.00,22.00,M,29.91,M,10.00,M,OVC,M,M,M,6000.00,M,M,M,M,KAMW 181800Z AUTO 20022KT 10SM OVC060 A2991 RMK MADISHF
AMW,2017-04-18 13:05,M,M,M,200.00,20.00,M,29.91,M,10.00,M,OVC,M,M,M,6000.00,M,M,M,M,KAMW 181805Z AUTO 20020KT 10SM OVC060 A2991 RMK MADISHF
AMW,2017-04-18 13:10,M,M,M,200.00,17.00,M,29.91,M,10.00,M,OVC,M,M,M,6000.00,M,M,M,M,KAMW 181810Z AUTO 20017KT 10SM OVC060 A2991 RMK MADISHF
AMW,2017-04-18 13:15,M,M,M,190.00,16.00,M,29.90,M,10.00,M,OVC,M,M,M,6000.00,M,M,M,M,KAMW 181815Z AUTO 19016KT 10SM OVC060 A2990 RMK MADISHF
AMW,2017-04-18 13:20,M,M,M,210.00,20.00,M,29.90,M,10.00,27.00,OVC,M,M,M,6000.00,M,M,M,M,KAMW 181820Z AUTO 21020G27KT 10SM OVC060 A2990 RMK MADISHF
AMW,2017-04-18 13:25,M,M,M,200.00,20.00,M,29.90,M,10.00,M,OVC,M,M,M,6000.00,M,M,M,M,KAMW 181825Z AUTO 20020KT 10SM OVC060 A2990 RMK MADISHF
AMW,2017-04-18 13:30,M,M,M,210.00,17.00,M,29.90,M,10.00,M,OVC,M,M,M,5500.00,M,M,M,M,KAMW 181830Z AUTO 21017KT 10SM OVC055 A2990 RMK MADISHF
AMW,2017-04-18 13:35,M,M,M,210.00,20.00,M,29.90,M,10.00,M,OVC,M,M,M,5500.00,M,M,M,M,KAMW 181835Z AUTO 21020KT 10SM OVC055 A2990 RMK MADISHF
AMW,2017-04-18 13:40,M,M,M,210.00,18.00,M,29.89,M,10.00,23.00,OVC,M,M,M,5500.00,M,M,M,M,KAMW 181840Z AUTO 21018G23KT 10SM OVC055 A2989 RMK MADISHF
AMW,2017-04-18 13:45,M,M,M,210.00,20.00,M,29.90,M,10.00,26.00,OVC,M,M,M,5500.00,M,M,M,M,KAMW 181845Z AUTO 21020G26KT 10SM OVC055 A2990 RMK MADISHF
AMW,2017-04-18 13:50,M,M,M,210.00,20.00,M,29.89,M,10.00,M,OVC,M,M,M,5500.00,M,M,M,M,KAMW 181850Z AUTO 21020KT 10SM OVC055 A2989 RMK MADISHF
AMW,2017-04-18 13:53,68.00,59.00,72.92,210.00,17.00,0.00,29.89,1011.80,10.00,28.00,OVC,M,M,M,5500.00,M,M,M,M,KAMW 181853Z AUTO 21017G28KT 10SM OVC055 20/15 A2989 RMK AO2 PK WND 20029/1804 SLP118 T02000150
AMW,2017-04-18 13:55,M,M,M,220.00,19.00,M,29.89,M,10.00,M,OVC,M,M,M,5500.00,M,M,M,M,KAMW 181855Z AUTO 22019KT 10SM OVC055 A2989 RMK MADISHF
AMW,2017-04-18 14:00,M,M,M,210.00,17.00,M,29.90,M,10.00,M,OVC,M,M,M,5500.00,M,M,M,M,KAMW 181900Z AUTO 21017KT 10SM OVC055 A2990 RMK MADISHF
AMW,2017-04-18 14:05,M,M,M,220.00,18.00,M,29.90,M,10.00,M,OVC,M,M,M,5500.00,M,M,M,M,KAMW 181905Z AUTO 22018KT 10SM OVC055 A2990 RMK MADISHF
AMW,2017-04-18 14:10,M,M,M,210.00,18.00,M,29.90,M,10.00,M,FEW,OVC,M,M,4400.00,5500.00,M,M,M,KAMW 181910Z AUTO 21018KT 10SM FEW044 OVC055 A2990 RMK MADISHF
AMW,2017-04-18 14:15,M,M,M,220.00,21.00,M,29.90,M,10.00,M,FEW,OVC,M,M,3999.00,5500.00,M,M,M,KAMW 181915Z AUTO 22021KT 10SM FEW039 OVC055 A2990 RMK MADISHF
AMW,2017-04-18 14:20,M,M,M,210.00,18.00,M,29.89,M,10.00,M,SCT,OVC,M,M,3800.00,5500.00,M,M,M,KAMW 181920Z AUTO 21018KT 10SM SCT038 OVC055 A2989 RMK MADISHF
AMW,2017-04-18 14:25,M,M,M,220.00,17.00,M,29.89,M,10.00,M,FEW,BKN,OVC,M,3000.00,3800.00,5500.00,M,M,KAMW 181925Z AUTO 22017KT 10SM FEW030 BKN038 OVC055 A2989 RMK MADISHF
AMW,2017-04-18 14:30,M,M,M,220.00,15.00,M,29.89,M,10.00,20.00,BKN,OVC,M,M,3399.00,5500.00,M,M,M,KAMW 181930Z AUTO 22015G20KT 10SM BKN033 OVC055 A2989 RMK MADISHF
AMW,2017-04-18 14:35,M,M,M,220.00,16.00,M,29.89,M,10.00,M,BKN,OVC,M,M,3399.00,3999.00,M,M,M,KAMW 181935Z AUTO 22016KT 10SM BKN033 OVC039 A2989 RMK MADISHF
AMW,2017-04-18 14:40,M,M,M,230.00,16.00,M,29.89,M,10.00,M,BKN,OVC,M,M,3000.00,3800.00,M,M,M,KAMW 181940Z AUTO 23016KT 10SM BKN030 OVC038 A2989 RMK MADISHF
AMW,2017-04-18 14:45,M,M,M,230.00,14.00,M,29.89,M,10.00,M,BKN,OVC,M,M,3000.00,3800.00,M,M,M,KAMW 181945Z AUTO 23014KT 10SM BKN030 OVC038 A2989 RMK MADISHF
AMW,2017-04-18 14:50,M,M,M,240.00,16.00,M,29.89,M,10.00,M,BKN,OVC,M,M,3000.00,3800.00,M,M,M,KAMW 181950Z AUTO 24016KT 10SM BKN030 OVC038 A2989 RMK MADISHF
AMW,2017-04-18 14:53,66.90,61.00,81.33,250.00,16.00,0.00,29.89,1011.90,10.00,M,BKN,BKN,OVC,M,3000.00,3800.00,5000.00,M,M,KAMW 181953Z AUTO 25016KT 10SM BKN030 BKN038 OVC050 19/16 A2989 RMK AO2 PK WND 22027/1916 SLP119 T01940161
AMW,2017-04-18 14:55,M,M,M,240.00,14.00,M,29.89,M,10.00,M,BKN,BKN,OVC,M,3000.00,3800.00,5000.00,M,M,KAMW 181955Z AUTO 24014KT 10SM BKN030 BKN038 OVC050 A2989 RMK MADISHF
AMW,2017-04-18 15:00,M,M,M,240.00,13.00,M,29.89,M,10.00,M,SCT,OVC,M,M,3000.00,3800.00,M,M,M,KAMW 182000Z AUTO 24013KT 10SM SCT030 OVC038 A2989 RMK MADISHF
AMW,2017-04-18 15:05,M,M,M,240.00,16.00,M,29.89,M,10.00,M,FEW,OVC,M,M,2800.00,3800.00,M,M,M,KAMW 182005Z AUTO 24016KT 10SM FEW028 OVC038 A2989 RMK MADISHF
AMW,2017-04-18 15:10,M,M,M,M,M,M,29.89,M,10.00,M,FEW,OVC,M,M,2800.00,3800.00,M,M,M,KAMW 182010Z AUTO /////KT 10SM FEW028 OVC038 A2989 RMK MADISHF
AMW,2017-04-18 15:15,M,M,M,240.00,16.00,M,29.89,M,10.00,M,OVC,M,M,M,3800.00,M,M,M,M,KAMW 182015Z AUTO 24016KT 10SM OVC038 A2989 RMK MADISHF
AMW,2017-04-18 15:20,M,M,M,240.00,14.00,M,29.89,M,10.00,19.00,OVC,M,M,M,3800.00,M,M,M,M,KAMW 182020Z AUTO 24014G19KT 10SM OVC038 A2989 RMK MADISHF
AMW,2017-04-18 15:25,M,M,M,240.00,12.00,M,29.89,M,10.00,M,OVC,M,M,M,3600.00,M,M,M,M,KAMW 182025Z AUTO 24012KT 10SM OVC036 A2989 RMK MADISHF
AMW,2017-04-18 15:30,M,M,M,240.00,15.00,M,29.89,M,10.00,M,OVC,M,M,M,3600.00,M,M,M,M,KAMW 182030Z AUTO 24015KT 10SM OVC036 A2989 RMK MADISHF
AMW,2017-04-18 15:35,M,M,M,M,M,M,29.90,M,10.00,M,OVC,M,M,M,3600.00,M,M,M,M,KAMW 182035Z AUTO /////KT 10SM OVC036 A2990 RMK MADISHF
AMW,2017-04-18 15:40,M,M,M,M,M,M,29.90,M,10.00,M,OVC,M,M,M,3600.00,M,M,M,M,KAMW 182040Z AUTO /////KT 10SM OVC036 A2990 RMK MADISHF
AMW,2017-04-18 15:45,M,M,M,250.00,12.00,M,29.90,M,10.00,M,OVC,M,M,M,3500.00,M,M,M,M,KAMW 182045Z AUTO 25012KT 10SM OVC035 A2990 RMK MADISHF
AMW,2017-04-18 15:50,M,M,M,260.00,11.00,M,29.90,M,10.00,M,OVC,M,M,M,3500.00,M,M,M,M,KAMW 182050Z AUTO 26011KT 10SM OVC035 A2990 RMK MADISHF
AMW,2017-04-18 15:53,66.90,61.00,81.33,260.00,12.00,0.00,29.90,1012.10,10.00,M,OVC,M,M,M,3500.00,M,M,M,M,KAMW 182053Z AUTO 26012KT 10SM OVC035 19/16 A2990 RMK AO2 SLP121 T01940161 55003
AMW,2017-04-18 15:55,M,M,M,260.00,12.00,M,29.90,M,10.00,M,OVC,M,M,M,3399.00,M,M,M,M,KAMW 182055Z AUTO 26012KT 10SM OVC033 A2990 RMK MADISHF
AMW,2017-04-18 16:00,M,M,M,260.00,12.00,M,29.90,M,10.00,M,OVC,M,M,M,3399.00,M,M,M,M,KAMW 182100Z AUTO 26012KT 10SM OVC033 A2990 RMK MADISHF
AMW,2017-04-18 16:05,M,M,M,260.00,11.00,M,29.90,M,10.00,M,OVC,M,M,M,3300.00,M,M,M,M,KAMW 182105Z AUTO 26011KT 10SM OVC033 A2990 RMK MADISHF
AMW,2017-04-18 16:10,M,M,M,260.00,12.00,M,29.90,M,10.00,M,OVC,M,M,M,3300.00,M,M,M,M,KAMW 182110Z AUTO 26012KT 10SM OVC033 A2990 RMK MADISHF
AMW,2017-04-18 16:15,M,M,M,250.00,13.00,M,29.90,M,10.00,M,OVC,M,M,M,3200.00,M,M,M,M,KAMW 182115Z AUTO 25013KT 10SM OVC032 A2990 RMK MADISHF
AMW,2017-04-18 16:20,M,M,M,250.00,11.00,M,29.90,M,10.00,M,OVC,M,M,M,3200.00,M,M,M,M,KAMW 182120Z AUTO 25011KT 10SM OVC032 A2990 RMK MADISHF
AMW,2017-04-18 16:25,M,M,M,250.00,11.00,M,29.90,M,10.00,M,OVC,M,M,M,3200.00,M,M,M,M,KAMW 182125Z AUTO 25011KT 10SM OVC032 A2990 RMK MADISHF
AMW,2017-04-18 16:30,M,M,M,250.00,11.00,M,29.90,M,10.00,M,OVC,M,M,M,3200.00,M,M,M,M,KAMW 182130Z AUTO 25011KT 10SM OVC032 A2990 RMK MADISHF
AMW,2017-04-18 16:35,M,M,M,250.00,11.00,M,29.91,M,10.00,M,OVC,M,M,M,3100.00,M,M,M,M,KAMW 182135Z AUTO 25011KT 10SM OVC031 A2991 RMK MADISHF
AMW,2017-04-18 16:40,M,M,M,250.00,11.00,M,29.91,M,10.00,M,OVC,M,M,M,3100.00,M,M,M,M,KAMW 182140Z AUTO 25011KT 10SM OVC031 A2991 RMK MADISHF
AMW,2017-04-18 16:45,M,M,M,260.00,10.00,M,29.91,M,10.00,M,OVC,M,M,M,3100.00,M,M,M,M,KAMW 182145Z AUTO 26010KT 10SM OVC031 A2991 RMK MADISHF
AMW,2017-04-18 16:50,M,M,M,260.00,9.00,M,29.91,M,10.00,M,OVC,M,M,M,3100.00,M,M,M,M,KAMW 182150Z AUTO 26009KT 10SM OVC031 A2991 RMK MADISHF
AMW,2017-04-18 16:53,66.90,61.00,81.33,260.00,10.00,0.00,29.91,1012.40,10.00,M,OVC,M,M,M,3100.00,M,M,M,M,KAMW 182153Z AUTO 26010KT 10SM OVC031 19/16 A2991 RMK AO2 SLP124 T01940161
AMW,2017-04-18 16:55,M,M,M,260.00,10.00,M,29.91,M,10.00,M,OVC,M,M,M,3100.00,M,M,M,M,KAMW 182155Z AUTO 26010KT 10SM OVC031 A2991 RMK MADISHF
AMW,2017-04-18 17:00,M,M,M,260.00,10.00,M,29.91,M,10.00,M,OVC,M,M,M,3100.00,M,M,M,M,KAMW 182200Z AUTO 26010KT 10SM OVC031 A2991 RMK MADISHF
AMW,2017-04-18 17:05,M,M,M,260.00,10.00,M,29.91,M,10.00,M,OVC,M,M,M,3100.00,M,M,M,M,KAMW 182205Z AUTO 26010KT 10SM OVC031 A2991 RMK MADISHF
AMW,2017-04-18 17:10,M,M,M,270.00,9.00,M,29.91,M,10.00,M,OVC,M,M,M,3100.00,M,M,M,M,KAMW 182210Z AUTO 27009KT 10SM OVC031 A2991 RMK MADISHF
AMW,2017-04-18 17:15,M,M,M,260.00,10.00,M,29.91,M,10.00,M,OVC,M,M,M,3100.00,M,M,M,M,KAMW 182215Z AUTO 26010KT 10SM OVC031 A2991 RMK MADISHF
AMW,2017-04-18 17:20,M,M,M,270.00,8.00,M,29.91,M,10.00,M,BKN,OVC,M,M,3100.00,3800.00,M,M,M,KAMW 182220Z AUTO 27008KT 10SM BKN031 OVC038 A2991 RMK MADISHF
AMW,2017-04-18 17:25,M,M,M,270.00,8.00,M,29.91,M,10.00,M,OVC,M,M,M,3300.00,M,M,M,M,KAMW 182225Z AUTO 27008KT 10SM OVC033 A2991 RMK MADISHF
AMW,2017-04-18 17:30,M,M,M,270.00,8.00,M,29.91,M,10.00,M,BKN,OVC,M,M,3500.00,4500.00,M,M,M,KAMW 182230Z AUTO 27008KT 10SM BKN035 OVC045 A2991 RMK MADISHF
AMW,2017-04-18 17:35,M,M,M,260.00,8.00,M,29.91,M,10.00,M,BKN,OVC,M,M,3399.00,4300.00,M,M,M,KAMW 182235Z AUTO 26008KT 10SM BKN033 OVC043 A2991 RMK MADISHF
AMW,2017-04-18 17:40,M,M,M,260.00,10.00,M,29.91,M,10.00,M,FEW,OVC,M,M,3000.00,4100.00,M,M,M,KAMW 182240Z AUTO 26010KT 10SM FEW030 OVC041 A2991 RMK MADISHF
AMW,2017-04-18 17:45,M,M,M,260.00,9.00,M,29.91,M,10.00,M,BKN,OVC,M,M,3700.00,4400.00,M,M,M,KAMW 182245Z AUTO 26009KT 10SM BKN037 OVC044 A2991 RMK MADISHF
AMW,2017-04-18 17:50,M,M,M,260.00,9.00,M,29.91,M,10.00,M,SCT,BKN,OVC,M,3700.00,4500.00,5000.00,M,M,KAMW 182250Z AUTO 26009KT 10SM SCT037 BKN045 OVC050 A2991 RMK MADISHF
AMW,2017-04-18 17:53,66.00,61.00,83.91,260.00,7.00,0.00,29.91,1012.50,10.00,M,SCT,OVC,M,M,3700.00,4800.00,M,M,M,KAMW 182253Z AUTO 26007KT 10SM SCT037 OVC048 19/16 A2991 RMK AO2 SLP125 T01890161
AMW,2017-04-18 17:55,M,M,M,250.00,6.00,M,29.91,M,10.00,M,FEW,OVC,M,M,3700.00,4800.00,M,M,M,KAMW 182255Z AUTO 25006KT 10SM FEW037 OVC048 A2991 RMK MADISHF
AMW,2017-04-18 18:00,M,M,M,240.00,9.00,M,29.91,M,10.00,M,SCT,OVC,M,M,4200.00,5000.00,M,M,M,KAMW 182300Z AUTO 24009KT 10SM SCT042 OVC050 A2991 RMK MADISHF
AMW,2017-04-18 18:05,M,M,M,240.00,9.00,M,29.91,M,10.00,M,BKN,OVC,M,M,4300.00,5000.00,M,M,M,KAMW 182305Z AUTO 24009KT 10SM BKN043 OVC050 A2991 RMK MADISHF
AMW,2017-04-18 18:10,M,M,M,240.00,9.00,M,29.91,M,10.00,M,OVC,M,M,M,4500.00,M,M,M,M,KAMW 182310Z AUTO 24009KT 10SM OVC045 A2991 RMK MADISHF
AMW,2017-04-18 18:15,M,M,M,250.00,9.00,M,29.91,M,10.00,M,OVC,M,M,M,4500.00,M,M,M,M,KAMW 182315Z AUTO 25009KT 10SM OVC045 A2991 RMK MADISHF
AMW,2017-04-18 18:20,M,M,M,240.00,9.00,M,29.92,M,10.00,M,OVC,M,M,M,4500.00,M,M,M,M,KAMW 182320Z AUTO 24009KT 10SM OVC045 A2992 RMK MADISHF
AMW,2017-04-18 18:25,M,M,M,250.00,8.00,M,29.92,M,10.00,M,OVC,M,M,M,4500.00,M,M,M,M,KAMW 182325Z AUTO 25008KT 10SM OVC045 A2992 RMK MADISHF
AMW,2017-04-18 18:30,M,M,M,250.00,7.00,M,29.92,M,10.00,M,OVC,M,M,M,4400.00,M,M,M,M,KAMW 182330Z AUTO 25007KT 10SM OVC044 A2992 RMK MADISHF
AMW,2017-04-18 18:35,M,M,M,250.00,7.00,M,29.92,M,10.00,M,OVC,M,M,M,4400.00,M,M,M,M,KAMW 182335Z AUTO 25007KT 10SM OVC044 A2992 RMK MADISHF
AMW,2017-04-18 18:40,M,M,M,250.00,7.00,M,29.92,M,10.00,M,OVC,M,M,M,4600.00,M,M,M,M,KAMW 182340Z AUTO 25007KT 10SM OVC046 A2992 RMK MADISHF
AMW,2017-04-18 18:45,M,M,M,250.00,7.00,M,29.92,M,10.00,M,OVC,M,M,M,4600.00,M,M,M,M,KAMW 182345Z AUTO 25007KT 10SM OVC046 A2992 RMK MADISHF
AMW,2017-04-18 18:50,M,M,M,260.00,6.00,M,29.92,M,10.00,M,OVC,M,M,M,4600.00,M,M,M,M,KAMW 182350Z AUTO 26006KT 10SM OVC046 A2992 RMK MADISHF
AMW,2017-04-18 18:53,64.90,62.10,90.64,270.00,6.00,0.00,29.92,1012.90,10.00,M,OVC,M,M,M,4700.00,M,M,M,M,KAMW 182353Z AUTO 27006KT 10SM OVC047 18/17 A2992 RMK AO2 SLP129 T01830167 10206 20183 53008
AMW,2017-04-18 18:55,M,M,M,270.00,6.00,M,29.92,M,10.00,M,OVC,M,M,M,4700.00,M,M,M,M,KAMW 182355Z AUTO 27006KT 10SM OVC047 A2992 RMK MADISHF
AMW,2017-04-18 19:00,M,M,M,270.00,7.00,M,29.92,M,10.00,M,SCT,OVC,M,M,4300.00,5000.00,M,M,M,KAMW 190000Z AUTO 27007KT 10SM SCT043 OVC050 A2992 RMK MADISHF
AMW,2017-04-18 19:05,M,M,M,260.00,7.00,M,29.92,M,10.00,M,SCT,OVC,M,M,4300.00,5000.00,M,M,M,KAMW 190005Z AUTO 26007KT 10SM SCT043 OVC050 A2992 RMK MADISHF
AMW,2017-04-18 19:10,M,M,M,260.00,8.00,M,29.92,M,10.00,M,FEW,OVC,M,M,4100.00,5500.00,M,M,M,KAMW 190010Z AUTO 26008KT 10SM FEW041 OVC055 A2992 RMK MADISHF
AMW,2017-04-18 19:15,M,M,M,250.00,8.00,M,29.92,M,10.00,M,FEW,BKN,OVC,M,4100.00,5500.00,7000.00,M,M,KAMW 190015Z AUTO 25008KT 10SM FEW041 BKN055 OVC070 A2992 RMK MADISHF
AMW,2017-04-18 19:20,M,M,M,250.00,9.00,M,29.92,M,10.00,M,FEW,BKN,OVC,M,4100.00,5500.00,7000.00,M,M,KAMW 190020Z AUTO 25009KT 10SM FEW041 BKN055 OVC070 A2992 RMK MADISHF
AMW,2017-04-18 19:25,M,M,M,240.00,8.00,M,29.92,M,10.00,M,BKN,OVC,M,M,5500.00,7000.00,M,M,M,KAMW 190025Z AUTO 24008KT 10SM BKN055 OVC070 A2992 RMK MADISHF
AMW,2017-04-18 19:30,M,M,M,250.00,7.00,M,29.92,M,10.00,M,BKN,OVC,M,M,5500.00,7000.00,M,M,M,KAMW 190030Z AUTO 25007KT 10SM BKN055 OVC070 A2992 RMK MADISHF
AMW,2017-04-18 19:35,M,M,M,240.00,6.00,M,29.92,M,10.00,M,BKN,OVC,M,M,6000.00,7000.00,M,M,M,KAMW 190035Z AUTO 24006KT 10SM BKN060 OVC070 A2992 RMK MADISHF
AMW,2017-04-18 19:40,M,M,M,240.00,6.00,M,29.92,M,10.00,M,BKN,OVC,M,M,6000.00,7000.00,M,M,M,KAMW 190040Z AUTO 24006KT 10SM BKN060 OVC070 A2992 RMK MADISHF
AMW,2017-04-18 19:45,M,M,M,240.00,5.00,M,29.92,M,10.00,M,SCT,OVC,M,M,6000.00,7500.00,M,M,M,KAMW 190045Z AUTO 24005KT 10SM SCT060 OVC075 A2992 RMK MADISHF
AMW,2017-04-18 19:50,M,M,M,240.00,4.00,M,29.92,M,10.00,M,SCT,OVC,M,M,6000.00,7500.00,M,M,M,KAMW 190050Z AUTO 24004KT 10SM SCT060 OVC075 A2992 RMK MADISHF
AMW,2017-04-18 19:53,64.00,62.10,93.54,230.00,4.00,0.00,29.92,1012.90,10.00,M,SCT,OVC,M,M,6000.00,7500.00,M,M,M,KAMW 190053Z AUTO 23004KT 10SM SCT060 OVC075 18/17 A2992 RMK AO2 SLP129 T01780167
AMW,2017-04-18 19:55,M,M,M,230.00,5.00,M,29.92,M,10.00,M,SCT,OVC,M,M,6000.00,7500.00,M,M,M,KAMW 190055Z AUTO 23005KT 10SM SCT060 OVC075 A2992 RMK MADISHF
AMW,2017-04-18 20:00,M,M,M,230.00,4.00,M,29.92,M,10.00,M,OVC,M,M,M,7000.00,M,M,M,M,KAMW 190100Z AUTO 23004KT 10SM OVC070 A2992 RMK MADISHF
AMW,2017-04-18 20:05,M,M,M,230.00,4.00,M,29.92,M,10.00,M,OVC,M,M,M,7500.00,M,M,M,M,KAMW 190105Z AUTO 23004KT 10SM OVC075 A2992 RMK MADISHF
AMW,2017-04-18 20:10,M,M,M,230.00,4.00,M,29.92,M,10.00,M,OVC,M,M,M,7500.00,M,M,M,M,KAMW 190110Z AUTO 23004KT 10SM OVC075 A2992 RMK MADISHF
AMW,2017-04-18 20:15,M,M,M,220.00,4.00,M,29.93,M,10.00,M,OVC,M,M,M,7500.00,M,M,M,M,KAMW 190115Z AUTO 22004KT 10SM OVC075 A2993 RMK MADISHF
AMW,2017-04-18 20:20,M,M,M,230.00,4.00,M,29.93,M,10.00,M,OVC,M,M,M,7500.00,M,M,M,M,KAMW 190120Z AUTO 23004KT 10SM OVC075 A2993 RMK MADISHF
AMW,2017-04-18 20:25,M,M,M,240.00,4.00,M,29.93,M,10.00,M,SCT,OVC,M,M,6000.00,7500.00,M,M,M,KAMW 190125Z AUTO 24004KT 10SM SCT060 OVC075 A2993 RMK MADISHF
AMW,2017-04-18 20:30,M,M,M,240.00,4.00,M,29.93,M,10.00,M,BKN,OVC,M,M,6000.00,7999.00,M,M,M,KAMW 190130Z AUTO 24004KT 10SM BKN060 OVC079 A2993 RMK MADISHF
AMW,2017-04-18 20:35,M,M,M,250.00,3.00,M,29.93,M,10.00,M,BKN,OVC,M,M,6000.00,7999.00,M,M,M,KAMW 190135Z AUTO 25003KT 10SM BKN060 OVC079 A2993 RMK MADISHF
AMW,2017-04-18 20:40,M,M,M,250.00,5.00,M,29.93,M,10.00,M,BKN,OVC,M,M,6000.00,7999.00,M,M,M,KAMW 190140Z AUTO 25005KT 10SM BKN060 OVC079 A2993 RMK MADISHF
AMW,2017-04-18 20:45,M,M,M,250.00,4.00,M,29.93,M,9.00,M,BKN,OVC,M,M,6000.00,7999.00,M,M,M,KAMW 190145Z AUTO 25004KT 9SM BKN060 OVC079 A2993 RMK MADISHF
AMW,2017-04-18 20:50,M,M,M,260.00,4.00,M,29.93,M,9.00,M,OVC,M,M,M,6000.00,M,M,M,M,KAMW 190150Z AUTO 26004KT 9SM OVC060 A2993 RMK MADISHF
AMW,2017-04-18 20:53,61.00,61.00,100.00,250.00,4.00,0.00,29.93,1013.10,9.00,M,BKN,OVC,M,M,6000.00,8000.00,M,M,M,KAMW 190153Z AUTO 25004KT 9SM BKN060 OVC080 16/16 A2993 RMK AO2 SLP131 T01610161
AMW,2017-04-18 20:55,M,M,M,240.00,3.00,M,29.93,M,9.00,M,BKN,OVC,M,M,6000.00,7999.00,M,M,M,KAMW 190155Z AUTO 24003KT 9SM BKN060 OVC079 A2993 RMK MADISHF
AMW,2017-04-18 21:00,M,M,M,240.00,3.00,M,29.93,M,8.00,M,BKN,OVC,M,M,6000.00,7999.00,M,M,M,KAMW 190200Z AUTO 24003KT 8SM BKN060 OVC079 A2993 RMK MADISHF
AMW,2017-04-18 21:05,M,M,M,240.00,3.00,M,29.93,M,8.00,M,BKN,OVC,M,M,6500.00,7999.00,M,M,M,KAMW 190205Z AUTO 24003KT 8SM BKN065 OVC079 A2993 RMK MADISHF
AMW,2017-04-18 21:10,M,M,M,0.00,0.00,M,29.93,M,8.00,M,BKN,OVC,M,M,6500.00,7999.00,M,M,M,KAMW 190210Z AUTO 00000KT 8SM BKN065 OVC079 A2993 RMK MADISHF
AMW,2017-04-18 21:15,M,M,M,0.00,0.00,M,29.93,M,7.00,M,SCT,OVC,M,M,6500.00,7999.00,M,M,M,KAMW 190215Z AUTO 00000KT 7SM SCT065 OVC079 A2993 RMK MADISHF
AMW,2017-04-18 21:20,M,M,M,0.00,0.00,M,29.93,M,7.00,M,SCT,BKN,M,M,6500.00,7999.00,M,M,M,KAMW 190220Z AUTO 00000KT 7SM SCT065 BKN079 A2993 RMK MADISHF
AMW,2017-04-18 21:25,M,M,M,0.00,0.00,M,29.94,M,7.00,M,FEW,BKN,M,M,6500.00,7999.00,M,M,M,KAMW 190225Z AUTO 00000KT 7SM FEW065 BKN079 A2994 RMK MADISHF
AMW,2017-04-18 21:30,M,M,M,210.00,3.00,M,29.94,M,7.00,M,SCT,M,M,M,7500.00,M,M,M,M,KAMW 190230Z AUTO 21003KT 7SM SCT075 A2994 RMK MADISHF
AMW,2017-04-18 21:35,M,M,M,0.00,0.00,M,29.94,M,7.00,M,SCT,M,M,M,7999.00,M,M,M,M,KAMW 190235Z AUTO 00000KT 7SM SCT079 A2994 RMK MADISHF
AMW,2017-04-18 21:40,M,M,M,260.00,3.00,M,29.95,M,7.00,M,FEW,M,M,M,7999.00,M,M,M,M,KAMW 190240Z AUTO 26003KT 7SM FEW079 A2995 RMK MADISHF
AMW,2017-04-18 21:45,M,M,M,250.00,4.00,M,29.95,M,7.00,M,FEW,M,M,M,7999.00,M,M,M,M,KAMW 190245Z AUTO 25004KT 7SM FEW079 A2995 RMK MADISHF
AMW,2017-04-18 21:50,M,M,M,250.00,5.00,M,29.95,M,6.00,M,FEW,M,M,M,6000.00,M,M,M,BR,KAMW 190250Z AUTO 25005KT 6SM BR FEW060 A2995 RMK MADISHF
AMW,2017-04-18 21:53,57.90,57.90,100.00,250.00,4.00,0.00,29.95,1014.00,6.00,M,SCT,M,M,M,6000.00,M,M,M,BR,KAMW 190253Z AUTO 25004KT 6SM BR SCT060 14/14 A2995 RMK AO2 SLP140 T01440144 53010
AMW,2017-04-18 21:55,M,M,M,250.00,5.00,M,29.96,M,6.00,M,SCT,M,M,M,6000.00,M,M,M,BR,KAMW 190255Z AUTO 25005KT 6SM BR SCT060 A2996 RMK MADISHF
AMW,2017-04-18 22:00,M,M,M,260.00,6.00,M,29.96,M,6.00,M,BKN,M,M,M,6000.00,M,M,M,BR,KAMW 190300Z AUTO 26006KT 6SM BR BKN060 A2996 RMK MADISHF
AMW,2017-04-18 22:05,M,M,M,250.00,6.00,M,29.96,M,7.00,M,BKN,M,M,M,6000.00,M,M,M,M,KAMW 190305Z AUTO 25006KT 7SM BKN060 A2996 RMK MADISHF
AMW,2017-04-18 22:10,M,M,M,250.00,5.00,M,29.96,M,7.00,M,BKN,M,M,M,6000.00,M,M,M,M,KAMW 190310Z AUTO 25005KT 7SM BKN060 A2996 RMK MADISHF
AMW,2017-04-18 22:15,M,M,M,250.00,5.00,M,29.96,M,7.00,M,BKN,M,M,M,6000.00,M,M,M,M,KAMW 190315Z AUTO 25005KT 7SM BKN060 A2996 RMK MADISHF
AMW,2017-04-18 22:20,M,M,M,250.00,5.00,M,29.96,M,7.00,M,BKN,M,M,M,6000.00,M,M,M,M,KAMW 190320Z AUTO 25005KT 7SM BKN060 A2996 RMK MADISHF
AMW,2017-04-18 22:25,M,M,M,260.00,5.00,M,29.96,M,7.00,M,SCT,M,M,M,6000.00,M,M,M,M,KAMW 190325Z AUTO 26005KT 7SM SCT060 A2996 RMK MADISHF
AMW,2017-04-18 22:30,M,M,M,260.00,6.00,M,29.96,M,7.00,M,FEW,M,M,M,6500.00,M,M,M,M,KAMW 190330Z AUTO 26006KT 7SM FEW065 A2996 RMK MADISHF
AMW,2017-04-18 22:35,M,M,M,250.00,6.00,M,29.96,M,7.00,M,FEW,M,M,M,6500.00,M,M,M,M,KAMW 190335Z AUTO 25006KT 7SM FEW065 A2996 RMK MADISHF
AMW,2017-04-18 22:40,M,M,M,260.00,5.00,M,29.97,M,7.00,M,FEW,M,M,M,6500.00,M,M,M,M,KAMW 190340Z AUTO 26005KT 7SM FEW065 A2997 RMK MADISHF
AMW,2017-04-18 22:45,M,M,M,270.00,6.00,M,29.97,M,6.00,M,FEW,M,M,M,5500.00,M,M,M,BR,KAMW 190345Z AUTO 27006KT 6SM BR FEW055 A2997 RMK MADISHF
AMW,2017-04-18 22:50,M,M,M,280.00,6.00,M,29.97,M,7.00,M,FEW,M,M,M,6000.00,M,M,M,M,KAMW 190350Z AUTO 28006KT 7SM FEW060 A2997 RMK MADISHF
AMW,2017-04-18 22:53,57.90,57.90,100.00,310.00,5.00,0.00,29.97,1014.50,7.00,M,FEW,M,M,M,6000.00,M,M,M,M,KAMW 190353Z AUTO 31005KT 7SM FEW060 14/14 A2997 RMK AO2 SLP145 T01440144
AMW,2017-04-18 22:55,M,M,M,320.00,8.00,M,29.97,M,7.00,M,FEW,FEW,M,M,6000.00,7999.00,M,M,M,KAMW 190355Z AUTO 32008KT 7SM FEW060 FEW079 A2997 RMK MADISHF
AMW,2017-04-18 23:00,M,M,M,M,M,M,29.97,M,8.00,M,FEW,FEW,M,M,6000.00,7999.00,M,M,M,KAMW 190400Z AUTO /////KT 8SM FEW060 FEW079 A2997 RMK MADISHF
AMW,2017-04-18 23:05,M,M,M,340.00,12.00,M,29.98,M,10.00,M,FEW,FEW,M,M,6000.00,7999.00,M,M,M,KAMW 190405Z AUTO 34012KT 10SM FEW060 FEW079 A2998 RMK MADISHF
AMW,2017-04-18 23:10,M,M,M,M,M,M,29.98,M,10.00,M,FEW,FEW,M,M,6000.00,8500.00,M,M,M,KAMW 190410Z AUTO /////KT 10SM FEW060 FEW085 A2998 RMK MADISHF
AMW,2017-04-18 23:15,M,M,M,350.00,11.00,M,29.98,M,10.00,M,SCT,SCT,M,M,6000.00,7999.00,M,M,M,KAMW 190415Z AUTO 35011KT 10SM SCT060 SCT079 A2998 RMK MADISHF
AMW,2017-04-18 23:16,60.10,55.90,85.99,350.00,12.00,0.00,29.98,M,10.00,M,SCT,SCT,M,M,6000.00,8500.00,M,M,M,KAMW 190416Z AUTO 35012KT 10SM SCT060 SCT085 16/13 A2998 RMK AO2 WSHFT 0356 T01560133
AMW,2017-04-18 23:20,M,M,M,350.00,12.00,M,29.99,M,10.00,M,SCT,BKN,BKN,M,6000.00,7000.00,8500.00,M,M,KAMW 190420Z AUTO 35012KT 10SM SCT060 BKN070 BKN085 A2999 RMK MADISHF
AMW,2017-04-18 23:25,M,M,M,350.00,10.00,M,29.99,M,10.00,M,BKN,BKN,BKN,M,6000.00,7000.00,8500.00,M,M,KAMW 190425Z AUTO 35010KT 10SM BKN060 BKN070 BKN085 A2999 RMK MADISHF
AMW,2017-04-18 23:30,M,M,M,350.00,9.00,M,29.99,M,10.00,M,BKN,BKN,BKN,M,6000.00,7000.00,8500.00,M,M,KAMW 190430Z AUTO 35009KT 10SM BKN060 BKN070 BKN085 A2999 RMK MADISHF
AMW,2017-04-18 23:35,M,M,M,360.00,9.00,M,29.99,M,10.00,M,BKN,OVC,M,M,6000.00,7000.00,M,M,M,KAMW 190435Z AUTO 36009KT 10SM BKN060 OVC070 A2999 RMK MADISHF
AMW,2017-04-18 23:40,M,M,M,360.00,10.00,M,29.99,M,10.00,M,BKN,OVC,M,M,6000.00,7000.00,M,M,M,KAMW 190440Z AUTO 36010KT 10SM BKN060 OVC070 A2999 RMK MADISHF
AMW,2017-04-18 23:45,M,M,M,360.00,9.00,M,30.00,M,10.00,M,BKN,OVC,M,M,6000.00,7000.00,M,M,M,KAMW 190445Z AUTO 36009KT 10SM BKN060 OVC070 A3000 RMK MADISHF
AMW,2017-04-18 23:50,M,M,M,360.00,9.00,M,29.99,M,10.00,M,OVC,M,M,M,6000.00,M,M,M,M,KAMW 190450Z AUTO 36009KT 10SM OVC060 A2999 RMK MADISHF
AMW,2017-04-18 23:53,59.00,54.00,83.46,360.00,8.00,0.00,30.00,1015.30,10.00,M,OVC,M,M,M,6000.00,M,M,M,M,KAMW 190453Z AUTO 36008KT 10SM OVC060 15/12 A3000 RMK AO2 WSHFT 0356 SLP153 T01500122
AMW,2017-04-18 23:55,M,M,M,350.00,7.00,M,30.00,M,10.00,M,OVC,M,M,M,6000.00,M,M,M,M,KAMW 190455Z AUTO 35007KT 10SM OVC060 A3000 RMK MADISHF
